station,valid,lon,lat,elevation,tmpf,dwpf,relh,drct,sknt,p01i,alti,vsby,skyc1,skyl1,wxcodes,feel,metar,day,month,year,hr,min
OTHH,2022-10-06 21:00:00,51.6084,25.2746,-3.72,86.0,80.6,83.99,350.0,7.0,0.0,29.68,5.59,NSC,,HZ,101.9,OTHH 062100Z 35007KT 9000 NSC 30/27 Q1005 NOSIG,6,10,2022,21,0
OTHH,2022-10-06 22:00:00,51.6084,25.2746,-3.72,86.0,80.6,83.99,340.0,5.0,0.0,29.68,5.59,NSC,,HZ,101.9,OTHH 062200Z 34005KT 9000 NSC 30/27 Q1005 NOSIG,6,10,2022,22,0
OTHH,2022-10-06 23:00:00,51.6084,25.2746,-3.72,84.2,78.8,83.88,,2.0,0.0,29.68,5.59,NSC,,HZ,96.1,OTHH 062300Z VRB02KT 9000 NSC 29/26 Q1005 NOSIG,6,10,2022,23,0
OTHH,2022-10-07 01:00:00,51.6084,25.2746,-3.72,82.4,77.0,83.77,,2.0,0.0,29.68,5.59,NSC,,HZ,90.85,OTHH 070100Z VRB02KT 9000 NSC 28/25 Q1005 NOSIG,7,10,2022,1,0
OTHH,2022-10-07 02:00:00,51.6084,25.2746,-3.72,82.4,77.0,83.77,310.0,4.0,0.0,29.71,5.59,NSC,,HZ,90.85,OTHH 070200Z 31004KT 9000 NSC 28/25 Q1006 NOSIG,7,10,2022,2,0
OTHH,2022-10-07 03:00:00,51.6084,25.2746,-3.72,84.2,77.0,79.04,300.0,8.0,0.0,29.71,4.35,NSC,,HZ,94.16,OTHH 070300Z 30008KT 7000 NSC 29/25 Q1006 NOSIG,7,10,2022,3,0
OTHH,2022-10-07 04:00:00,51.6084,25.2746,-3.72,84.2,77.0,79.04,300.0,7.0,0.0,29.71,5.59,NSC,,HZ,94.16,OTHH 070400Z 30007KT 9000 NSC 29/25 Q1006 NOSIG,7,10,2022,4,0
OTHH,2022-10-07 11:00:00,51.6084,25.2746,-3.72,93.2,77.0,59.47,80.0,7.0,0.0,29.68,5.59,NSC,,HZ,107.52,OTHH 071100Z 08007KT 9000 NSC 34/25 Q1005 NOSIG,7,10,2022,11,0
OTHH,2022-10-07 12:00:00,51.6084,25.2746,-3.72,95.0,75.2,52.98,90.0,7.0,0.0,29.65,5.59,NSC,,HZ,107.39,OTHH 071200Z 09007KT 9000 NSC 35/24 Q1004 NOSIG,7,10,2022,12,0
OTHH,2022-10-07 22:00:00,51.6084,25.2746,-3.72,87.8,78.8,74.77,60.0,6.0,0.0,29.71,5.59,NSC,,HZ,102.37,OTHH 072200Z 06006KT 9000 NSC 31/26 Q1006 NOSIG,7,10,2022,22,0
OTHH,2022-10-08 03:00:00,51.6084,25.2746,-3.72,86.0,78.8,79.18,40.0,4.0,0.0,29.77,4.35,NSC,,HZ,99.38,OTHH 080300Z 04004KT 360V060 7000 NSC 30/26 Q1008 NOSIG,8,10,2022,3,0
OTHH,2022-10-08 04:00:00,51.6084,25.2746,-3.72,87.8,78.8,74.77,50.0,5.0,0.0,29.77,4.97,NSC,,HZ,102.37,OTHH 080400Z 05005KT 020V090 8000 NSC 31/26 Q1008 NOSIG,8,10,2022,4,0
OTHH,2022-10-09 13:00:00,51.6084,25.2746,-3.72,95.0,71.6,46.93,110.0,7.0,0.0,29.8,6.21,FEW,3500.0,HZ,103.13,OTHH 091300Z 11007KT 9999 FEW035 35/22 Q1009 NOSIG,9,10,2022,13,0
OTHH,2022-10-09 14:00:00,51.6084,25.2746,-3.72,91.4,73.4,55.77,110.0,7.0,0.0,29.8,6.21,FEW,3500.0,HZ,100.52,OTHH 091400Z 11007KT 9999 FEW035TCU 33/23 Q1009 NOSIG,9,10,2022,14,0
OTHH,2022-10-10 12:00:00,51.6084,25.2746,-3.72,95.0,71.6,46.93,110.0,8.0,0.0,29.83,6.21,FEW,4000.0,HZ,103.13,OTHH 101200Z 11008KT 9999 FEW040 35/22 Q1010 NOSIG,10,10,2022,12,0
OTHH,2022-10-10 13:00:00,51.6084,25.2746,-3.72,93.2,73.4,52.73,80.0,6.0,0.0,29.85,6.21,FEW,4000.0,HZ,102.82,OTHH 101300Z 08006KT 9999 FEW040 34/23 Q1011 NOSIG,10,10,2022,13,0
OTHH,2022-10-12 14:00:00,51.6084,25.2746,-3.72,91.4,68.0,46.41,100.0,9.0,0.0,29.77,6.21,FEW,4000.0,HZ,95.55,OTHH 121400Z 10009KT 9999 FEW040 33/20 Q1008 NOSIG,12,10,2022,14,0
OTHH,2022-10-13 00:00:00,51.6084,25.2746,-3.72,82.4,77.0,83.77,310.0,3.0,0.0,29.8,4.97,NSC,,HZ,90.85,OTHH 130000Z 31003KT 8000 NSC 28/25 Q1009 NOSIG,13,10,2022,0,0
OTHH,2022-10-13 01:00:00,51.6084,25.2746,-3.72,80.6,77.0,88.83,,2.0,0.0,29.8,4.97,NSC,,HZ,87.59,OTHH 130100Z VRB02KT 8000 NSC 27/25 Q1009 NOSIG,13,10,2022,1,0
OTHH,2022-10-13 02:00:00,51.6084,25.2746,-3.72,80.6,75.2,83.66,,2.0,0.0,29.83,3.73,FEW,1100.0,HZ,86.17,OTHH 130200Z VRB02KT 6000 FEW011 27/24 Q1010 NOSIG,13,10,2022,2,0
OTHH,2022-10-13 03:00:00,51.6084,25.2746,-3.72,80.6,77.0,88.83,,2.0,0.0,29.85,3.11,FEW,1200.0,HZ,87.59,OTHH 130300Z VRB02KT 5000 HZ FEW012 27/25 Q1011 TEMPO 4500,13,10,2022,3,0
OTHH,2022-10-13 04:00:00,51.6084,25.2746,-3.72,84.2,78.8,83.88,310.0,3.0,0.0,29.85,3.11,NSC,,HZ,96.1,OTHH 130400Z 31003KT 5000 HZ NSC 29/26 Q1011 TEMPO 4500,13,10,2022,4,0
OTHH,2022-10-13 05:00:00,51.6084,25.2746,-3.72,86.0,77.0,74.61,300.0,5.0,0.0,29.88,4.35,NSC,,HZ,97.15,OTHH 130500Z 30005KT 270V330 7000 NSC 30/25 Q1012 NOSIG,13,10,2022,5,0
OTHH,2022-10-13 06:00:00,51.6084,25.2746,-3.72,87.8,75.2,66.35,20.0,5.0,0.0,29.88,4.97,FEW,2500.0,HZ,97.76,OTHH 130600Z 02005KT 340V070 8000 FEW025 31/24 Q1012 NOSIG,13,10,2022,6,0
OTHH,2022-10-13 07:00:00,51.6084,25.2746,-3.72,89.6,73.4,59.01,10.0,7.0,0.0,29.88,4.97,FEW,2500.0,HZ,98.2,OTHH 130700Z 01007KT 8000 FEW025 32/23 Q1012 NOSIG,13,10,2022,7,0
OTHH,2022-10-13 08:00:00,51.6084,25.2746,-3.72,91.4,73.4,55.77,10.0,7.0,0.0,29.85,5.59,NSC,,HZ,100.52,OTHH 130800Z 01007KT 9000 NSC 33/23 Q1011 NOSIG,13,10,2022,8,0
OTHH,2022-10-13 09:00:00,51.6084,25.2746,-3.72,91.4,71.6,52.48,30.0,5.0,0.0,29.83,5.59,NSC,,HZ,98.64,OTHH 130900Z 03005KT 9000 NSC 33/22 Q1010 NOSIG,13,10,2022,9,0
OTHH,2022-10-13 10:00:00,51.6084,25.2746,-3.72,93.2,73.4,52.73,70.0,7.0,0.0,29.83,5.59,NSC,,HZ,102.82,OTHH 131000Z 07007KT 030V100 9000 NSC 34/23 Q1010 NOSIG,13,10,2022,10,0
OTHH,2022-10-13 11:00:00,51.6084,25.2746,-3.72,93.2,64.4,38.73,70.0,7.0,0.0,29.8,5.59,NSC,,HZ,95.2,OTHH 131100Z 07007KT 030V090 9000 NSC 34/18 Q1009 NOSIG,13,10,2022,11,0
OTHH,2022-10-13 12:00:00,51.6084,25.2746,-3.72,91.4,73.4,55.77,60.0,6.0,0.0,29.8,5.59,FEW,4000.0,HZ,100.52,OTHH 131200Z 06006KT 020V080 9000 FEW040 33/23 Q1009 NOSIG,13,10,2022,12,0
OTHH,2022-10-13 13:00:00,51.6084,25.2746,-3.72,91.4,75.2,59.24,80.0,6.0,0.0,29.8,5.59,FEW,4000.0,HZ,102.65,OTHH 131300Z 08006KT 9000 FEW040TCU 33/24 Q1009 NOSIG,13,10,2022,13,0
OTHH,2022-10-13 14:00:00,51.6084,25.2746,-3.72,89.6,75.2,62.68,90.0,6.0,0.0,29.8,4.97,FEW,4000.0,HZ,100.23,OTHH 131400Z 09006KT 8000 FEW040 32/24 Q1009 NOSIG,13,10,2022,14,0
OTHH,2022-10-13 20:00:00,51.6084,25.2746,-3.72,82.4,75.2,78.9,0.0,0.0,0.0,29.83,5.59,NSC,,HZ,89.48,OTHH 132000Z 00000KT 9000 NSC 28/24 Q1010 NOSIG,13,10,2022,20,0
OTHH,2022-10-14 07:00:00,51.6084,25.2746,-3.72,91.4,75.2,59.24,,5.0,0.0,29.88,6.21,FEW,2500.0,HZ,102.65,OTHH 140700Z VRB05KT 9999 FEW025 33/24 Q1012 NOSIG,14,10,2022,7,0
OTHH,2022-10-14 10:00:00,51.6084,25.2746,-3.72,93.2,73.4,52.73,140.0,10.0,0.0,29.83,6.21,FEW,4000.0,HZ,102.82,OTHH 141000Z 14010KT 100V160 9999 FEW040 34/23 Q1010 NOSIG,14,10,2022,10,0
OTHH,2022-10-14 11:00:00,51.6084,25.2746,-3.72,93.2,73.4,52.73,120.0,10.0,0.0,29.8,6.21,FEW,4000.0,HZ,102.82,OTHH 141100Z 12010KT 9999 FEW040 34/23 Q1009 NOSIG,14,10,2022,11,0
OTHH,2022-10-14 12:00:00,51.6084,25.2746,-3.72,93.2,75.2,56.01,120.0,9.0,0.0,29.8,5.59,FEW,4000.0,HZ,105.02,OTHH 141200Z 12009KT 9000 FEW040 34/24 Q1009 NOSIG,14,10,2022,12,0
OTHH,2022-10-14 13:00:00,51.6084,25.2746,-3.72,89.6,77.0,66.55,150.0,6.0,0.0,29.8,4.97,FEW,4000.0,HZ,102.54,OTHH 141300Z 15006KT 120V180 8000 FEW040 32/25 Q1009 NOSIG,14,10,2022,13,0
OTHH,2022-10-14 14:00:00,51.6084,25.2746,-3.72,89.6,73.4,59.01,120.0,7.0,0.0,29.8,4.97,FEW,4000.0,HZ,98.2,OTHH 141400Z 12007KT 090V160 8000 FEW040 32/23 Q1009 NOSIG,14,10,2022,14,0
OTHH,2022-10-15 01:00:00,51.6084,25.2746,-3.72,84.2,75.2,74.44,90.0,3.0,0.0,29.83,5.59,NSC,,HZ,92.45,OTHH 150100Z 09003KT 9000 NSC 29/24 Q1010 NOSIG,15,10,2022,1,0
OTHH,2022-10-15 02:00:00,51.6084,25.2746,-3.72,80.6,71.6,74.11,,1.0,0.0,29.85,5.59,NSC,,HZ,84.57,OTHH 150200Z VRB01KT 9000 NSC 27/22 Q1011 NOSIG,15,10,2022,2,0
OTHH,2022-10-15 03:00:00,51.6084,25.2746,-3.72,86.0,75.2,70.27,90.0,4.0,0.0,29.85,4.35,NSC,,HZ,95.19,OTHH 150300Z 09004KT 7000 NSC 30/24 Q1011 NOSIG,15,10,2022,3,0
OTHH,2022-10-15 04:00:00,51.6084,25.2746,-3.72,87.8,75.2,66.35,110.0,5.0,0.0,29.88,5.59,NSC,,HZ,97.76,OTHH 150400Z 11005KT 9000 NSC 31/24 Q1012 NOSIG,15,10,2022,4,0
OTHH,2022-10-15 05:00:00,51.6084,25.2746,-3.72,89.6,75.2,62.68,130.0,7.0,0.0,29.91,5.59,NSC,,HZ,100.23,OTHH 150500Z 13007KT 9000 NSC 32/24 Q1013 NOSIG,15,10,2022,5,0
OTHH,2022-10-15 08:00:00,51.6084,25.2746,-3.72,95.0,71.6,46.93,130.0,7.0,0.0,29.88,6.21,FEW,3500.0,HZ,103.13,OTHH 150800Z 13007KT 100V160 9999 FEW035 35/22 Q1012 NOSIG,15,10,2022,8,0
OTHH,2022-10-15 09:00:00,51.6084,25.2746,-3.72,95.0,64.4,36.63,140.0,9.0,0.0,29.85,6.21,FEW,3500.0,HZ,97.26,OTHH 150900Z 14009KT 9999 FEW035 35/18 Q1011 NOSIG,15,10,2022,9,0
OTHH,2022-10-15 10:00:00,51.6084,25.2746,-3.72,95.0,62.6,34.39,130.0,11.0,0.0,29.83,6.21,FEW,3500.0,HZ,96.22,OTHH 151000Z 13011KT 9999 FEW035 35/17 Q1010 NOSIG,15,10,2022,10,0
OTHH,2022-10-15 11:00:00,51.6084,25.2746,-3.72,95.0,64.4,36.63,140.0,10.0,0.0,29.83,6.21,FEW,4000.0,HZ,97.26,OTHH 151100Z 14010KT 9999 FEW040 35/18 Q1010 NOSIG,15,10,2022,11,0
OTHH,2022-10-15 12:00:00,51.6084,25.2746,-3.72,93.2,62.6,36.35,120.0,9.0,0.0,29.83,6.21,FEW,4000.0,HZ,94.2,OTHH 151200Z 12009KT 9999 FEW040 34/17 Q1010 NOSIG,15,10,2022,12,0
OTHH,2022-10-15 13:00:00,51.6084,25.2746,-3.72,93.2,66.2,41.23,120.0,8.0,0.0,29.83,6.21,FEW,4000.0,HZ,96.35,OTHH 151300Z 12008KT 9999 FEW040 34/19 Q1010 NOSIG,15,10,2022,13,0
OTHH,2022-10-16 08:00:00,51.6084,25.2746,-3.72,93.2,66.2,41.23,20.0,6.0,0.0,29.94,6.21,FEW,4000.0,HZ,96.35,OTHH 160800Z AUTO 02006KT 350V050 9999 FEW040 34/19 Q1014 NOSIG,16,10,2022,8,0
OTHH,2022-10-16 09:00:00,51.6084,25.2746,-3.72,95.0,62.6,34.39,30.0,6.0,0.0,29.91,6.21,FEW,4000.0,HZ,96.22,OTHH 160900Z AUTO 03006KT 9999 FEW040 35/17 Q1013 NOSIG,16,10,2022,9,0
OTHH,2022-10-16 10:00:00,51.6084,25.2746,-3.72,96.8,51.8,22.04,20.0,6.0,0.0,29.88,6.21,FEW,4000.0,HZ,94.12,OTHH 161000Z AUTO 02006KT 350V050 9999 FEW040 36/11 Q1012 NOSIG,16,10,2022,10,0
OTHH,2022-10-17 03:00:00,51.6084,25.2746,-3.72,80.6,69.8,69.71,,2.0,0.0,29.97,5.59,NSC,,HZ,83.9,OTHH 170300Z VRB02KT 9000 NSC 27/21 Q1015 NOSIG,17,10,2022,3,0
OTHH,2022-10-18 03:00:00,51.6084,25.2746,-3.72,80.6,73.4,78.76,330.0,3.0,0.0,29.91,5.59,NSC,,HZ,85.32,OTHH 180300Z 33003KT 9000 NSC 27/23 Q1013 NOSIG,18,10,2022,3,0
OTHH,2022-10-20 03:00:00,51.6084,25.2746,-3.72,78.8,71.6,78.62,240.0,4.0,0.0,29.88,4.97,NSC,,HZ,78.8,OTHH 200300Z 24004KT 8000 NSC 26/22 Q1012 NOSIG,20,10,2022,3,0
OTHH,2022-10-20 04:00:00,51.6084,25.2746,-3.72,82.4,73.4,74.28,0.0,0.0,0.0,29.88,4.97,NSC,,HZ,88.26,OTHH 200400Z 00000KT 8000 NSC 28/23 Q1012 NOSIG,20,10,2022,4,0
OTHH,2022-10-21 03:00:00,51.6084,25.2746,-3.72,80.6,73.4,78.76,220.0,4.0,0.0,29.88,4.97,NSC,,HZ,85.32,OTHH 210300Z 22004KT 8000 NSC 27/23 Q1012 NOSIG,21,10,2022,3,0
OTHH,2022-10-21 04:00:00,51.6084,25.2746,-3.72,82.4,73.4,74.28,210.0,4.0,0.0,29.91,4.35,NSC,,HZ,88.26,OTHH 210400Z 21004KT 7000 NSC 28/23 Q1013 NOSIG,21,10,2022,4,0
OTHH,2022-10-21 05:00:00,51.6084,25.2746,-3.72,86.0,73.4,66.15,200.0,6.0,0.0,29.94,5.59,NSC,,HZ,93.45,OTHH 210500Z 20006KT 9000 NSC 30/23 Q1014 NOSIG,21,10,2022,5,0
OTHH,2022-10-21 09:00:00,51.6084,25.2746,-3.72,95.0,69.8,44.14,100.0,9.0,0.0,29.91,5.59,NSC,,HZ,101.37,OTHH 210900Z 10009KT 9000 NSC 35/21 Q1013 NOSIG,21,10,2022,9,0
OTHH,2022-10-21 10:00:00,51.6084,25.2746,-3.72,93.2,73.4,52.73,80.0,9.0,0.0,29.88,4.97,NSC,,HZ,102.82,OTHH 211000Z 08009KT 8000 NSC 34/23 Q1012 NOSIG,21,10,2022,10,0
OTHH,2022-10-21 11:00:00,51.6084,25.2746,-3.72,93.2,73.4,52.73,90.0,8.0,0.0,29.88,3.73,NSC,,HZ,102.82,OTHH 211100Z 09008KT 060V120 6000 NSC 34/23 Q1012 NOSIG,21,10,2022,11,0
OTHH,2022-10-21 12:00:00,51.6084,25.2746,-3.72,93.2,73.4,52.73,100.0,9.0,0.0,29.88,3.73,NSC,,HZ,102.82,OTHH 211200Z 10009KT 6000 NSC 34/23 Q1012 NOSIG,21,10,2022,12,0
OTHH,2022-10-21 13:00:00,51.6084,25.2746,-3.72,91.4,77.0,62.9,120.0,7.0,0.0,29.88,3.73,NSC,,HZ,105.06,OTHH 211300Z 12007KT 6000 NSC 33/25 Q1012 NOSIG,21,10,2022,13,0
OTHH,2022-10-21 14:00:00,51.6084,25.2746,-3.72,89.6,77.0,66.55,120.0,8.0,0.0,29.91,4.35,NSC,,HZ,102.54,OTHH 211400Z 12008KT 7000 NSC 32/25 Q1013 NOSIG,21,10,2022,14,0
OTHH,2022-10-22 03:00:00,51.6084,25.2746,-3.72,80.6,71.6,74.11,200.0,4.0,0.0,29.97,4.35,NSC,,HZ,84.57,OTHH 220300Z 20004KT 7000 NSC 27/22 Q1015 NOSIG,22,10,2022,3,0
OTHH,2022-10-22 04:00:00,51.6084,25.2746,-3.72,82.4,73.4,74.28,210.0,3.0,0.0,30.0,4.97,NSC,,HZ,88.26,OTHH 220400Z 21003KT 8000 NSC 28/23 Q1016 NOSIG,22,10,2022,4,0
OTHH,2022-10-22 05:00:00,51.6084,25.2746,-3.72,86.0,75.2,70.27,210.0,5.0,0.0,30.0,5.59,NSC,,HZ,95.19,OTHH 220500Z 21005KT 9000 NSC 30/24 Q1016 NOSIG,22,10,2022,5,0
OTHH,2022-10-23 03:00:00,51.6084,25.2746,-3.72,78.8,71.6,78.62,240.0,3.0,0.0,30.0,4.35,NSC,,HZ,78.8,OTHH 230300Z 24003KT 7000 NSC 26/22 Q1016 NOSIG,23,10,2022,3,0
OTHH,2022-10-23 04:00:00,51.6084,25.2746,-3.72,82.4,73.4,74.28,,2.0,0.0,30.03,4.97,NSC,,HZ,88.26,OTHH 230400Z VRB02KT 8000 NSC 28/23 Q1017 NOSIG,23,10,2022,4,0
OTHH,2022-10-23 09:00:00,51.6084,25.2746,-3.72,93.2,59.0,31.99,20.0,7.0,0.0,30.0,6.21,FEW,4000.0,HZ,92.57,OTHH 230900Z 02007KT 9999 FEW040 34/15 Q1016 NOSIG,23,10,2022,9,0
OTHH,2022-10-23 10:00:00,51.6084,25.2746,-3.72,91.4,64.4,40.96,30.0,8.0,0.0,29.97,6.21,FEW,4000.0,HZ,93.19,OTHH 231000Z 03008KT 9999 FEW040 33/18 Q1015 NOSIG,23,10,2022,10,0
OTHH,2022-10-24 03:00:00,51.6084,25.2746,-3.72,77.0,66.2,69.33,320.0,5.0,0.0,29.94,5.59,NSC,,HZ,77.0,OTHH 240300Z 32005KT 9000 NSC 25/19 Q1014 NOSIG,24,10,2022,3,0
OTHH,2022-10-24 04:00:00,51.6084,25.2746,-3.72,80.6,69.8,69.71,,2.0,0.0,29.97,5.59,NSC,,HZ,83.9,OTHH 240400Z VRB02KT 9000 NSC 27/21 Q1015 NOSIG,24,10,2022,4,0
OTHH,2022-10-24 05:00:00,51.6084,25.2746,-3.72,82.4,73.4,74.28,340.0,5.0,0.0,29.97,5.59,NSC,,HZ,88.26,OTHH 240500Z 34005KT 9000 /// NSC 28/23 Q1015 NOSIG,24,10,2022,5,0
OTHH,2022-10-24 06:00:00,51.6084,25.2746,-3.72,84.2,71.6,65.95,10.0,5.0,0.0,29.97,5.59,NSC,,HZ,89.6,OTHH 240600Z 01005KT 320V060 9000 /// NSC 29/22 Q1015 NOSIG,24,10,2022,6,0
OTHH,2022-10-24 07:00:00,51.6084,25.2746,-3.72,89.6,69.8,52.23,,2.0,0.0,29.94,5.59,NSC,,HZ,94.85,OTHH 240700Z VRB02KT 9000 NSC 32/21 Q1014 NOSIG,24,10,2022,7,0
OTHH,2022-10-24 08:00:00,51.6084,25.2746,-3.72,89.6,69.8,52.23,80.0,5.0,0.0,29.94,5.59,NSC,,HZ,94.85,OTHH 240800Z 08005KT 040V120 9000 NSC 32/21 Q1014 NOSIG,24,10,2022,8,0
OTHH,2022-10-24 09:00:00,51.6084,25.2746,-3.72,91.4,69.8,49.36,100.0,7.0,0.0,29.91,5.59,NSC,,HZ,96.99,OTHH 240900Z 10007KT 080V140 9000 NSC 33/21 Q1013 NOSIG,24,10,2022,9,0
OTHH,2022-10-24 10:00:00,51.6084,25.2746,-3.72,91.4,62.6,38.45,90.0,7.0,0.0,29.88,5.59,NSC,,HZ,92.23,OTHH 241000Z 09007KT 9000 NSC 33/17 Q1012 NOSIG,24,10,2022,10,0
OTHH,2022-10-24 11:00:00,51.6084,25.2746,-3.72,91.4,64.4,40.96,110.0,8.0,0.0,29.85,5.59,NSC,,HZ,93.19,OTHH 241100Z 11008KT 9000 NSC 33/18 Q1011 NOSIG,24,10,2022,11,0
OTHH,2022-10-25 03:00:00,51.6084,25.2746,-3.72,77.0,68.0,73.78,250.0,4.0,0.0,29.88,4.35,NSC,,HZ,77.0,OTHH 250300Z 25004KT 7000 NSC 25/20 Q1012 NOSIG,25,10,2022,3,0
OTHH,2022-10-25 05:00:00,51.6084,25.2746,-3.72,86.0,68.0,55.04,230.0,4.0,0.0,29.91,5.59,NSC,,HZ,89.41,OTHH 250500Z 23004KT 9000 NSC 30/20 Q1013 NOSIG,25,10,2022,5,0
OTHH,2022-10-26 04:00:00,51.6084,25.2746,-3.72,80.6,66.2,61.58,,1.0,0.0,29.97,5.59,NSC,,HZ,82.75,OTHH 260400Z VRB01KT 9000 NSC 27/19 Q1015 NOSIG,26,10,2022,4,0
OTHH,2022-10-26 05:00:00,51.6084,25.2746,-3.72,84.2,69.8,62.03,,2.0,0.0,29.97,5.59,NSC,,HZ,88.43,OTHH 260500Z VRB02KT 9000 NSC 29/21 Q1015 NOSIG,26,10,2022,5,0
OTHH,2022-10-26 06:00:00,51.6084,25.2746,-3.72,86.0,69.8,58.55,30.0,4.0,0.0,29.97,5.59,NSC,,HZ,90.58,OTHH 260600Z 03004KT 360V070 9000 NSC 30/21 Q1015 NOSIG,26,10,2022,6,0
OTHH,2022-10-26 12:00:00,51.6084,25.2746,-3.72,89.6,64.4,43.34,110.0,7.0,0.0,29.91,5.59,NSC,,HZ,91.23,OTHH 261200Z 11007KT 9000 NSC 32/18 Q1013 NOSIG,26,10,2022,12,0
OTHH,2022-10-26 13:00:00,51.6084,25.2746,-3.72,89.6,64.4,43.34,110.0,7.0,0.0,29.91,5.59,NSC,,HZ,91.23,OTHH 261300Z 11007KT 9000 NSC 32/18 Q1013 NOSIG,26,10,2022,13,0
OTHH,2022-10-26 14:00:00,51.6084,25.2746,-3.72,87.8,66.2,48.84,80.0,6.0,0.0,29.91,5.59,NSC,,HZ,90.31,OTHH 261400Z 08006KT 9000 NSC 31/19 Q1013 NOSIG,26,10,2022,14,0
OTHH,2022-10-27 00:00:00,51.6084,25.2746,-3.72,84.2,69.8,62.03,70.0,3.0,0.0,29.94,6.21,FEW,3000.0,HZ,88.43,OTHH 270000Z 07003KT 9999 FEW030 29/21 Q1014 NOSIG,27,10,2022,0,0
OTHH,2022-10-27 03:00:00,51.6084,25.2746,-3.72,78.8,71.6,78.62,280.0,2.0,0.0,29.94,4.97,NSC,,HZ,78.8,OTHH 270300Z 28002KT 8000 NSC 26/22 Q1014 NOSIG,27,10,2022,3,0
OTHH,2022-10-27 04:00:00,51.6084,25.2746,-3.72,82.4,71.6,69.9,,2.0,0.0,29.97,4.97,FEW,3500.0,HZ,87.18,OTHH 270400Z VRB02KT 8000 FEW035 28/22 Q1015 NOSIG,27,10,2022,4,0
OTHH,2022-10-27 05:00:00,51.6084,25.2746,-3.72,86.0,71.6,62.25,,3.0,0.0,30.0,6.21,FEW,3500.0,HZ,91.92,OTHH 270500Z VRB03KT 9999 FEW035 30/22 Q1016 NOSIG,27,10,2022,5,0
OTHH,2022-10-27 06:00:00,51.6084,25.2746,-3.72,87.8,68.0,51.98,190.0,4.0,0.0,30.0,6.21,FEW,3500.0,HZ,91.43,OTHH 270600Z 19004KT 130V230 9999 FEW035 31/20 Q1016 NOSIG,27,10,2022,6,0
OTHH,2022-10-27 09:00:00,51.6084,25.2746,-3.72,91.4,71.6,52.48,150.0,9.0,0.0,29.94,6.21,FEW,4000.0,HZ,98.64,OTHH 270900Z 15009KT 110V180 9999 FEW040 33/22 Q1014 NOSIG,27,10,2022,9,0
OTHH,2022-10-27 11:00:00,51.6084,25.2746,-3.72,89.6,71.6,55.53,130.0,11.0,0.0,29.91,5.59,NSC,,HZ,96.41,OTHH 271100Z 13011KT 9000 NSC 32/22 Q1013 NOSIG,27,10,2022,11,0
OTHH,2022-10-27 12:00:00,51.6084,25.2746,-3.72,89.6,73.4,59.01,140.0,11.0,0.0,29.91,4.97,NSC,,HZ,98.2,OTHH 271200Z 14011KT 8000 NSC 32/23 Q1013 NOSIG,27,10,2022,12,0
OTHH,2022-10-27 13:00:00,51.6084,25.2746,-3.72,87.8,73.4,62.47,130.0,10.0,0.0,29.91,4.97,NSC,,HZ,95.86,OTHH 271300Z 13010KT 8000 NSC 31/23 Q1013 NOSIG,27,10,2022,13,0
OTHH,2022-10-27 14:00:00,51.6084,25.2746,-3.72,86.0,75.2,70.27,110.0,7.0,0.0,29.91,4.35,NSC,,HZ,95.19,OTHH 271400Z 11007KT 7000 NSC 30/24 Q1013 NOSIG,27,10,2022,14,0
OTHH,2022-10-27 15:00:00,51.6084,25.2746,-3.72,86.0,75.2,70.27,110.0,6.0,0.0,29.91,4.97,NSC,,HZ,95.19,OTHH 271500Z 11006KT 8000 NSC 30/24 Q1013 NOSIG,27,10,2022,15,0
OTHH,2022-10-27 16:00:00,51.6084,25.2746,-3.72,86.0,73.4,66.15,50.0,6.0,0.0,29.94,4.97,NSC,,HZ,93.45,OTHH 271600Z 05006KT 8000 NSC 30/23 Q1014 NOSIG,27,10,2022,16,0
OTHH,2022-10-27 17:00:00,51.6084,25.2746,-3.72,86.0,73.4,66.15,70.0,7.0,0.0,29.94,4.97,NSC,,HZ,93.45,OTHH 271700Z 07007KT 050V110 8000 NSC 30/23 Q1014 NOSIG,27,10,2022,17,0
OTHH,2022-10-27 18:00:00,51.6084,25.2746,-3.72,86.0,73.4,66.15,80.0,6.0,0.0,29.94,5.59,NSC,,HZ,93.45,OTHH 271800Z 08006KT 9000 NSC 30/23 Q1014 NOSIG,27,10,2022,18,0
OTHH,2022-10-27 19:00:00,51.6084,25.2746,-3.72,86.0,73.4,66.15,100.0,5.0,0.0,29.94,5.59,NSC,,HZ,93.45,OTHH 271900Z 10005KT 9000 NSC 30/23 Q1014 NOSIG,27,10,2022,19,0
OTHH,2022-10-27 21:00:00,51.6084,25.2746,-3.72,84.2,73.4,70.08,120.0,4.0,0.0,29.91,5.59,NSC,,HZ,90.94,OTHH 272100Z 12004KT 090V160 9000 NSC 29/23 Q1013 NOSIG,27,10,2022,21,0
OTHH,2022-10-27 22:00:00,51.6084,25.2746,-3.72,84.2,73.4,70.08,150.0,4.0,0.0,29.91,5.59,NSC,,HZ,90.94,OTHH 272200Z 15004KT 9000 NSC 29/23 Q1013 NOSIG,27,10,2022,22,0
OTHH,2022-10-27 23:00:00,51.6084,25.2746,-3.72,84.2,73.4,70.08,170.0,3.0,0.0,29.91,5.59,NSC,,HZ,90.94,OTHH 272300Z 17003KT 9000 NSC 29/23 Q1013 NOSIG,27,10,2022,23,0
OTHH,2022-10-28 00:00:00,51.6084,25.2746,-3.72,82.4,71.6,69.9,180.0,2.0,0.0,29.91,5.59,NSC,,HZ,87.18,OTHH 280000Z 18002KT 9000 NSC 28/22 Q1013 NOSIG,28,10,2022,0,0
OTHH,2022-10-28 01:00:00,51.6084,25.2746,-3.72,78.8,71.6,78.62,210.0,2.0,0.0,29.91,5.59,NSC,,HZ,78.8,OTHH 280100Z 21002KT 9000 NSC 26/22 Q1013 NOSIG,28,10,2022,1,0
OTHH,2022-10-28 02:00:00,51.6084,25.2746,-3.72,77.0,69.8,78.48,250.0,2.0,0.0,29.91,5.59,NSC,,HZ,77.0,OTHH 280200Z 25002KT 9000 NSC 25/21 Q1013 NOSIG,28,10,2022,2,0
OTHH,2022-10-28 03:00:00,51.6084,25.2746,-3.72,78.8,71.6,78.62,250.0,4.0,0.0,29.94,4.35,NSC,,HZ,78.8,OTHH 280300Z 25004KT 7000 NSC 26/22 Q1014 NOSIG,28,10,2022,3,0
OTHH,2022-10-28 04:00:00,51.6084,25.2746,-3.72,82.4,71.6,69.9,230.0,4.0,0.0,29.94,4.97,NSC,,HZ,87.18,OTHH 280400Z 23004KT 8000 NSC 28/22 Q1014 NOSIG,28,10,2022,4,0
OTHH,2022-10-28 05:00:00,51.6084,25.2746,-3.72,84.2,69.8,62.03,220.0,6.0,0.0,29.97,5.59,NSC,,HZ,88.43,OTHH 280500Z 22006KT 9000 NSC 29/21 Q1015 NOSIG,28,10,2022,5,0
OTHH,2022-10-29 03:00:00,51.6084,25.2746,-3.72,78.8,71.6,78.62,250.0,3.0,0.0,29.91,4.35,NSC,,HZ,78.8,OTHH 290300Z 25003KT 7000 NSC 26/22 Q1013 TEMPO 5000,29,10,2022,3,0
OTHH,2022-10-29 04:00:00,51.6084,25.2746,-3.72,80.6,73.4,78.76,240.0,4.0,0.0,29.91,3.73,NSC,,HZ,85.32,OTHH 290400Z 24004KT 6000 NSC 27/23 Q1013 NOSIG,29,10,2022,4,0
OTHH,2022-10-29 05:00:00,51.6084,25.2746,-3.72,84.2,73.4,70.08,220.0,5.0,0.0,29.94,3.73,NSC,,HZ,90.94,OTHH 290500Z 22005KT 6000 NSC 29/23 Q1014 NOSIG,29,10,2022,5,0
OTHH,2022-10-30 03:00:00,51.6084,25.2746,-3.72,75.2,69.8,83.32,300.0,1.0,0.0,29.94,4.97,NSC,,HZ,75.2,OTHH 300300Z 30001KT 8000 NSC 24/21 Q1014 NOSIG,30,10,2022,3,0
OTHH,2022-10-30 04:00:00,51.6084,25.2746,-3.72,82.4,71.6,69.9,330.0,4.0,0.0,29.97,4.35,NSC,,HZ,87.18,OTHH 300400Z 33004KT 7000 NSC 28/22 Q1015 NOSIG,30,10,2022,4,0
OTHH,2022-10-30 05:00:00,51.6084,25.2746,-3.72,82.4,71.6,69.9,340.0,7.0,0.0,29.97,3.73,NSC,,HZ,87.18,OTHH 300500Z 34007KT 6000 NSC 28/22 Q1015 NOSIG,30,10,2022,5,0
OTHH,2022-10-30 06:00:00,51.6084,25.2746,-3.72,84.2,71.6,65.95,340.0,6.0,0.0,29.97,3.73,NSC,,HZ,89.6,OTHH 300600Z 34006KT 6000 NSC 29/22 Q1015 NOSIG,30,10,2022,6,0
OTHH,2022-10-30 07:00:00,51.6084,25.2746,-3.72,86.0,73.4,66.15,350.0,7.0,0.0,29.97,3.73,NSC,,HZ,93.45,OTHH 300700Z 35007KT 6000 NSC 30/23 Q1015 NOSIG,30,10,2022,7,0
OTHH,2022-10-30 08:00:00,51.6084,25.2746,-3.72,86.0,73.4,66.15,10.0,8.0,0.0,29.97,4.35,NSC,,HZ,93.45,OTHH 300800Z 01008KT 7000 NSC 30/23 Q1015 NOSIG,30,10,2022,8,0
OTHH,2022-10-31 03:00:00,51.6084,25.2746,-3.72,73.4,68.0,83.21,270.0,2.0,0.0,29.94,4.97,NSC,,HZ,73.4,OTHH 310300Z 27002KT 8000 NSC 23/20 Q1014 NOSIG,31,10,2022,3,0
OTHH,2022-10-31 04:00:00,51.6084,25.2746,-3.72,80.6,71.6,74.11,210.0,3.0,0.0,29.97,5.59,NSC,,HZ,84.57,OTHH 310400Z 21003KT 9000 NSC 27/22 Q1015 NOSIG,31,10,2022,4,0
OTHH,2022-10-31 05:00:00,51.6084,25.2746,-3.72,84.2,71.6,65.95,180.0,3.0,0.0,29.97,5.59,NSC,,HZ,89.6,OTHH 310500Z 18003KT 140V220 9000 NSC 29/22 Q1015 NOSIG,31,10,2022,5,0
OTHH,2022-11-01 03:00:00,51.6084,25.2746,-3.72,77.0,68.0,73.78,210.0,1.0,0.0,29.94,5.59,NSC,,HZ,77.0,OTHH 010300Z 21001KT 9000 NSC 25/20 Q1014 NOSIG,1,11,2022,3,0
OTHH,2022-11-01 04:00:00,51.6084,25.2746,-3.72,82.4,68.0,61.81,210.0,4.0,0.0,29.94,5.59,NSC,,HZ,85.38,OTHH 010400Z 21004KT 9000 NSC 28/20 Q1014 NOSIG,1,11,2022,4,0
OTHH,2022-11-01 05:00:00,51.6084,25.2746,-3.72,86.0,68.0,55.04,200.0,5.0,0.0,29.97,5.59,NSC,,HZ,89.41,OTHH 010500Z 20005KT 9000 NSC 30/20 Q1015 NOSIG,1,11,2022,5,0
OTHH,2022-11-01 06:00:00,51.6084,25.2746,-3.72,87.8,69.8,55.29,200.0,7.0,0.0,29.97,5.59,NSC,,HZ,92.71,OTHH 010600Z 20007KT 160V230 9000 NSC 31/21 Q1015 NOSIG,1,11,2022,6,0
OTHH,2022-11-01 09:00:00,51.6084,25.2746,-3.72,89.6,73.4,59.01,150.0,12.0,0.0,29.91,6.21,FEW,3000.0,HZ,98.2,OTHH 010900Z 15012KT 9999 FEW030 32/23 Q1013 NOSIG,1,11,2022,9,0
OTHH,2022-11-01 10:00:00,51.6084,25.2746,-3.72,89.6,75.2,62.68,150.0,15.0,0.0,29.91,4.97,NSC,,HZ,100.23,OTHH 011000Z 15015KT 8000 NSC 32/24 Q1013 NOSIG,1,11,2022,10,0
OTHH,2022-11-01 11:00:00,51.6084,25.2746,-3.72,89.6,73.4,59.01,150.0,14.0,0.0,29.88,4.97,NSC,,HZ,98.2,OTHH 011100Z 15014KT 8000 NSC 32/23 Q1012 NOSIG,1,11,2022,11,0
OTHH,2022-11-02 05:00:00,51.6084,25.2746,-3.72,84.2,71.6,65.95,220.0,6.0,0.0,29.94,4.97,NSC,,HZ,89.6,OTHH 020500Z 22006KT 190V250 8000 NSC 29/22 Q1014 NOSIG,2,11,2022,5,0
OTHH,2022-11-02 06:00:00,51.6084,25.2746,-3.72,86.0,73.4,66.15,210.0,8.0,0.0,29.97,4.97,NSC,,HZ,93.45,OTHH 020600Z 21008KT 8000 NSC 30/23 Q1015 NOSIG,2,11,2022,6,0
OTHH,2022-11-04 03:00:00,51.6084,25.2746,-3.72,80.6,71.6,74.11,320.0,9.0,0.0,29.88,5.59,NSC,,HZ,84.57,OTHH 040300Z 32009KT 9000 NSC 27/22 Q1012 NOSIG,4,11,2022,3,0
OTHH,2022-11-04 10:00:00,51.6084,25.2746,-3.72,87.8,69.8,55.29,30.0,12.0,0.0,29.88,6.21,FEW,4000.0,HZ,92.71,OTHH 041000Z 03012KT 9999 FEW040 31/21 Q1012 NOSIG,4,11,2022,10,0
OTHH,2022-11-04 11:00:00,51.6084,25.2746,-3.72,87.8,69.8,55.29,30.0,13.0,0.0,29.88,6.21,FEW,4000.0,HZ,92.71,OTHH 041100Z 03013KT 9999 FEW040 31/21 Q1012 NOSIG,4,11,2022,11,0
OTHH,2022-11-04 12:00:00,51.6084,25.2746,-3.72,86.0,69.8,58.55,30.0,14.0,0.0,29.88,6.21,FEW,4000.0,HZ,90.58,OTHH 041200Z 03014KT 9999 FEW040 30/21 Q1012 NOSIG,4,11,2022,12,0
OTHH,2022-11-04 13:00:00,51.6084,25.2746,-3.72,86.0,71.6,62.25,20.0,14.0,0.0,29.88,6.21,FEW,4000.0,HZ,91.92,OTHH 041300Z 02014KT 9999 FEW040 30/22 Q1012 NOSIG,4,11,2022,13,0
OTHH,2022-11-06 10:00:00,51.6084,25.2746,-3.72,87.8,62.6,43.07,60.0,8.0,0.0,29.94,6.21,FEW,4500.0,HZ,88.48,OTHH 061000Z 06008KT 9999 FEW045 31/17 Q1014 NOSIG,6,11,2022,10,0
OTHH,2022-11-06 11:00:00,51.6084,25.2746,-3.72,86.0,64.4,48.58,80.0,8.0,0.0,29.91,6.21,FEW,4000.0,HZ,87.49,OTHH 061100Z 08008KT 030V100 9999 FEW040 30/18 Q1013 NOSIG,6,11,2022,11,0
OTHH,2022-11-06 12:00:00,51.6084,25.2746,-3.72,86.0,64.4,48.58,60.0,8.0,0.0,29.94,6.21,FEW,4000.0,HZ,87.49,OTHH 061200Z 06008KT 9999 FEW040 30/18 Q1014 NOSIG,6,11,2022,12,0
OTHH,2022-11-06 13:00:00,51.6084,25.2746,-3.72,86.0,64.4,48.58,50.0,8.0,0.0,29.94,6.21,FEW,4000.0,HZ,87.49,OTHH 061300Z 05008KT 020V080 9999 FEW040 30/18 Q1014 NOSIG,6,11,2022,13,0
OTHH,2022-11-07 04:00:00,51.6084,25.2746,-3.72,84.2,68.0,58.32,100.0,4.0,0.0,29.97,6.21,FEW,4000.0,HZ,87.4,OTHH 070400Z 10004KT 9999 FEW040 29/20 Q1015 NOSIG,7,11,2022,4,0
OTHH,2022-11-07 05:00:00,51.6084,25.2746,-3.72,86.0,68.0,55.04,100.0,6.0,0.0,29.97,6.21,FEW,4000.0,HZ,89.41,OTHH 070500Z 10006KT 9999 FEW040 30/20 Q1015 NOSIG,7,11,2022,5,0
OTHH,2022-11-07 06:00:00,51.6084,25.2746,-3.72,87.8,68.0,51.98,120.0,8.0,0.0,29.97,6.21,FEW,4000.0,HZ,91.43,OTHH 070600Z 12008KT 090V150 9999 FEW040 31/20 Q1015 NOSIG,7,11,2022,6,0
OTHH,2022-11-07 07:00:00,51.6084,25.2746,-3.72,87.8,69.8,55.29,140.0,8.0,0.0,29.97,6.21,FEW,3500.0,HZ,92.71,OTHH 070700Z 14008KT 9999 FEW035 31/21 Q1015 NOSIG,7,11,2022,7,0
OTHH,2022-11-07 08:00:00,51.6084,25.2746,-3.72,87.8,71.6,58.78,130.0,10.0,0.0,29.94,6.21,FEW,3000.0,HZ,94.18,OTHH 070800Z 13010KT 9999 FEW030 31/22 Q1014 NOSIG,7,11,2022,8,0
OTHH,2022-11-07 09:00:00,51.6084,25.2746,-3.72,87.8,71.6,58.78,150.0,11.0,0.0,29.91,6.21,FEW,3000.0,HZ,94.18,OTHH 070900Z 15011KT 9999 FEW030 31/22 Q1013 NOSIG,7,11,2022,9,0
OTHH,2022-11-07 10:00:00,51.6084,25.2746,-3.72,87.8,71.6,58.78,150.0,15.0,0.0,29.88,6.21,FEW,3000.0,HZ,94.18,OTHH 071000Z 15015KT 9999 FEW030 31/22 Q1012 NOSIG,7,11,2022,10,0
OTHH,2022-11-07 11:00:00,51.6084,25.2746,-3.72,87.8,69.8,55.29,150.0,14.0,0.0,29.85,6.21,FEW,3000.0,HZ,92.71,OTHH 071100Z 15014KT 9999 FEW030 31/21 Q1011 NOSIG,7,11,2022,11,0
OTHH,2022-11-07 12:00:00,51.6084,25.2746,-3.72,87.8,69.8,55.29,150.0,12.0,0.0,29.85,6.21,FEW,3000.0,HZ,92.71,OTHH 071200Z 15012KT 9999 FEW030 31/21 Q1011 NOSIG,7,11,2022,12,0
OTHH,2022-11-07 13:00:00,51.6084,25.2746,-3.72,86.0,71.6,62.25,140.0,11.0,0.0,29.85,6.21,FEW,3000.0,HZ,91.92,OTHH 071300Z 14011KT 9999 FEW030 30/22 Q1011 NOSIG,7,11,2022,13,0
OTHH,2022-11-08 03:00:00,51.6084,25.2746,-3.72,84.2,75.2,74.44,120.0,9.0,0.0,29.88,6.21,FEW,2500.0,HZ,92.45,OTHH 080300Z 12009KT 9999 FEW025 29/24 Q1012 NOSIG,8,11,2022,3,0
OTHH,2022-11-09 05:00:00,51.6084,25.2746,-3.72,84.2,39.2,20.29,210.0,15.0,0.0,29.88,2.8,NSC,,DU,81.44,OTHH 090500Z 21015KT 4500 DU NSC 29/04 Q1012 TEMPO 4000,9,11,2022,5,0
OTHH,2022-11-09 06:00:00,51.6084,25.2746,-3.72,87.8,37.4,16.86,210.0,18.0,0.0,29.91,2.8,NSC,,DU,84.16,OTHH 090600Z 21018KT 4500 DU NSC 31/03 Q1013 NOSIG,9,11,2022,6,0
OTHH,2022-11-09 07:00:00,51.6084,25.2746,-3.72,93.2,37.4,14.23,210.0,16.0,0.0,29.88,1.86,NSC,,DU,88.83,OTHH 090700Z 21016KT 3000 DU NSC 34/03 Q1012 TEMPO 2000,9,11,2022,7,0
OTHH,2022-11-09 08:00:00,51.6084,25.2746,-3.72,96.8,37.4,12.73,210.0,16.0,0.0,29.88,1.24,NSC,,DRDU,92.04,OTHH 090800Z 21016KT 2000 DRDU NSC 36/03 Q1012 TEMPO 1500,9,11,2022,8,0
OTHH,2022-11-09 09:00:00,51.6084,25.2746,-3.72,98.6,37.4,12.05,210.0,15.0,0.0,29.88,1.86,NSC,,DRDU,93.54,OTHH 090900Z 21015KT 3000 DRDU NSC 37/03 Q1012 NOSIG,9,11,2022,9,0
OTHH,2022-11-09 10:00:00,51.6084,25.2746,-3.72,98.6,37.4,12.05,240.0,11.0,0.0,29.85,3.73,NSC,,HZ,93.54,OTHH 091000Z 24011KT 210V270 6000 NSC 37/03 Q1011 NOSIG,9,11,2022,10,0
OTHH,2022-11-09 11:00:00,51.6084,25.2746,-3.72,89.6,64.4,43.34,50.0,14.0,0.0,29.88,3.11,NSC,,DU,91.23,OTHH 091100Z 05014KT 5000 DU NSC 32/18 Q1012 NOSIG,9,11,2022,11,0
OTHH,2022-11-11 09:00:00,51.6084,25.2746,-3.72,89.6,66.2,46.14,150.0,8.0,0.0,30.03,6.21,FEW,3500.0,HZ,92.27,OTHH 110900Z 15008KT 9999 FEW035 32/19 Q1017 NOSIG,11,11,2022,9,0
OTHH,2022-11-11 10:00:00,51.6084,25.2746,-3.72,91.4,62.6,38.45,130.0,8.0,0.0,30.0,6.21,FEW,3000.0,HZ,92.23,OTHH 111000Z 13008KT 9999 FEW030 33/17 Q1016 NOSIG,11,11,2022,10,0
OTHH,2022-11-11 11:00:00,51.6084,25.2746,-3.72,91.4,62.6,38.45,130.0,8.0,0.0,30.0,6.21,FEW,3000.0,HZ,92.23,OTHH 111100Z 13008KT 9999 FEW030 33/17 Q1016 NOSIG,11,11,2022,11,0
OTHH,2022-11-11 12:00:00,51.6084,25.2746,-3.72,89.6,66.2,46.14,140.0,8.0,0.0,29.97,6.21,FEW,4000.0,HZ,92.27,OTHH 111200Z 14008KT 9999 FEW040TCU 32/19 Q1015 NOSIG,11,11,2022,12,0
OTHH,2022-11-11 13:00:00,51.6084,25.2746,-3.72,87.8,69.8,55.29,150.0,8.0,0.0,30.0,6.21,FEW,4000.0,HZ,92.71,OTHH 111300Z 15008KT 9999 FEW040TCU 31/21 Q1016 NOSIG,11,11,2022,13,0
OTHH,2022-11-12 09:00:00,51.6084,25.2746,-3.72,91.4,59.0,33.84,160.0,8.0,0.0,30.03,6.21,FEW,3500.0,HZ,90.68,OTHH 120900Z 16008KT 9999 FEW035 33/15 Q1017 NOSIG,12,11,2022,9,0
OTHH,2022-11-12 10:00:00,51.6084,25.2746,-3.72,93.2,57.2,29.99,140.0,7.0,0.0,30.0,6.21,FEW,3500.0,HZ,91.91,OTHH 121000Z 14007KT 9999 FEW035TCU 34/14 Q1016 NOSIG,12,11,2022,10,0
OTHH,2022-11-12 11:00:00,51.6084,25.2746,-3.72,91.4,55.4,29.72,120.0,8.0,0.0,29.97,6.21,FEW,3500.0,HZ,89.53,OTHH 121100Z 12008KT 090V150 9999 FEW035 33/13 Q1015 NOSIG,12,11,2022,11,0
OTHH,2022-11-13 11:00:00,51.6084,25.2746,-3.72,87.8,68.0,51.98,30.0,10.0,0.0,29.94,6.21,FEW,3500.0,HZ,91.43,OTHH 131100Z 03010KT 9999 FEW035 31/20 Q1014 NOSIG,13,11,2022,11,0
OTHH,2022-11-14 10:00:00,51.6084,25.2746,-3.72,87.8,68.0,51.98,20.0,10.0,0.0,29.94,6.21,FEW,3500.0,HZ,91.43,OTHH 141000Z 02010KT 9999 FEW035 31/20 Q1014 NOSIG,14,11,2022,10,0
OTHH,2022-11-14 11:00:00,51.6084,25.2746,-3.72,87.8,69.8,55.29,40.0,12.0,0.0,29.94,6.21,FEW,3500.0,HZ,92.71,OTHH 141100Z 04012KT 9999 FEW035 31/21 Q1014 NOSIG,14,11,2022,11,0
OTHH,2022-11-18 10:00:00,51.6084,25.2746,-3.72,87.8,69.8,55.29,160.0,14.0,0.0,29.91,6.21,FEW,3500.0,HZ,92.71,OTHH 181000Z 16014KT 9999 FEW035 31/21 Q1013 NOSIG,18,11,2022,10,0
OTHH,2022-11-18 11:00:00,51.6084,25.2746,-3.72,87.8,68.0,51.98,160.0,14.0,0.0,29.88,6.21,FEW,3500.0,HZ,91.43,OTHH 181100Z 16014KT 9999 FEW035 31/20 Q1012 NOSIG,18,11,2022,11,0
OTHH,2022-11-18 12:00:00,51.6084,25.2746,-3.72,87.8,68.0,51.98,160.0,13.0,0.0,29.88,6.21,FEW,4000.0,HZ,91.43,OTHH 181200Z 16013KT 9999 FEW040 31/20 Q1012 NOSIG,18,11,2022,12,0
OTHH,2022-11-18 13:00:00,51.6084,25.2746,-3.72,87.8,69.8,55.29,150.0,10.0,0.0,29.91,6.21,SCT,4000.0,HZ,92.71,OTHH 181300Z 15010KT 9999 SCT040 31/21 Q1013 NOSIG,18,11,2022,13,0
OTHH,2022-11-18 14:00:00,51.6084,25.2746,-3.72,84.2,71.6,65.95,60.0,9.0,0.0,29.94,6.21,FEW,4500.0,HZ,89.6,OTHH 181400Z 06009KT 9999 FEW045 29/22 Q1014 NOSIG,18,11,2022,14,0
OTHH,2022-11-18 23:00:00,51.6084,25.2746,-3.72,78.8,73.4,83.55,340.0,4.0,0.0,29.97,5.59,NSC,,HZ,78.8,OTHH 182300Z 34004KT 9000 NSC 26/23 Q1015 NOSIG,18,11,2022,23,0
OTHH,2022-11-19 00:00:00,51.6084,25.2746,-3.72,77.0,73.4,88.67,340.0,4.0,0.0,29.97,4.97,NSC,,HZ,77.0,OTHH 190000Z 34004KT 8000 NSC 25/23 Q1015 NOSIG,19,11,2022,0,0
OTHH,2022-11-19 01:00:00,51.6084,25.2746,-3.72,78.8,73.4,83.55,330.0,6.0,0.0,29.97,4.35,NSC,,HZ,78.8,OTHH 190100Z 33006KT 7000 NSC 26/23 Q1015 NOSIG,19,11,2022,1,0
OTHH,2022-11-19 08:00:00,51.6084,25.2746,-3.72,84.2,69.8,62.03,10.0,11.0,0.0,30.03,6.21,FEW,4000.0,HZ,88.43,OTHH 190800Z 01011KT 9999 FEW040 29/21 Q1017 NOSIG,19,11,2022,8,0
OTHH,2022-11-19 10:00:00,51.6084,25.2746,-3.72,84.2,71.6,65.95,30.0,13.0,0.0,29.97,6.21,FEW,4000.0,HZ,89.6,OTHH 191000Z 03013KT 9999 FEW040 29/22 Q1015 NOSIG,19,11,2022,10,0
OTHH,2022-11-19 11:00:00,51.6084,25.2746,-3.72,84.2,71.6,65.95,20.0,15.0,0.0,29.97,6.21,FEW,4000.0,HZ,89.6,OTHH 191100Z 02015KT 9999 FEW040 29/22 Q1015 NOSIG,19,11,2022,11,0
OTHH,2022-11-19 12:00:00,51.6084,25.2746,-3.72,84.2,71.6,65.95,20.0,18.0,0.0,29.97,6.21,FEW,4000.0,HZ,89.6,OTHH 191200Z 02018KT 9999 FEW040 29/22 Q1015 NOSIG,19,11,2022,12,0
OTHH,2022-11-19 13:00:00,51.6084,25.2746,-3.72,84.2,69.8,62.03,360.0,20.0,0.0,29.97,6.21,FEW,4000.0,HZ,88.43,OTHH 191300Z 36020KT 9999 FEW040 29/21 Q1015 NOSIG,19,11,2022,13,0
OTHH,2022-11-20 10:00:00,51.6084,25.2746,-3.72,82.4,62.6,51.21,330.0,16.0,0.0,29.97,5.59,NSC,,HZ,83.41,OTHH 201000Z 33016KT 9000 NSC 28/17 Q1015 NOSIG,20,11,2022,10,0
OTHH,2022-11-20 11:00:00,51.6084,25.2746,-3.72,82.4,59.0,45.07,320.0,16.0,0.0,29.97,4.97,NSC,,HZ,82.46,OTHH 201100Z 32016KT 8000 NSC 28/15 Q1015 NOSIG,20,11,2022,11,0
OTHH,2022-11-20 12:00:00,51.6084,25.2746,-3.72,80.6,60.8,50.95,320.0,15.0,0.0,29.97,4.97,NSC,,HZ,81.46,OTHH 201200Z 32015KT 8000 NSC 27/16 Q1015 NOSIG,20,11,2022,12,0
OTHH,2022-11-20 13:00:00,51.6084,25.2746,-3.72,78.8,62.6,57.6,330.0,18.0,0.0,29.97,4.97,NSC,,HZ,78.8,OTHH 201300Z 33018KT 8000 NSC 26/17 Q1015 NOSIG,20,11,2022,13,0
OTHH,2022-11-20 14:00:00,51.6084,25.2746,-3.72,77.0,64.4,65.12,330.0,18.0,0.0,30.0,4.97,NSC,,HZ,77.0,OTHH 201400Z 33018KT 8000 NSC 25/18 Q1016 NOSIG,20,11,2022,14,0
OTHH,2022-11-21 03:00:00,51.6084,25.2746,-3.72,71.6,57.2,60.44,310.0,10.0,0.0,30.03,5.59,NSC,,HZ,71.6,OTHH 210300Z 31010KT 9000 NSC 22/14 Q1017 NOSIG,21,11,2022,3,0
OTHH,2022-11-21 09:00:00,51.6084,25.2746,-3.72,80.6,59.0,47.79,330.0,12.0,0.0,30.0,6.21,FEW,3500.0,HZ,81.11,OTHH 210900Z 33012KT 9999 FEW035 27/15 Q1016 NOSIG,21,11,2022,9,0
OTHH,2022-11-21 10:00:00,51.6084,25.2746,-3.72,80.6,57.2,44.8,330.0,12.0,0.0,29.97,6.21,FEW,3500.0,HZ,80.81,OTHH 211000Z 33012KT 9999 FEW035 27/14 Q1015 NOSIG,21,11,2022,10,0
OTHH,2022-11-21 11:00:00,51.6084,25.2746,-3.72,80.6,57.2,44.8,320.0,11.0,0.0,29.97,6.21,FEW,4000.0,HZ,80.81,OTHH 211100Z 32011KT 280V340 9999 FEW040 27/14 Q1015 NOSIG,21,11,2022,11,0
OTHH,2022-11-21 12:00:00,51.6084,25.2746,-3.72,80.6,59.0,47.79,320.0,11.0,0.0,29.97,6.21,FEW,4000.0,HZ,81.11,OTHH 211200Z 32011KT 9999 FEW040 27/15 Q1015 NOSIG,21,11,2022,12,0
OTHH,2022-11-21 13:00:00,51.6084,25.2746,-3.72,78.8,57.2,47.52,330.0,11.0,0.0,30.0,6.21,FEW,3500.0,HZ,78.8,OTHH 211300Z 33011KT 9999 FEW035 26/14 Q1016 NOSIG,21,11,2022,13,0
OTHH,2022-11-21 14:00:00,51.6084,25.2746,-3.72,77.0,59.0,53.8,330.0,10.0,0.0,30.0,6.21,FEW,3500.0,HZ,77.0,OTHH 211400Z 33010KT 9999 FEW035 25/15 Q1016 NOSIG,21,11,2022,14,0
OTHH,2022-11-21 15:00:00,51.6084,25.2746,-3.72,75.2,60.8,60.9,320.0,10.0,0.0,30.0,6.21,FEW,4000.0,HZ,75.2,OTHH 211500Z 32010KT 9999 FEW040 24/16 Q1016 NOSIG,21,11,2022,15,0
OTHH,2022-11-21 16:00:00,51.6084,25.2746,-3.72,75.2,62.6,64.91,320.0,9.0,0.0,30.03,6.21,FEW,4000.0,HZ,75.2,OTHH 211600Z 32009KT 9999 FEW040 24/17 Q1017 NOSIG,21,11,2022,16,0
OTHH,2022-11-22 09:00:00,51.6084,25.2746,-3.72,80.6,57.2,44.8,120.0,5.0,0.0,30.03,6.21,FEW,4000.0,HZ,80.81,OTHH 220900Z 12005KT 010V180 9999 FEW040 27/14 Q1017 NOSIG,22,11,2022,9,0
OTHH,2022-11-22 10:00:00,51.6084,25.2746,-3.72,80.6,57.2,44.8,140.0,4.0,0.0,30.0,6.21,FEW,4000.0,HZ,80.81,OTHH 221000Z 14004KT 110V210 9999 FEW040 27/14 Q1016 NOSIG,22,11,2022,10,0
OTHH,2022-11-22 11:00:00,51.6084,25.2746,-3.72,80.6,57.2,44.8,100.0,7.0,0.0,30.0,6.21,FEW,4000.0,HZ,80.81,OTHH 221100Z 10007KT 9999 FEW040 27/14 Q1016 NOSIG,22,11,2022,11,0
OTHH,2022-11-23 08:00:00,51.6084,25.2746,-3.72,78.8,57.2,47.52,30.0,5.0,0.0,30.03,6.21,FEW,3500.0,HZ,78.8,OTHH 230800Z 03005KT 9999 FEW035 26/14 Q1017 NOSIG,23,11,2022,8,0
OTHH,2022-11-23 09:00:00,51.6084,25.2746,-3.72,78.8,57.2,47.52,60.0,3.0,0.0,30.03,6.21,FEW,3500.0,HZ,78.8,OTHH 230900Z 06003KT 9999 FEW035 26/14 Q1017 NOSIG,23,11,2022,9,0
OTHH,2022-11-23 10:00:00,51.6084,25.2746,-3.72,78.8,53.6,41.69,110.0,5.0,0.0,30.0,6.21,FEW,3500.0,HZ,78.8,OTHH 231000Z 11005KT 9999 FEW035 26/12 Q1016 NOSIG,23,11,2022,10,0
OTHH,2022-11-23 11:00:00,51.6084,25.2746,-3.72,78.8,55.4,44.52,100.0,4.0,0.0,29.97,6.21,FEW,3500.0,HZ,78.8,OTHH 231100Z 10004KT 9999 FEW035 26/13 Q1015 NOSIG,23,11,2022,11,0
OTHH,2022-11-28 01:00:00,51.6084,25.2746,-3.72,75.2,71.6,88.59,320.0,10.0,0.0,29.88,4.97,FEW,2000.0,HZ,75.2,OTHH 280100Z 32010KT 8000 FEW020 24/22 Q1012 NOSIG,28,11,2022,1,0
OTHH,2022-11-28 02:00:00,51.6084,25.2746,-3.72,75.2,71.6,88.59,320.0,10.0,0.0,29.88,4.35,FEW,1800.0,HZ,75.2,OTHH 280200Z 32010KT 7000 FEW018 24/22 Q1012 NOSIG,28,11,2022,2,0
OTHH,2022-11-28 03:00:00,51.6084,25.2746,-3.72,75.2,71.6,88.59,320.0,10.0,0.0,29.91,3.11,NSC,,HZ,75.2,OTHH 280300Z 32010KT 5000 HZ NSC 24/22 Q1013 TEMPO 4000,28,11,2022,3,0
OTHH,2022-11-28 04:00:00,51.6084,25.2746,-3.72,75.2,71.6,88.59,300.0,6.0,0.0,29.91,4.35,NSC,,HZ,75.2,OTHH 280400Z 30006KT 7000 NSC 24/22 Q1013 NOSIG,28,11,2022,4,0
OTHH,2022-11-28 05:00:00,51.6084,25.2746,-3.72,78.8,71.6,78.62,320.0,10.0,0.0,29.94,4.97,NSC,,HZ,78.8,OTHH 280500Z 32010KT 8000 NSC 26/22 Q1014 NOSIG,28,11,2022,5,0
OTHH,2022-11-28 10:00:00,51.6084,25.2746,-3.72,87.8,62.6,43.07,360.0,16.0,0.0,29.88,6.21,FEW,4000.0,HZ,88.48,OTHH 281000Z 36016KT 9999 FEW040 31/17 Q1012 NOSIG,28,11,2022,10,0
OTHH,2022-11-29 11:00:00,51.6084,25.2746,-3.72,82.4,62.6,51.21,30.0,6.0,0.0,29.88,6.21,FEW,4000.0,HZ,83.41,OTHH 291100Z 03006KT 010V070 9999 FEW040 28/17 Q1012 NOSIG,29,11,2022,11,0
OTHH,2022-11-30 07:00:00,51.6084,25.2746,-3.72,80.6,68.0,65.54,30.0,7.0,0.0,30.0,6.21,FEW,3800.0,HZ,83.29,OTHH 300700Z 03007KT 9999 FEW038 27/20 Q1016 NOSIG,30,11,2022,7,0
OTHH,2022-11-30 08:00:00,51.6084,25.2746,-3.72,84.2,62.6,48.32,150.0,5.0,0.0,30.0,6.21,FEW,3500.0,HZ,85.03,OTHH 300800Z 15005KT 100V220 9999 FEW035 29/17 Q1016 NOSIG,30,11,2022,8,0
OTHH,2022-11-30 09:00:00,51.6084,25.2746,-3.72,84.2,62.6,48.32,130.0,8.0,0.0,29.97,6.21,FEW,3500.0,HZ,85.03,OTHH 300900Z 13008KT 100V180 9999 FEW035 29/17 Q1015 NOSIG,30,11,2022,9,0
OTHH,2022-11-30 10:00:00,51.6084,25.2746,-3.72,84.2,62.6,48.32,120.0,9.0,0.0,29.94,6.21,FEW,3500.0,HZ,85.03,OTHH 301000Z 12009KT 9999 FEW035 29/17 Q1014 NOSIG,30,11,2022,10,0
OTHH,2022-11-30 11:00:00,51.6084,25.2746,-3.72,84.2,64.4,51.47,110.0,9.0,0.0,29.94,6.21,FEW,4000.0,HZ,85.71,OTHH 301100Z 11009KT 9999 FEW040 29/18 Q1014 NOSIG,30,11,2022,11,0
OTHH,2022-11-30 12:00:00,51.6084,25.2746,-3.72,82.4,66.2,58.08,110.0,9.0,0.0,29.94,6.21,FEW,4000.0,HZ,84.63,OTHH 301200Z 11009KT 9999 FEW040 28/19 Q1014 NOSIG,30,11,2022,12,0
OTHH,2022-11-30 13:00:00,51.6084,25.2746,-3.72,82.4,68.0,61.81,100.0,8.0,0.0,29.94,6.21,FEW,4000.0,HZ,85.38,OTHH 301300Z 10008KT 9999 FEW040 28/20 Q1014 NOSIG,30,11,2022,13,0
OTHH,2022-12-01 01:00:00,51.6084,25.2746,-3.72,71.6,66.2,83.09,330.0,4.0,0.0,30.0,5.59,NSC,,HZ,71.6,OTHH 010100Z 33004KT 9000 NSC 22/19 Q1016 NOSIG,1,12,2022,1,0
OTHH,2022-12-01 02:00:00,51.6084,25.2746,-3.72,69.8,64.4,82.98,0.0,0.0,0.0,30.0,5.59,NSC,,HZ,69.8,OTHH 010200Z 00000KT 9000 NSC 21/18 Q1016 NOSIG,1,12,2022,2,0
OTHH,2022-12-01 03:00:00,51.6084,25.2746,-3.72,69.8,64.4,82.98,0.0,0.0,0.0,30.0,4.35,NSC,,HZ,69.8,OTHH 010300Z 00000KT 7000 NSC 21/18 Q1016 NOSIG,1,12,2022,3,0
OTHH,2022-12-01 23:00:00,51.6084,25.2746,-3.72,73.4,68.0,83.21,320.0,6.0,0.0,29.94,4.97,NSC,,HZ,73.4,OTHH 012300Z 32006KT 8000 NSC 23/20 Q1014 NOSIG,1,12,2022,23,0
OTHH,2022-12-02 00:00:00,51.6084,25.2746,-3.72,71.6,66.2,83.09,280.0,4.0,0.0,29.94,4.97,NSC,,HZ,71.6,OTHH 020000Z 28004KT 260V330 8000 NSC 22/19 Q1014 NOSIG,2,12,2022,0,0
OTHH,2022-12-02 01:00:00,51.6084,25.2746,-3.72,71.6,66.2,83.09,300.0,5.0,0.0,29.94,4.97,NSC,,HZ,71.6,OTHH 020100Z 30005KT 8000 NSC 22/19 Q1014 NOSIG,2,12,2022,1,0
OTHH,2022-12-02 02:00:00,51.6084,25.2746,-3.72,71.6,68.0,88.43,290.0,6.0,0.0,29.94,4.35,NSC,,HZ,71.6,OTHH 020200Z 29006KT 7000 NSC 22/20 Q1014 NOSIG,2,12,2022,2,0
OTHH,2022-12-02 03:00:00,51.6084,25.2746,-3.72,71.6,66.2,83.09,300.0,6.0,0.0,29.97,3.11,NSC,,HZ,71.6,OTHH 020300Z 30006KT 5000 HZ NSC 22/19 Q1015 TEMPO 4000,2,12,2022,3,0
OTHH,2022-12-02 04:00:00,51.6084,25.2746,-3.72,71.6,66.2,83.09,300.0,6.0,0.0,29.97,3.73,NSC,,HZ,71.6,OTHH 020400Z 30006KT 6000 NSC 22/19 Q1015 NOSIG,2,12,2022,4,0
OTHH,2022-12-02 05:00:00,51.6084,25.2746,-3.72,75.2,66.2,73.61,300.0,6.0,0.0,30.0,5.59,NSC,,HZ,75.2,OTHH 020500Z 30006KT 9000 NSC 24/19 Q1016 NOSIG,2,12,2022,5,0
OTHH,2022-12-02 20:00:00,51.6084,25.2746,-3.72,75.2,68.0,78.34,320.0,7.0,0.0,29.97,4.97,NSC,,HZ,75.2,OTHH 022000Z 32007KT 8000 NSC 24/20 Q1015 NOSIG,2,12,2022,20,0
OTHH,2022-12-02 21:00:00,51.6084,25.2746,-3.72,75.2,68.0,78.34,310.0,5.0,0.0,29.94,5.59,NSC,,HZ,75.2,OTHH 022100Z 31005KT 9000 NSC 24/20 Q1014 NOSIG,2,12,2022,21,0
OTHH,2022-12-02 22:00:00,51.6084,25.2746,-3.72,73.4,68.0,83.21,300.0,4.0,0.0,29.94,5.59,NSC,,HZ,73.4,OTHH 022200Z 30004KT 9000 NSC 23/20 Q1014 NOSIG,2,12,2022,22,0
OTHH,2022-12-02 23:00:00,51.6084,25.2746,-3.72,73.4,66.2,78.19,310.0,7.0,0.0,29.94,5.59,NSC,,HZ,73.4,OTHH 022300Z 31007KT 9000 NSC 23/19 Q1014 NOSIG,2,12,2022,23,0
OTHH,2022-12-04 03:00:00,51.6084,25.2746,-3.72,71.6,66.2,83.09,280.0,2.0,0.0,30.0,5.59,NSC,,HZ,71.6,OTHH 040300Z 28002KT 9000 NSC 22/19 Q1016 NOSIG,4,12,2022,3,0
OTHH,2022-12-04 11:00:00,51.6084,25.2746,-3.72,82.4,60.8,48.05,50.0,6.0,0.0,29.94,6.21,FEW,4000.0,HZ,82.9,OTHH 041100Z 05006KT 010V080 9999 FEW040 28/16 Q1014 NOSIG,4,12,2022,11,0
OTHH,2022-12-06 03:00:00,51.6084,25.2746,-3.72,71.6,68.0,88.43,200.0,3.0,0.0,30.0,5.59,NSC,,HZ,71.6,OTHH 060300Z 20003KT 9000 NSC 22/20 Q1016 NOSIG,6,12,2022,3,0
OTHH,2022-12-06 09:00:00,51.6084,25.2746,-3.72,82.4,68.0,61.81,150.0,11.0,0.0,29.97,6.21,FEW,3000.0,HZ,85.38,OTHH 060900Z 15011KT 9999 FEW030 28/20 Q1015 NOSIG,6,12,2022,9,0
OTHH,2022-12-06 10:00:00,51.6084,25.2746,-3.72,82.4,68.0,61.81,150.0,13.0,0.0,29.97,6.21,FEW,3000.0,HZ,85.38,OTHH 061000Z 15013KT 9999 FEW030 28/20 Q1015 NOSIG,6,12,2022,10,0
OTHH,2022-12-06 11:00:00,51.6084,25.2746,-3.72,82.4,69.8,65.74,150.0,13.0,0.0,29.97,6.21,FEW,3000.0,HZ,86.22,OTHH 061100Z 15013KT 9999 FEW030 28/21 Q1015 NOSIG,6,12,2022,11,0
OTHH,2022-12-06 12:00:00,51.6084,25.2746,-3.72,80.6,68.0,65.54,150.0,14.0,0.0,29.97,6.21,FEW,4000.0,HZ,83.29,OTHH 061200Z 15014KT 9999 FEW040TCU 27/20 Q1015 NOSIG,6,12,2022,12,0
OTHH,2022-12-06 13:00:00,51.6084,25.2746,-3.72,80.6,66.2,61.58,140.0,10.0,0.0,29.94,6.21,FEW,4000.0,HZ,82.75,OTHH 061300Z 14010KT 9999 FEW040TCU 27/19 Q1014 NOSIG,6,12,2022,13,0
OTHH,2022-12-07 06:00:00,51.6084,25.2746,-3.72,80.6,71.6,74.11,160.0,10.0,0.0,30.03,6.21,SCT,2500.0,HZ,84.57,OTHH 070600Z 16010KT 9999 SCT025 27/22 Q1017 NOSIG,7,12,2022,6,0
OTHH,2022-12-07 07:00:00,51.6084,25.2746,-3.72,80.6,69.8,69.71,160.0,10.0,0.0,30.0,6.21,SCT,2000.0,HZ,83.9,OTHH 070700Z 16010KT 9999 SCT020 27/21 Q1016 NOSIG,7,12,2022,7,0
OTHH,2022-12-07 08:00:00,51.6084,25.2746,-3.72,82.4,68.0,61.81,150.0,11.0,0.0,30.0,6.21,FEW,3000.0,HZ,85.38,OTHH 070800Z 15011KT 9999 FEW030 28/20 Q1016 NOSIG,7,12,2022,8,0
OTHH,2022-12-07 09:00:00,51.6084,25.2746,-3.72,80.6,69.8,69.71,160.0,10.0,0.0,29.97,6.21,FEW,2500.0,HZ,83.9,OTHH 070900Z 16010KT 9999 FEW025TCU 27/21 Q1015 NOSIG,7,12,2022,9,0
OTHH,2022-12-07 10:00:00,51.6084,25.2746,-3.72,82.4,68.0,61.81,150.0,11.0,0.0,29.94,6.21,FEW,2500.0,HZ,85.38,OTHH 071000Z 15011KT 9999 FEW025TCU 28/20 Q1014 NOSIG,7,12,2022,10,0
OTHH,2022-12-07 11:00:00,51.6084,25.2746,-3.72,82.4,60.8,48.05,150.0,10.0,0.0,29.91,6.21,FEW,2000.0,HZ,82.9,OTHH 071100Z 15010KT 9999 FEW020 FEW025TCU 28/16 Q1013 NOSIG,7,12,2022,11,0
OTHH,2022-12-07 12:00:00,51.6084,25.2746,-3.72,78.8,62.6,57.6,40.0,16.0,0.0,29.94,6.21,SCT,3000.0,HZ,78.8,OTHH 071200Z 04016KT 020V100 9999 SCT030 FEW035TCU 26/17 Q1014 NOSIG,7,12,2022,12,0
OTHH,2022-12-07 13:00:00,51.6084,25.2746,-3.72,77.0,64.4,65.12,50.0,12.0,0.0,29.94,6.21,BKN,3500.0,HZ,77.0,OTHH 071300Z 05012KT 9999 BKN035 25/18 Q1014 RERA NOSIG,7,12,2022,13,0
OTHH,2022-12-07 14:00:00,51.6084,25.2746,-3.72,78.8,64.4,61.36,100.0,9.0,0.0,29.97,6.21,BKN,4000.0,HZ,78.8,OTHH 071400Z 10009KT 9999 BKN040 26/18 Q1015 NOSIG,7,12,2022,14,0
OTHH,2022-12-07 15:00:00,51.6084,25.2746,-3.72,77.0,68.0,73.78,30.0,14.0,0.0,30.0,6.21,SCT,4000.0,HZ,77.0,OTHH 071500Z 03014KT 9999 SCT040 25/20 Q1016 NOSIG,7,12,2022,15,0
OTHH,2022-12-07 16:00:00,51.6084,25.2746,-3.72,77.0,66.2,69.33,60.0,13.0,0.0,30.0,6.21,SCT,4000.0,HZ,77.0,OTHH 071600Z 06013KT 9999 SCT040 25/19 Q1016 NOSIG,7,12,2022,16,0
OTHH,2022-12-07 17:00:00,51.6084,25.2746,-3.72,77.0,66.2,69.33,70.0,10.0,0.0,30.0,6.21,FEW,4000.0,HZ,77.0,OTHH 071700Z 07010KT 9999 FEW040 25/19 Q1016 NOSIG,7,12,2022,17,0
OTHH,2022-12-08 02:00:00,51.6084,25.2746,-3.72,73.4,68.0,83.21,290.0,3.0,0.0,30.03,6.21,FEW,2500.0,HZ,73.4,OTHH 080200Z 29003KT 9999 FEW025 23/20 Q1017 NOSIG,8,12,2022,2,0
OTHH,2022-12-08 03:00:00,51.6084,25.2746,-3.72,73.4,68.0,83.21,330.0,5.0,0.0,30.03,6.21,FEW,2500.0,HZ,73.4,OTHH 080300Z 33005KT 9999 FEW025 23/20 Q1017 NOSIG,8,12,2022,3,0
OTHH,2022-12-08 04:00:00,51.6084,25.2746,-3.72,75.2,68.0,78.34,330.0,4.0,0.0,30.06,6.21,FEW,2000.0,HZ,75.2,OTHH 080400Z 33004KT 9999 FEW020 24/20 Q1018 NOSIG,8,12,2022,4,0
OTHH,2022-12-08 05:00:00,51.6084,25.2746,-3.72,77.0,66.2,69.33,330.0,5.0,0.0,30.09,6.21,FEW,2500.0,HZ,77.0,OTHH 080500Z 33005KT 9999 FEW025 FEW030TCU 25/19 Q1019 NOSIG,8,12,2022,5,0
OTHH,2022-12-08 06:00:00,51.6084,25.2746,-3.72,78.8,68.0,69.52,350.0,8.0,0.0,30.09,6.21,FEW,2500.0,HZ,78.8,OTHH 080600Z 35008KT 9999 FEW025 FEW030TCU 26/20 Q1019 NOSIG,8,12,2022,6,0
OTHH,2022-12-08 07:00:00,51.6084,25.2746,-3.72,78.8,68.0,69.52,360.0,10.0,0.0,30.09,6.21,FEW,3500.0,HZ,78.8,OTHH 080700Z 36010KT 330V030 9999 FEW035 26/20 Q1019 NOSIG,8,12,2022,7,0
OTHH,2022-12-08 08:00:00,51.6084,25.2746,-3.72,80.6,64.4,57.84,10.0,11.0,0.0,30.06,6.21,FEW,3500.0,HZ,82.27,OTHH 080800Z 01011KT 340V040 9999 FEW035 27/18 Q1018 NOSIG,8,12,2022,8,0
OTHH,2022-12-08 09:00:00,51.6084,25.2746,-3.72,80.6,64.4,57.84,20.0,11.0,0.0,30.03,6.21,FEW,3500.0,HZ,82.27,OTHH 080900Z 02011KT 9999 FEW035 27/18 Q1017 NOSIG,8,12,2022,9,0
OTHH,2022-12-08 10:00:00,51.6084,25.2746,-3.72,80.6,66.2,61.58,20.0,12.0,0.0,30.03,6.21,FEW,3000.0,HZ,82.75,OTHH 081000Z 02012KT 320V040 9999 FEW030 FEW035TCU 27/19 Q1017 NOSIG,8,12,2022,10,0
OTHH,2022-12-08 11:00:00,51.6084,25.2746,-3.72,80.6,66.2,61.58,20.0,12.0,0.0,30.0,6.21,FEW,3000.0,HZ,82.75,OTHH 081100Z 02012KT 9999 FEW030 27/19 Q1016 NOSIG,8,12,2022,11,0
OTHH,2022-12-08 12:00:00,51.6084,25.2746,-3.72,80.6,66.2,61.58,20.0,12.0,0.0,30.0,6.21,FEW,3000.0,HZ,82.75,OTHH 081200Z 02012KT 9999 FEW030 27/19 Q1016 NOSIG,8,12,2022,12,0
OTHH,2022-12-08 13:00:00,51.6084,25.2746,-3.72,78.8,66.2,65.33,20.0,12.0,0.0,30.03,6.21,FEW,3000.0,HZ,78.8,OTHH 081300Z 02012KT 9999 FEW030 26/19 Q1017 NOSIG,8,12,2022,13,0
OTHH,2022-12-08 14:00:00,51.6084,25.2746,-3.72,77.0,66.2,69.33,20.0,12.0,0.0,30.03,6.21,FEW,3000.0,HZ,77.0,OTHH 081400Z 02012KT 330V040 9999 FEW030 25/19 Q1017 NOSIG,8,12,2022,14,0
OTHH,2022-12-09 08:00:00,51.6084,25.2746,-3.72,77.0,55.4,47.25,350.0,14.0,0.0,30.06,6.21,FEW,3500.0,HZ,77.0,OTHH 090800Z 35014KT 9999 FEW035 SCT120 25/13 Q1018 NOSIG,9,12,2022,8,0
OTHH,2022-12-09 09:00:00,51.6084,25.2746,-3.72,77.0,55.4,47.25,360.0,13.0,0.0,30.03,6.21,FEW,3500.0,HZ,77.0,OTHH 090900Z 36013KT 9999 FEW035 SCT120 BKN140 25/13 Q1017 NOSIG,9,12,2022,9,0
OTHH,2022-12-09 10:00:00,51.6084,25.2746,-3.72,77.0,57.2,50.43,350.0,15.0,0.0,30.0,6.21,FEW,3500.0,-RA,77.0,OTHH 091000Z 35015KT 9999 -RA FEW035 BKN100 25/14 Q1016 NOSIG,9,12,2022,10,0
OTHH,2022-12-09 11:00:00,51.6084,25.2746,-3.72,77.0,55.4,47.25,360.0,16.0,0.0,29.97,6.21,FEW,3500.0,HZ,77.0,OTHH 091100Z 36016KT 9999 FEW035 BKN120 25/13 Q1015 NOSIG,9,12,2022,11,0
OTHH,2022-12-09 12:00:00,51.6084,25.2746,-3.72,78.8,53.6,41.69,350.0,13.0,0.0,30.0,6.21,FEW,3500.0,HZ,78.8,OTHH 091200Z 35013KT 9999 FEW035 26/12 Q1016 NOSIG,9,12,2022,12,0
OTHH,2022-12-09 13:00:00,51.6084,25.2746,-3.72,77.0,51.8,41.42,340.0,15.0,0.0,30.0,6.21,FEW,3500.0,HZ,77.0,OTHH 091300Z 34015KT 9999 FEW035 25/11 Q1016 NOSIG,9,12,2022,13,0
OTHH,2022-12-10 05:00:00,51.6084,25.2746,-3.72,69.8,55.4,60.21,290.0,12.0,0.0,30.03,6.21,FEW,3500.0,HZ,69.8,OTHH 100500Z 29012KT 9999 FEW035 21/13 Q1017 NOSIG,10,12,2022,5,0
OTHH,2022-12-10 06:00:00,51.6084,25.2746,-3.72,69.8,57.2,64.26,290.0,11.0,0.0,30.06,5.59,FEW,3500.0,-RA,69.8,OTHH 100600Z 29011KT 9000 -RA FEW035 OVC090 21/14 Q1018 NOSIG,10,12,2022,6,0
OTHH,2022-12-10 07:00:00,51.6084,25.2746,-3.72,69.8,57.2,64.26,290.0,11.0,0.0,30.06,6.21,FEW,3500.0,-RA,69.8,OTHH 100700Z 29011KT 9999 -RA FEW035 OVC090 21/14 Q1018 NOSIG,10,12,2022,7,0
OTHH,2022-12-10 08:00:00,51.6084,25.2746,-3.72,69.8,57.2,64.26,280.0,11.0,0.0,30.03,6.21,FEW,3500.0,HZ,69.8,OTHH 100800Z 28011KT 9999 FEW035 OVC090 21/14 Q1017 NOSIG,10,12,2022,8,0
OTHH,2022-12-10 10:00:00,51.6084,25.2746,-3.72,71.6,55.4,56.63,310.0,10.0,0.0,30.0,6.21,FEW,3500.0,HZ,71.6,OTHH 101000Z 31010KT 9999 FEW035 22/13 Q1016 NOSIG,10,12,2022,10,0
OTHH,2022-12-10 11:00:00,51.6084,25.2746,-3.72,73.4,55.4,53.29,310.0,10.0,0.0,29.97,6.21,FEW,3500.0,HZ,73.4,OTHH 101100Z 31010KT 9999 FEW035 23/13 Q1015 NOSIG,10,12,2022,11,0
OTHH,2022-12-10 12:00:00,51.6084,25.2746,-3.72,73.4,55.4,53.29,320.0,13.0,0.0,29.97,6.21,FEW,3500.0,HZ,73.4,OTHH 101200Z 32013KT 9999 FEW035 23/13 Q1015 NOSIG,10,12,2022,12,0
OTHH,2022-12-10 13:00:00,51.6084,25.2746,-3.72,71.6,57.2,60.44,320.0,12.0,0.0,29.97,6.21,FEW,3500.0,HZ,71.6,OTHH 101300Z 32012KT 9999 FEW035 22/14 Q1015 NOSIG,10,12,2022,13,0
OTHH,2022-12-10 14:00:00,51.6084,25.2746,-3.72,71.6,57.2,60.44,320.0,13.0,0.0,30.0,6.21,FEW,3500.0,HZ,71.6,OTHH 101400Z 32013KT 9999 FEW035 22/14 Q1016 NOSIG,10,12,2022,14,0
OTHH,2022-12-11 08:00:00,51.6084,25.2746,-3.72,73.4,53.6,49.9,310.0,11.0,0.0,30.09,6.21,FEW,3500.0,HZ,73.4,OTHH 110800Z 31011KT 9999 FEW035 23/12 Q1019 NOSIG,11,12,2022,8,0
OTHH,2022-12-11 09:00:00,51.6084,25.2746,-3.72,75.2,50.0,41.14,310.0,12.0,0.0,30.06,6.21,FEW,4000.0,HZ,75.2,OTHH 110900Z 31012KT 9999 FEW040 24/10 Q1018 NOSIG,11,12,2022,9,0
OTHH,2022-12-11 10:00:00,51.6084,25.2746,-3.72,75.2,50.0,41.14,310.0,13.0,0.0,30.06,6.21,SCT,4000.0,HZ,75.2,OTHH 111000Z 31013KT 9999 SCT040 24/10 Q1018 NOSIG,11,12,2022,10,0
OTHH,2022-12-11 11:00:00,51.6084,25.2746,-3.72,75.2,50.0,41.14,320.0,13.0,0.0,30.03,6.21,FEW,4000.0,HZ,75.2,OTHH 111100Z 32013KT 9999 FEW040 24/10 Q1017 NOSIG,11,12,2022,11,0
OTHH,2022-12-11 12:00:00,51.6084,25.2746,-3.72,75.2,50.0,41.14,320.0,13.0,0.0,30.03,6.21,FEW,4000.0,HZ,75.2,OTHH 111200Z 32013KT 9999 FEW040 24/10 Q1017 NOSIG,11,12,2022,12,0
OTHH,2022-12-11 13:00:00,51.6084,25.2746,-3.72,73.4,53.6,49.9,320.0,14.0,0.0,30.03,6.21,FEW,4000.0,HZ,73.4,OTHH 111300Z 32014KT 9999 FEW040 23/12 Q1017 NOSIG,11,12,2022,13,0
OTHH,2022-12-11 14:00:00,51.6084,25.2746,-3.72,71.6,53.6,53.03,320.0,14.0,0.0,30.03,6.21,FEW,4000.0,HZ,71.6,OTHH 111400Z 32014KT 9999 FEW040 22/12 Q1017 NOSIG,11,12,2022,14,0
OTHH,2022-12-11 15:00:00,51.6084,25.2746,-3.72,71.6,55.4,56.63,320.0,12.0,0.0,30.06,6.21,FEW,4000.0,HZ,71.6,OTHH 111500Z 32012KT 9999 FEW040 22/13 Q1018 NOSIG,11,12,2022,15,0
OTHH,2022-12-12 08:00:00,51.6084,25.2746,-3.72,75.2,55.4,50.17,310.0,8.0,0.0,30.06,6.21,FEW,3500.0,HZ,75.2,OTHH 120800Z 31008KT 280V340 9999 FEW035 24/13 Q1018 NOSIG,12,12,2022,8,0
OTHH,2022-12-12 09:00:00,51.6084,25.2746,-3.72,75.2,51.8,43.97,330.0,10.0,0.0,30.03,6.21,FEW,4000.0,HZ,75.2,OTHH 120900Z 33010KT 9999 FEW040 24/11 Q1017 NOSIG,12,12,2022,9,0
OTHH,2022-12-12 10:00:00,51.6084,25.2746,-3.72,77.0,51.8,41.42,330.0,7.0,0.0,30.0,6.21,FEW,4000.0,HZ,77.0,OTHH 121000Z 33007KT 300V360 9999 FEW040 25/11 Q1016 NOSIG,12,12,2022,10,0
OTHH,2022-12-12 11:00:00,51.6084,25.2746,-3.72,75.2,50.0,41.14,340.0,9.0,0.0,30.0,6.21,FEW,4000.0,HZ,75.2,OTHH 121100Z 34009KT 9999 FEW040 24/10 Q1016 NOSIG,12,12,2022,11,0
OTHH,2022-12-12 12:00:00,51.6084,25.2746,-3.72,75.2,51.8,43.97,10.0,11.0,0.0,30.0,6.21,FEW,4500.0,HZ,75.2,OTHH 121200Z 01011KT 9999 FEW045 24/11 Q1016 NOSIG,12,12,2022,12,0
OTHH,2022-12-12 13:00:00,51.6084,25.2746,-3.72,75.2,55.4,50.17,10.0,10.0,0.0,30.0,6.21,FEW,4500.0,HZ,75.2,OTHH 121300Z 01010KT 9999 FEW045 24/13 Q1016 NOSIG,12,12,2022,13,0
OTHH,2022-12-12 14:00:00,51.6084,25.2746,-3.72,73.4,57.2,56.88,10.0,8.0,0.0,30.0,6.21,FEW,4500.0,HZ,73.4,OTHH 121400Z 01008KT 9999 FEW045 23/14 Q1016 NOSIG,12,12,2022,14,0
OTHH,2022-12-12 15:00:00,51.6084,25.2746,-3.72,71.6,53.6,53.03,340.0,11.0,0.0,30.03,6.21,FEW,4500.0,HZ,71.6,OTHH 121500Z 34011KT 9999 FEW045 22/12 Q1017 NOSIG,12,12,2022,15,0
OTHH,2022-12-13 03:00:00,51.6084,25.2746,-3.72,64.4,55.4,72.56,280.0,5.0,0.0,30.06,5.59,NSC,,HZ,64.4,OTHH 130300Z 28005KT 9000 NSC 18/13 Q1018 NOSIG,13,12,2022,3,0
OTHH,2022-12-13 08:00:00,51.6084,25.2746,-3.72,75.2,51.8,43.97,330.0,7.0,0.0,30.06,6.21,FEW,3000.0,HZ,75.2,OTHH 130800Z 33007KT 9999 FEW030 24/11 Q1018 NOSIG,13,12,2022,8,0
OTHH,2022-12-13 09:00:00,51.6084,25.2746,-3.72,75.2,53.6,46.98,350.0,8.0,0.0,30.06,6.21,FEW,3000.0,HZ,75.2,OTHH 130900Z 35008KT 310V010 9999 FEW030 24/12 Q1018 NOSIG,13,12,2022,9,0
OTHH,2022-12-13 10:00:00,51.6084,25.2746,-3.72,75.2,51.8,43.97,30.0,7.0,0.0,30.03,6.21,FEW,3000.0,HZ,75.2,OTHH 131000Z 03007KT 9999 FEW030 24/11 Q1017 NOSIG,13,12,2022,10,0
OTHH,2022-12-13 11:00:00,51.6084,25.2746,-3.72,75.2,53.6,46.98,20.0,5.0,0.0,30.0,6.21,FEW,3000.0,HZ,75.2,OTHH 131100Z 02005KT 340V080 9999 FEW030 24/12 Q1016 NOSIG,13,12,2022,11,0
OTHH,2022-12-14 03:00:00,51.6084,25.2746,-3.72,62.6,57.2,82.5,300.0,2.0,0.0,30.06,4.97,NSC,,HZ,62.6,OTHH 140300Z 30002KT 8000 NSC 17/14 Q1018 NOSIG,14,12,2022,3,0
OTHH,2022-12-14 04:00:00,51.6084,25.2746,-3.72,64.4,59.0,82.62,300.0,3.0,0.0,30.09,4.35,NSC,,HZ,64.4,OTHH 140400Z 30003KT 7000 NSC 18/15 Q1019 NOSIG,14,12,2022,4,0
OTHH,2022-12-14 08:00:00,51.6084,25.2746,-3.72,75.2,59.0,57.12,350.0,6.0,0.0,30.09,6.21,FEW,3500.0,HZ,75.2,OTHH 140800Z 35006KT 320V020 9999 FEW035 24/15 Q1019 NOSIG,14,12,2022,8,0
OTHH,2022-12-14 08:30:00,51.6084,25.2746,-3.72,77.0,59.0,53.8,20.0,7.0,0.0,30.06,6.21,FEW,3500.0,HZ,77.0,OTHH 140830Z 02007KT 9999 FEW035 25/15 Q1018 NOSIG,14,12,2022,8,30
OTHH,2022-12-14 10:00:00,51.6084,25.2746,-3.72,75.2,59.0,57.12,10.0,8.0,0.0,30.03,6.21,FEW,3500.0,HZ,75.2,OTHH 141000Z 01008KT 9999 FEW035 24/15 Q1017 NOSIG,14,12,2022,10,0
OTHH,2022-12-14 11:00:00,51.6084,25.2746,-3.72,75.2,60.8,60.9,10.0,9.0,0.0,30.03,6.21,FEW,3500.0,HZ,75.2,OTHH 141100Z 01009KT 9999 FEW035 24/16 Q1017 NOSIG,14,12,2022,11,0
OTHH,2022-12-15 03:00:00,51.6084,25.2746,-3.72,68.0,60.8,77.75,330.0,4.0,0.0,30.0,6.21,FEW,4000.0,HZ,68.0,OTHH 150300Z 33004KT 9999 FEW040 20/16 Q1016 NOSIG,15,12,2022,3,0
OTHH,2022-12-15 07:00:00,51.6084,25.2746,-3.72,75.2,64.4,69.14,10.0,6.0,0.0,30.06,6.21,FEW,4000.0,HZ,75.2,OTHH 150700Z 01006KT 330V050 9999 FEW040 24/18 Q1018 NOSIG,15,12,2022,7,0
OTHH,2022-12-15 08:00:00,51.6084,25.2746,-3.72,77.0,64.4,65.12,20.0,7.0,0.0,30.03,6.21,SCT,3500.0,HZ,77.0,OTHH 150800Z 02007KT 360V060 9999 SCT035 25/18 Q1017 NOSIG,15,12,2022,8,0
OTHH,2022-12-15 09:00:00,51.6084,25.2746,-3.72,78.8,62.6,57.6,130.0,8.0,0.0,30.0,6.21,FEW,3500.0,HZ,78.8,OTHH 150900Z 13008KT 9999 FEW035 26/17 Q1016 NOSIG,15,12,2022,9,0
OTHH,2022-12-15 10:00:00,51.6084,25.2746,-3.72,78.8,60.8,54.05,140.0,7.0,0.0,29.97,6.21,FEW,3500.0,HZ,78.8,OTHH 151000Z 14007KT 100V180 9999 FEW035 26/16 Q1015 NOSIG,15,12,2022,10,0
OTHH,2022-12-15 11:00:00,51.6084,25.2746,-3.72,78.8,60.8,54.05,90.0,6.0,0.0,29.97,6.21,FEW,3500.0,HZ,78.8,OTHH 151100Z 09006KT 040V150 9999 FEW035 26/16 Q1015 NOSIG,15,12,2022,11,0
OTHH,2022-12-15 12:00:00,51.6084,25.2746,-3.72,77.0,60.8,57.36,80.0,4.0,0.0,29.97,6.21,FEW,3500.0,HZ,77.0,OTHH 151200Z 08004KT 020V150 9999 FEW035 25/16 Q1015 NOSIG,15,12,2022,12,0
OTHH,2022-12-15 13:00:00,51.6084,25.2746,-3.72,77.0,60.8,57.36,90.0,5.0,0.0,29.97,6.21,FEW,3500.0,HZ,77.0,OTHH 151300Z 09005KT 060V120 9999 FEW035 25/16 Q1015 NOSIG,15,12,2022,13,0
OTHH,2022-12-15 14:00:00,51.6084,25.2746,-3.72,75.2,59.0,57.12,70.0,5.0,0.0,29.97,6.21,FEW,3500.0,HZ,75.2,OTHH 151400Z 07005KT 9999 FEW035 24/15 Q1015 NOSIG,15,12,2022,14,0
OTHH,2022-12-16 04:00:00,51.6084,25.2746,-3.72,69.8,62.6,77.9,,2.0,0.0,30.0,4.97,NSC,,HZ,69.8,OTHH 160400Z VRB02KT 8000 NSC 21/17 Q1016 NOSIG,16,12,2022,4,0
OTHH,2022-12-16 08:00:00,51.6084,25.2746,-3.72,77.0,60.8,57.36,10.0,6.0,0.0,30.0,6.21,FEW,3500.0,HZ,77.0,OTHH 160800Z 01006KT 340V050 9999 FEW035 25/16 Q1016 NOSIG,16,12,2022,8,0
OTHH,2022-12-16 09:00:00,51.6084,25.2746,-3.72,77.0,60.8,57.36,20.0,6.0,0.0,29.97,6.21,FEW,3500.0,HZ,77.0,OTHH 160900Z AUTO 02006KT 9999 FEW035 25/16 Q1015 NOSIG,16,12,2022,9,0
OTHH,2022-12-16 10:00:00,51.6084,25.2746,-3.72,78.8,57.2,47.52,30.0,7.0,0.0,29.94,6.21,FEW,3500.0,HZ,78.8,OTHH 161000Z AUTO 03007KT 9999 FEW035 26/14 Q1014 NOSIG,16,12,2022,10,0
OTHH,2022-12-16 11:00:00,51.6084,25.2746,-3.72,78.8,55.4,44.52,50.0,7.0,0.0,29.94,6.21,FEW,3500.0,HZ,78.8,OTHH 161100Z 05007KT 010V070 9999 FEW035 26/13 Q1014 NOSIG,16,12,2022,11,0
OTHH,2022-12-17 04:00:00,51.6084,25.2746,-3.72,69.8,64.4,82.98,300.0,5.0,0.0,30.03,5.59,NSC,,HZ,69.8,OTHH 170400Z 30005KT 9000 NSC 21/18 Q1017 NOSIG,17,12,2022,4,0
OTHH,2022-12-17 05:00:00,51.6084,25.2746,-3.72,71.6,62.6,73.27,300.0,5.0,0.0,30.06,5.59,NSC,,HZ,71.6,OTHH 170500Z 30005KT 9000 NSC 22/17 Q1018 NOSIG,17,12,2022,5,0
OTHH,2022-12-17 07:00:00,51.6084,25.2746,-3.72,77.0,60.8,57.36,330.0,10.0,0.0,30.06,6.21,FEW,4000.0,HZ,77.0,OTHH 170700Z 33010KT 9999 FEW040 25/16 Q1018 NOSIG,17,12,2022,7,0
OTHH,2022-12-17 08:00:00,51.6084,25.2746,-3.72,78.8,60.8,54.05,350.0,14.0,0.0,30.03,6.21,FEW,3500.0,HZ,78.8,OTHH 170800Z 35014KT 9999 FEW035 26/16 Q1017 NOSIG,17,12,2022,8,0
OTHH,2022-12-17 09:00:00,51.6084,25.2746,-3.72,78.8,59.0,50.69,360.0,13.0,0.0,30.0,6.21,FEW,3500.0,HZ,78.8,OTHH 170900Z 36013KT 9999 FEW035 26/15 Q1016 NOSIG,17,12,2022,9,0
OTHH,2022-12-17 10:00:00,51.6084,25.2746,-3.72,78.8,57.2,47.52,360.0,15.0,0.0,30.0,6.21,SCT,3500.0,HZ,78.8,OTHH 171000Z 36015KT 9999 SCT035 26/14 Q1016 NOSIG,17,12,2022,10,0
OTHH,2022-12-17 11:00:00,51.6084,25.2746,-3.72,78.8,59.0,50.69,360.0,14.0,0.0,29.97,6.21,SCT,4000.0,HZ,78.8,OTHH 171100Z 36014KT 9999 SCT040 26/15 Q1015 NOSIG,17,12,2022,11,0
OTHH,2022-12-17 12:00:00,51.6084,25.2746,-3.72,78.8,57.2,47.52,340.0,14.0,0.0,30.0,6.21,SCT,4000.0,HZ,78.8,OTHH 171200Z 34014KT 9999 SCT040 26/14 Q1016 NOSIG,17,12,2022,12,0
OTHH,2022-12-17 13:00:00,51.6084,25.2746,-3.72,77.0,57.2,50.43,340.0,14.0,0.0,30.0,6.21,FEW,4000.0,HZ,77.0,OTHH 171300Z 34014KT 9999 FEW040 25/14 Q1016 NOSIG,17,12,2022,13,0
OTHH,2022-12-17 14:00:00,51.6084,25.2746,-3.72,75.2,59.0,57.12,330.0,13.0,0.0,30.03,6.21,FEW,4000.0,HZ,75.2,OTHH 171400Z AUTO 33013KT 9999 FEW040 24/15 Q1017 NOSIG,17,12,2022,14,0
OTHH,2022-12-17 15:00:00,51.6084,25.2746,-3.72,73.4,57.2,56.88,340.0,13.0,0.0,30.03,6.21,FEW,4000.0,HZ,73.4,OTHH 171500Z AUTO 34013KT 9999 FEW040 23/14 Q1017 NOSIG,17,12,2022,15,0
OTHH,2022-12-18 03:00:00,51.6084,25.2746,-3.72,66.2,59.0,77.6,280.0,8.0,0.0,30.06,4.97,NSC,,HZ,66.2,OTHH 180300Z 28008KT 8000 NSC 19/15 Q1018 NOSIG,18,12,2022,3,0
OTHH,2022-12-18 04:00:00,51.6084,25.2746,-3.72,66.2,60.8,82.74,300.0,6.0,0.0,30.09,3.73,NSC,,HZ,66.2,OTHH 180400Z 30006KT 6000 NSC 19/16 Q1019 NOSIG,18,12,2022,4,0
OTHH,2022-12-18 05:00:00,51.6084,25.2746,-3.72,69.8,60.8,73.09,300.0,8.0,0.0,30.09,4.35,NSC,,HZ,69.8,OTHH 180500Z 30008KT 7000 NSC 21/16 Q1019 NOSIG,18,12,2022,5,0
OTHH,2022-12-18 08:00:00,51.6084,25.2746,-3.72,75.2,59.0,57.12,330.0,11.0,0.0,30.09,6.21,FEW,3500.0,HZ,75.2,OTHH 180800Z 33011KT 9999 FEW035 24/15 Q1019 NOSIG,18,12,2022,8,0
OTHH,2022-12-18 09:00:00,51.6084,25.2746,-3.72,77.0,59.0,53.8,330.0,10.0,0.0,30.06,6.21,SCT,3500.0,HZ,77.0,OTHH 180900Z 33010KT 9999 SCT035 25/15 Q1018 NOSIG,18,12,2022,9,0
OTHH,2022-12-18 10:00:00,51.6084,25.2746,-3.72,77.0,57.2,50.43,340.0,12.0,0.0,30.03,6.21,FEW,3500.0,HZ,77.0,OTHH 181000Z 34012KT 9999 FEW035 SCT040 25/14 Q1017 NOSIG,18,12,2022,10,0
OTHH,2022-12-18 11:00:00,51.6084,25.2746,-3.72,77.0,53.6,44.25,350.0,13.0,0.0,30.03,6.21,FEW,3500.0,HZ,77.0,OTHH 181100Z 35013KT 9999 FEW035TCU SCT040 25/12 Q1017 NOSIG,18,12,2022,11,0
OTHH,2022-12-18 12:00:00,51.6084,25.2746,-3.72,77.0,55.4,47.25,350.0,14.0,0.0,30.03,6.21,SCT,4000.0,HZ,77.0,OTHH 181200Z 35014KT 9999 SCT040 25/13 Q1017 NOSIG,18,12,2022,12,0
OTHH,2022-12-18 13:00:00,51.6084,25.2746,-3.72,75.2,55.4,50.17,330.0,12.0,0.0,30.03,6.21,FEW,4000.0,HZ,75.2,OTHH 181300Z 33012KT 9999 FEW040 24/13 Q1017 NOSIG,18,12,2022,13,0
OTHH,2022-12-18 14:00:00,51.6084,25.2746,-3.72,73.4,59.0,60.67,320.0,13.0,0.0,30.03,5.59,FEW,4000.0,HZ,73.4,OTHH 181400Z 32013KT 9000 FEW040 23/15 Q1017 NOSIG,18,12,2022,14,0
OTHH,2022-12-18 17:00:00,51.6084,25.2746,-3.72,69.8,59.0,68.55,320.0,13.0,0.0,30.09,5.59,NSC,,HZ,69.8,OTHH 181700Z 32013KT 9000 NSC 21/15 Q1019 NOSIG,18,12,2022,17,0
OTHH,2022-12-18 18:00:00,51.6084,25.2746,-3.72,69.8,59.0,68.55,310.0,10.0,0.0,30.09,5.59,NSC,,HZ,69.8,OTHH 181800Z 31010KT 9000 NSC 21/15 Q1019 NOSIG,18,12,2022,18,0
OTHH,2022-12-18 20:00:00,51.6084,25.2746,-3.72,68.0,60.8,77.75,300.0,7.0,0.0,30.06,5.59,NSC,,HZ,68.0,OTHH 182000Z 30007KT 270V330 9000 NSC 20/16 Q1018 NOSIG,18,12,2022,20,0
OTHH,2022-12-18 21:00:00,51.6084,25.2746,-3.72,68.0,59.0,72.92,300.0,9.0,0.0,30.06,4.97,NSC,,HZ,68.0,OTHH 182100Z 30009KT 8000 NSC 20/15 Q1018 NOSIG,18,12,2022,21,0
OTHH,2022-12-18 22:00:00,51.6084,25.2746,-3.72,66.2,60.8,82.74,290.0,9.0,0.0,30.06,4.35,NSC,,HZ,66.2,OTHH 182200Z 29009KT 7000 NSC 19/16 Q1018 NOSIG,18,12,2022,22,0
OTHH,2022-12-18 23:00:00,51.6084,25.2746,-3.72,66.2,60.8,82.74,290.0,9.0,0.0,30.06,4.35,NSC,,HZ,66.2,OTHH 182300Z 29009KT 7000 NSC 19/16 Q1018 NOSIG,18,12,2022,23,0
OTHH,2022-12-19 00:00:00,51.6084,25.2746,-3.72,66.2,59.0,77.6,290.0,9.0,0.0,30.03,4.97,NSC,,HZ,66.2,OTHH 190000Z 29009KT 8000 NSC 19/15 Q1017 NOSIG,19,12,2022,0,0
OTHH,2022-12-19 01:00:00,51.6084,25.2746,-3.72,66.2,57.2,72.74,290.0,9.0,0.0,30.03,5.59,NSC,,HZ,66.2,OTHH 190100Z 29009KT 9000 NSC 19/14 Q1017 NOSIG,19,12,2022,1,0
OTHH,2022-12-19 03:00:00,51.6084,25.2746,-3.72,64.4,55.4,72.56,290.0,8.0,0.0,30.06,5.59,NSC,,HZ,64.4,OTHH 190300Z 29008KT 9000 NSC 18/13 Q1018 NOSIG,19,12,2022,3,0
OTHH,2022-12-19 05:00:00,51.6084,25.2746,-3.72,66.2,57.2,72.74,290.0,11.0,0.0,30.09,3.11,NSC,,HZ,66.2,OTHH 190500Z 29011KT 5000 HZ NSC 19/14 Q1019 NOSIG,19,12,2022,5,0
OTHH,2022-12-19 06:00:00,51.6084,25.2746,-3.72,68.0,57.2,68.35,300.0,10.0,0.0,30.09,3.73,NSC,,HZ,68.0,OTHH 190600Z 30010KT 6000 NSC 20/14 Q1019 NOSIG,19,12,2022,6,0
OTHH,2022-12-19 07:00:00,51.6084,25.2746,-3.72,71.6,57.2,60.44,310.0,9.0,0.0,30.09,4.97,NSC,,HZ,71.6,OTHH 190700Z 31009KT 8000 NSC 22/14 Q1019 NOSIG,19,12,2022,7,0
OTHH,2022-12-19 08:00:00,51.6084,25.2746,-3.72,73.4,57.2,56.88,310.0,9.0,0.0,30.06,5.59,NSC,,HZ,73.4,OTHH 190800Z 31009KT 9000 NSC 23/14 Q1018 NOSIG,19,12,2022,8,0
OTHH,2022-12-19 09:00:00,51.6084,25.2746,-3.72,75.2,57.2,53.55,330.0,10.0,0.0,30.03,6.21,FEW,3500.0,HZ,75.2,OTHH 190900Z 33010KT 9999 FEW035 24/14 Q1017 NOSIG,19,12,2022,9,0
OTHH,2022-12-19 10:00:00,51.6084,25.2746,-3.72,77.0,59.0,53.8,350.0,11.0,0.0,30.0,6.21,FEW,3500.0,HZ,77.0,OTHH 191000Z 35011KT 9999 FEW035 25/15 Q1016 NOSIG,19,12,2022,10,0
OTHH,2022-12-19 11:00:00,51.6084,25.2746,-3.72,75.2,55.4,50.17,10.0,9.0,0.0,30.0,6.21,FEW,3500.0,HZ,75.2,OTHH 191100Z 01009KT 9999 FEW035 24/13 Q1016 NOSIG,19,12,2022,11,0
OTHH,2022-12-19 12:00:00,51.6084,25.2746,-3.72,75.2,57.2,53.55,20.0,8.0,0.0,29.97,6.21,FEW,3500.0,HZ,75.2,OTHH 191200Z 02008KT 9999 FEW035 24/14 Q1015 NOSIG,19,12,2022,12,0
OTHH,2022-12-19 13:00:00,51.6084,25.2746,-3.72,75.2,59.0,57.12,360.0,9.0,0.0,30.0,6.21,FEW,3500.0,HZ,75.2,OTHH 191300Z 36009KT 9999 FEW035 24/15 Q1016 NOSIG,19,12,2022,13,0
OTHH,2022-12-19 14:00:00,51.6084,25.2746,-3.72,73.4,62.6,68.94,10.0,7.0,0.0,30.0,6.21,FEW,3500.0,HZ,73.4,OTHH 191400Z 01007KT 9999 FEW035 23/17 Q1016 NOSIG,19,12,2022,14,0
OTHH,2022-12-19 15:00:00,51.6084,25.2746,-3.72,71.6,60.8,68.75,330.0,12.0,0.0,30.03,6.21,FEW,3500.0,HZ,71.6,OTHH 191500Z 33012KT 9999 FEW035 22/16 Q1017 NOSIG,19,12,2022,15,0
OTHH,2022-12-19 16:00:00,51.6084,25.2746,-3.72,71.6,62.6,73.27,330.0,8.0,0.0,30.03,6.21,FEW,3500.0,HZ,71.6,OTHH 191600Z 33008KT 9999 FEW035 22/17 Q1017 NOSIG,19,12,2022,16,0
OTHH,2022-12-19 17:00:00,51.6084,25.2746,-3.72,69.8,62.6,77.9,320.0,9.0,0.0,30.03,6.21,FEW,3500.0,HZ,69.8,OTHH 191700Z 32009KT 9999 FEW035 21/17 Q1017 NOSIG,19,12,2022,17,0
OTHH,2022-12-19 18:00:00,51.6084,25.2746,-3.72,69.8,62.6,77.9,320.0,10.0,0.0,30.03,5.59,FEW,4000.0,HZ,69.8,OTHH 191800Z 32010KT 9000 FEW040 21/17 Q1017 NOSIG,19,12,2022,18,0
OTHH,2022-12-19 19:00:00,51.6084,25.2746,-3.72,69.8,62.6,77.9,320.0,9.0,0.0,30.03,5.59,FEW,4000.0,HZ,69.8,OTHH 191900Z 32009KT 9000 FEW040 21/17 Q1017 NOSIG,19,12,2022,19,0
OTHH,2022-12-19 20:00:00,51.6084,25.2746,-3.72,69.8,62.6,77.9,320.0,9.0,0.0,30.03,4.97,NSC,,HZ,69.8,OTHH 192000Z 32009KT 8000 NSC 21/17 Q1017 NOSIG,19,12,2022,20,0
OTHH,2022-12-19 21:00:00,51.6084,25.2746,-3.72,69.8,62.6,77.9,310.0,8.0,0.0,30.0,4.97,NSC,,HZ,69.8,OTHH 192100Z 31008KT 8000 NSC 21/17 Q1016 NOSIG,19,12,2022,21,0
OTHH,2022-12-19 22:00:00,51.6084,25.2746,-3.72,69.8,62.6,77.9,300.0,7.0,0.0,30.0,4.97,NSC,,HZ,69.8,OTHH 192200Z 30007KT 8000 NSC 21/17 Q1016 NOSIG,19,12,2022,22,0
OTHH,2022-12-19 23:00:00,51.6084,25.2746,-3.72,68.0,62.6,82.86,300.0,7.0,0.0,30.0,4.35,NSC,,HZ,68.0,OTHH 192300Z 30007KT 7000 NSC 20/17 Q1016 NOSIG,19,12,2022,23,0
OTHH,2022-12-20 00:00:00,51.6084,25.2746,-3.72,68.0,62.6,82.86,300.0,8.0,0.0,30.0,4.35,NSC,,HZ,68.0,OTHH 200000Z 30008KT 7000 NSC 20/17 Q1016 NOSIG,20,12,2022,0,0
OTHH,2022-12-20 01:00:00,51.6084,25.2746,-3.72,68.0,60.8,77.75,310.0,8.0,0.0,30.0,4.97,NSC,,HZ,68.0,OTHH 200100Z 31008KT 8000 NSC 20/16 Q1016 NOSIG,20,12,2022,1,0
OTHH,2022-12-20 09:00:00,51.6084,25.2746,-3.72,75.2,60.8,60.9,360.0,11.0,0.0,30.0,6.21,FEW,3500.0,HZ,75.2,OTHH 200900Z 36011KT 9999 FEW035 24/16 Q1016 NOSIG,20,12,2022,9,0
OTHH,2022-12-20 10:00:00,51.6084,25.2746,-3.72,75.2,60.8,60.9,360.0,10.0,0.0,29.97,6.21,FEW,3500.0,HZ,75.2,OTHH 201000Z 36010KT 9999 FEW035 24/16 Q1015 NOSIG,20,12,2022,10,0
OTHH,2022-12-20 11:00:00,51.6084,25.2746,-3.72,75.2,62.6,64.91,10.0,9.0,0.0,29.97,6.21,FEW,3500.0,HZ,75.2,OTHH 201100Z 01009KT 9999 FEW035 24/17 Q1015 NOSIG,20,12,2022,11,0
OTHH,2022-12-20 12:00:00,51.6084,25.2746,-3.72,75.2,64.4,69.14,20.0,9.0,0.0,29.94,6.21,FEW,3500.0,HZ,75.2,OTHH 201200Z 02009KT 9999 FEW035 24/18 Q1014 NOSIG,20,12,2022,12,0
OTHH,2022-12-20 13:00:00,51.6084,25.2746,-3.72,73.4,66.2,78.19,30.0,8.0,0.0,29.94,5.59,FEW,4000.0,HZ,73.4,OTHH 201300Z 03008KT 340V060 9000 FEW040 23/19 Q1014 NOSIG,20,12,2022,13,0
OTHH,2022-12-20 14:00:00,51.6084,25.2746,-3.72,73.4,66.2,78.19,10.0,7.0,0.0,29.94,5.59,FEW,4000.0,HZ,73.4,OTHH 201400Z 01007KT 9000 FEW040 23/19 Q1014 NOSIG,20,12,2022,14,0
OTHH,2022-12-21 04:00:00,51.6084,25.2746,-3.72,66.2,59.0,77.6,310.0,1.0,0.0,30.03,5.59,NSC,,HZ,66.2,OTHH 210400Z 31001KT 9000 NSC 19/15 Q1017 NOSIG,21,12,2022,4,0
OTHH,2022-12-21 08:00:00,51.6084,25.2746,-3.72,78.8,48.2,34.13,30.0,5.0,0.0,30.03,6.21,FEW,4000.0,HZ,78.8,OTHH 210800Z 03005KT 350V080 9999 FEW040 26/09 Q1017 NOSIG,21,12,2022,8,0
OTHH,2022-12-22 03:00:00,51.6084,25.2746,-3.72,73.4,53.6,49.9,60.0,6.0,0.0,29.97,6.21,FEW,4000.0,HZ,73.4,OTHH 220300Z 06006KT 9999 FEW040 23/12 Q1015 NOSIG,22,12,2022,3,0
OTHH,2022-12-22 04:00:00,51.6084,25.2746,-3.72,69.8,57.2,64.26,310.0,4.0,0.0,30.0,6.21,FEW,4000.0,HZ,69.8,OTHH 220400Z 31004KT 270V020 9999 FEW040 SCT100 21/14 Q1016 NOSIG,22,12,2022,4,0
OTHH,2022-12-22 05:00:00,51.6084,25.2746,-3.72,71.6,55.4,56.63,320.0,4.0,0.0,30.03,6.21,FEW,4000.0,HZ,71.6,OTHH 220500Z 32004KT 9999 FEW040 22/13 Q1017 NOSIG,22,12,2022,5,0
OTHH,2022-12-22 06:00:00,51.6084,25.2746,-3.72,73.4,55.4,53.29,300.0,7.0,0.0,30.03,6.21,FEW,4000.0,HZ,73.4,OTHH 220600Z 30007KT 270V340 9999 FEW040 23/13 Q1017 NOSIG,22,12,2022,6,0
OTHH,2022-12-22 07:00:00,51.6084,25.2746,-3.72,75.2,53.6,46.98,320.0,6.0,0.0,30.03,6.21,FEW,4000.0,HZ,75.2,OTHH 220700Z 32006KT 9999 FEW040 24/12 Q1017 NOSIG,22,12,2022,7,0
OTHH,2022-12-22 08:00:00,51.6084,25.2746,-3.72,77.0,53.6,44.25,330.0,7.0,0.0,30.0,6.21,FEW,4000.0,HZ,77.0,OTHH 220800Z 33007KT 9999 FEW040 25/12 Q1016 NOSIG,22,12,2022,8,0
OTHH,2022-12-22 09:00:00,51.6084,25.2746,-3.72,77.0,55.4,47.25,350.0,8.0,0.0,29.97,6.21,FEW,4000.0,HZ,77.0,OTHH 220900Z 35008KT 9999 FEW040 25/13 Q1015 NOSIG,22,12,2022,9,0
OTHH,2022-12-22 10:00:00,51.6084,25.2746,-3.72,77.0,55.4,47.25,360.0,9.0,0.0,29.94,6.21,FEW,3500.0,HZ,77.0,OTHH 221000Z 36009KT 9999 FEW035 25/13 Q1014 NOSIG,22,12,2022,10,0
OTHH,2022-12-22 11:00:00,51.6084,25.2746,-3.72,77.0,57.2,50.43,10.0,8.0,0.0,29.94,6.21,FEW,3500.0,HZ,77.0,OTHH 221100Z 01008KT 9999 FEW035 25/14 Q1014 NOSIG,22,12,2022,11,0
OTHH,2022-12-22 12:00:00,51.6084,25.2746,-3.72,77.0,57.2,50.43,20.0,8.0,0.0,29.94,6.21,FEW,3500.0,HZ,77.0,OTHH 221200Z 02008KT 9999 FEW035 25/14 Q1014 NOSIG,22,12,2022,12,0
OTHH,2022-12-22 13:00:00,51.6084,25.2746,-3.72,75.2,60.8,60.9,10.0,8.0,0.0,29.94,6.21,FEW,3500.0,HZ,75.2,OTHH 221300Z 01008KT 330V030 9999 FEW035 24/16 Q1014 NOSIG,22,12,2022,13,0
OTHH,2022-12-22 14:00:00,51.6084,25.2746,-3.72,75.2,60.8,60.9,20.0,7.0,0.0,29.94,6.21,FEW,3500.0,HZ,75.2,OTHH 221400Z 02007KT 9999 FEW035 24/16 Q1014 NOSIG,22,12,2022,14,0
OTHH,2022-12-22 15:00:00,51.6084,25.2746,-3.72,75.2,62.6,64.91,30.0,5.0,0.0,29.97,6.21,FEW,3500.0,HZ,75.2,OTHH 221500Z 03005KT 9999 FEW035 24/17 Q1015 NOSIG,22,12,2022,15,0
OTHH,2022-12-22 16:00:00,51.6084,25.2746,-3.72,75.2,62.6,64.91,70.0,7.0,0.0,29.97,6.21,FEW,3500.0,HZ,75.2,OTHH 221600Z 07007KT 9999 FEW035 24/17 Q1015 NOSIG,22,12,2022,16,0
OTHH,2022-12-22 17:00:00,51.6084,25.2746,-3.72,75.2,60.8,60.9,70.0,8.0,0.0,29.97,6.21,FEW,3500.0,HZ,75.2,OTHH 221700Z 07008KT 9999 FEW035 24/16 Q1015 NOSIG,22,12,2022,17,0
OTHH,2022-12-22 18:00:00,51.6084,25.2746,-3.72,73.4,60.8,64.69,70.0,6.0,0.0,29.97,6.21,FEW,3500.0,HZ,73.4,OTHH 221800Z 07006KT 9999 FEW035 23/16 Q1015 NOSIG,22,12,2022,18,0
OTHH,2022-12-22 19:00:00,51.6084,25.2746,-3.72,73.4,60.8,64.69,60.0,5.0,0.0,30.0,6.21,FEW,3500.0,HZ,73.4,OTHH 221900Z 06005KT 9999 FEW035 23/16 Q1016 NOSIG,22,12,2022,19,0
OTHH,2022-12-23 05:00:00,51.6084,25.2746,-3.72,73.4,60.8,64.69,140.0,8.0,0.0,30.0,6.21,FEW,3000.0,HZ,73.4,OTHH 230500Z 14008KT 9999 FEW030 BKN120 23/16 Q1016 NOSIG,23,12,2022,5,0
OTHH,2022-12-23 06:00:00,51.6084,25.2746,-3.72,75.2,60.8,60.9,160.0,11.0,0.0,30.0,6.21,FEW,3000.0,HZ,75.2,OTHH 230600Z 16011KT 9999 FEW030 24/16 Q1016 NOSIG,23,12,2022,6,0
OTHH,2022-12-23 07:00:00,51.6084,25.2746,-3.72,75.2,59.0,57.12,160.0,11.0,0.0,30.0,6.21,FEW,3000.0,HZ,75.2,OTHH 230700Z 16011KT 9999 FEW030 24/15 Q1016 NOSIG,23,12,2022,7,0
OTHH,2022-12-23 08:00:00,51.6084,25.2746,-3.72,75.2,60.8,60.9,160.0,11.0,0.0,29.97,6.21,FEW,3000.0,HZ,75.2,OTHH 230800Z 16011KT 9999 FEW030 24/16 Q1015 NOSIG,23,12,2022,8,0
OTHH,2022-12-26 02:00:00,51.6084,25.2746,-3.72,66.2,57.2,72.74,310.0,8.0,0.0,29.97,6.21,FEW,3000.0,-RA,66.2,OTHH 260200Z AUTO 31008KT 9999 -RA FEW030 SCT100 19/14 Q1015 NOSIG,26,12,2022,2,0
OTHH,2022-12-26 03:00:00,51.6084,25.2746,-3.72,66.2,57.2,72.74,320.0,9.0,0.0,30.0,6.21,FEW,4000.0,HZ,66.2,OTHH 260300Z 32009KT 9999 FEW040 BKN100 19/14 Q1016 RERA NOSIG,26,12,2022,3,0
OTHH,2022-12-26 04:00:00,51.6084,25.2746,-3.72,66.2,57.2,72.74,320.0,9.0,0.0,30.0,6.21,FEW,4000.0,HZ,66.2,OTHH 260400Z 32009KT 9999 FEW040 BKN090 19/14 Q1016 NOSIG,26,12,2022,4,0
OTHH,2022-12-26 05:00:00,51.6084,25.2746,-3.72,66.2,57.2,72.74,340.0,12.0,0.0,30.03,6.21,FEW,4000.0,HZ,66.2,OTHH 260500Z 34012KT 9999 FEW040 BKN090 19/14 Q1017 NOSIG,26,12,2022,5,0
OTHH,2022-12-26 06:00:00,51.6084,25.2746,-3.72,68.0,55.4,64.04,330.0,11.0,0.0,30.03,6.21,FEW,4000.0,HZ,68.0,OTHH 260600Z 33011KT 9999 FEW040 BKN090 20/13 Q1017 NOSIG,26,12,2022,6,0
OTHH,2022-12-26 07:00:00,51.6084,25.2746,-3.72,68.0,57.2,68.35,330.0,6.0,0.0,30.06,6.21,FEW,3500.0,HZ,68.0,OTHH 260700Z 33006KT 9999 FEW035 BKN090 20/14 Q1018 RERA NOSIG,26,12,2022,7,0
OTHH,2022-12-26 08:00:00,51.6084,25.2746,-3.72,68.0,55.4,64.04,280.0,5.0,0.0,30.06,6.21,FEW,3500.0,HZ,68.0,OTHH 260800Z 28005KT 250V320 9999 FEW035 BKN090 20/13 Q1018 NOSIG,26,12,2022,8,0
OTHH,2022-12-26 09:00:00,51.6084,25.2746,-3.72,68.0,55.4,64.04,340.0,4.0,0.0,30.03,6.21,FEW,3000.0,HZ,68.0,OTHH 260900Z 34004KT 9999 FEW030 FEW035TCU 20/13 Q1017 TEMPO TS,26,12,2022,9,0
OTHH,2022-12-26 10:00:00,51.6084,25.2746,-3.72,62.6,53.6,72.38,340.0,14.0,0.0,30.0,6.21,FEW,3000.0,HZ,62.6,OTHH 261000Z 34014KT 9999 FEW030 FEW035TCU 17/12 Q1016 TEMPO TS,26,12,2022,10,0
OTHH,2022-12-26 11:00:00,51.6084,25.2746,-3.72,60.8,57.2,87.92,320.0,6.0,0.0,30.03,1.55,SCT,3000.0,RA,60.8,OTHH 261100Z 32006KT 2500 RA SCT030 FEW035TCU 16/14 Q1017 TEMPO TS,26,12,2022,11,0
OTHH,2022-12-26 12:00:00,51.6084,25.2746,-3.72,60.8,57.2,87.92,330.0,3.0,0.0,30.03,6.21,FEW,3500.0,HZ,60.8,OTHH 261200Z 33003KT 230V020 9999 FEW035TCU BKN090 OVC100 16/14 Q1017 TEMPO TS,26,12,2022,12,0
OTHH,2022-12-26 13:00:00,51.6084,25.2746,-3.72,60.8,57.2,87.92,,2.0,0.0,30.03,4.97,FEW,4000.0,-RA,60.8,OTHH 261300Z VRB02KT 8000 -RA FEW040 BKN070 OVC090 16/14 Q1017 NOSIG,26,12,2022,13,0
OTHH,2022-12-26 14:00:00,51.6084,25.2746,-3.72,60.8,57.2,87.92,,1.0,0.0,30.06,4.35,FEW,4500.0,HZ,60.8,OTHH 261400Z VRB01KT 7000 FEW045 BKN070 OVC090 16/14 Q1018 NOSIG,26,12,2022,14,0
OTHH,2022-12-26 15:00:00,51.6084,25.2746,-3.72,60.8,57.2,87.92,,1.0,0.0,30.06,6.21,FEW,4500.0,HZ,60.8,OTHH 261500Z VRB01KT 9999 FEW045 BKN070 OVC090 16/14 Q1018 NOSIG,26,12,2022,15,0
OTHH,2022-12-26 17:00:00,51.6084,25.2746,-3.72,62.6,59.0,88.0,,2.0,0.0,30.09,6.21,FEW,4000.0,HZ,62.6,OTHH 261700Z VRB02KT 9999 FEW040 BKN100 17/15 Q1019 NOSIG,26,12,2022,17,0
OTHH,2022-12-26 20:00:00,51.6084,25.2746,-3.72,62.6,57.2,82.5,330.0,4.0,0.0,30.06,5.59,NSC,,HZ,62.6,OTHH 262000Z 33004KT 9000 NSC 17/14 Q1018 NOSIG,26,12,2022,20,0
OTHH,2022-12-26 21:00:00,51.6084,25.2746,-3.72,62.6,57.2,82.5,320.0,3.0,0.0,30.03,5.59,NSC,,HZ,62.6,OTHH 262100Z 32003KT 9000 NSC 17/14 Q1017 NOSIG,26,12,2022,21,0
OTHH,2022-12-26 22:00:00,51.6084,25.2746,-3.72,60.8,57.2,87.92,340.0,5.0,0.0,30.03,4.97,NSC,,HZ,60.8,OTHH 262200Z AUTO 34005KT 8000 NSC 16/14 Q1017 NOSIG,26,12,2022,22,0
OTHH,2022-12-26 23:00:00,51.6084,25.2746,-3.72,62.6,57.2,82.5,350.0,4.0,0.0,30.03,4.97,NSC,,HZ,62.6,OTHH 262300Z AUTO 35004KT 8000 NSC 17/14 Q1017 NOSIG,26,12,2022,23,0
OTHH,2022-12-27 00:00:00,51.6084,25.2746,-3.72,64.4,57.2,77.45,10.0,4.0,0.0,30.0,5.59,NSC,,HZ,64.4,OTHH 270000Z 01004KT 350V050 9000 NSC 18/14 Q1016 NOSIG,27,12,2022,0,0
OTHH,2022-12-27 01:00:00,51.6084,25.2746,-3.72,60.8,57.2,87.92,,2.0,0.0,30.0,4.97,NSC,,HZ,60.8,OTHH 270100Z VRB02KT 8000 NSC 16/14 Q1016 NOSIG,27,12,2022,1,0
OTHH,2022-12-27 02:00:00,51.6084,25.2746,-3.72,60.8,57.2,87.92,330.0,4.0,0.0,30.03,4.35,NSC,,HZ,60.8,OTHH 270200Z 33004KT 7000 NSC 16/14 Q1017 NOSIG,27,12,2022,2,0
OTHH,2022-12-27 03:00:00,51.6084,25.2746,-3.72,60.8,57.2,87.92,330.0,3.0,0.0,30.03,4.35,NSC,,HZ,60.8,OTHH 270300Z 33003KT 7000 NSC 16/14 Q1017 NOSIG,27,12,2022,3,0
OTHH,2022-12-27 04:00:00,51.6084,25.2746,-3.72,60.8,57.2,87.92,350.0,3.0,0.0,30.03,3.73,NSC,,HZ,60.8,OTHH 270400Z 35003KT 6000 NSC 16/14 Q1017 NOSIG,27,12,2022,4,0
OTHH,2022-12-27 05:00:00,51.6084,25.2746,-3.72,62.6,59.0,88.0,330.0,5.0,0.0,30.06,3.73,FEW,2000.0,HZ,62.6,OTHH 270500Z 33005KT 6000 FEW020 17/15 Q1018 NOSIG,27,12,2022,5,0
OTHH,2022-12-27 06:00:00,51.6084,25.2746,-3.72,66.2,59.0,77.6,310.0,5.0,0.0,30.09,3.73,FEW,3500.0,HZ,66.2,OTHH 270600Z 31005KT 280V340 6000 FEW035 19/15 Q1019 NOSIG,27,12,2022,6,0
OTHH,2022-12-27 07:00:00,51.6084,25.2746,-3.72,68.0,59.0,72.92,300.0,5.0,0.0,30.06,3.11,NSC,,HZ,68.0,OTHH 270700Z 30005KT 5000 HZ NSC 20/15 Q1018 NOSIG,27,12,2022,7,0
OTHH,2022-12-27 08:00:00,51.6084,25.2746,-3.72,68.0,60.8,77.75,330.0,6.0,0.0,30.03,3.11,NSC,,HZ,68.0,OTHH 270800Z 33006KT 5000 HZ NSC 20/16 Q1017 NOSIG,27,12,2022,8,0
OTHH,2022-12-27 09:00:00,51.6084,25.2746,-3.72,71.6,60.8,68.75,360.0,6.0,0.0,30.0,3.73,FEW,2500.0,HZ,71.6,OTHH 270900Z 36006KT 6000 FEW025 SCT035 22/16 Q1016 NOSIG,27,12,2022,9,0
OTHH,2022-12-27 10:00:00,51.6084,25.2746,-3.72,71.6,60.8,68.75,360.0,8.0,0.0,29.97,3.11,FEW,2500.0,HZ,71.6,OTHH 271000Z 36008KT 5000 HZ FEW025 22/16 Q1015 NOSIG,27,12,2022,10,0
OTHH,2022-12-27 11:00:00,51.6084,25.2746,-3.72,71.6,62.6,73.27,20.0,7.0,0.0,29.97,3.73,FEW,2000.0,HZ,71.6,OTHH 271100Z 02007KT 6000 FEW020 SCT035 22/17 Q1015 NOSIG,27,12,2022,11,0
OTHH,2022-12-27 12:00:00,51.6084,25.2746,-3.72,71.6,60.8,68.75,70.0,5.0,0.0,29.97,3.73,FEW,3500.0,HZ,71.6,OTHH 271200Z 07005KT 030V100 6000 FEW035 22/16 Q1015 NOSIG,27,12,2022,12,0
OTHH,2022-12-27 13:00:00,51.6084,25.2746,-3.72,71.6,60.8,68.75,100.0,4.0,0.0,29.97,5.59,FEW,2500.0,HZ,71.6,OTHH 271300Z 10004KT 070V130 9000 FEW025 22/16 Q1015 NOSIG,27,12,2022,13,0
OTHH,2022-12-27 14:00:00,51.6084,25.2746,-3.72,69.8,62.6,77.9,100.0,4.0,0.0,30.0,5.59,FEW,2500.0,HZ,69.8,OTHH 271400Z 10004KT 9000 FEW025 21/17 Q1016 NOSIG,27,12,2022,14,0
OTHH,2022-12-27 19:00:00,51.6084,25.2746,-3.72,66.2,62.6,88.18,260.0,2.0,0.0,30.03,6.21,FEW,3000.0,HZ,66.2,OTHH 271900Z 26002KT 9999 FEW030 19/17 Q1017 NOSIG,27,12,2022,19,0
OTHH,2022-12-27 20:00:00,51.6084,25.2746,-3.72,66.2,62.6,88.18,220.0,3.0,0.0,30.03,4.97,NSC,,HZ,66.2,OTHH 272000Z 22003KT 8000 NSC 19/17 Q1017 NOSIG,27,12,2022,20,0
OTHH,2022-12-27 21:00:00,51.6084,25.2746,-3.72,66.2,62.6,88.18,180.0,4.0,0.0,30.0,4.97,NSC,,HZ,66.2,OTHH 272100Z 18004KT 150V220 8000 NSC 19/17 Q1016 NOSIG,27,12,2022,21,0
OTHH,2022-12-27 22:00:00,51.6084,25.2746,-3.72,66.2,62.6,88.18,210.0,4.0,0.0,30.03,4.35,FEW,3000.0,HZ,66.2,OTHH 272200Z 21004KT 7000 FEW030 SCT090 19/17 Q1017 NOSIG,27,12,2022,22,0
OTHH,2022-12-27 23:00:00,51.6084,25.2746,-3.72,62.6,59.0,88.0,290.0,14.0,0.0,30.06,3.73,FEW,1500.0,-RA,62.6,OTHH 272300Z 29014KT 6000 -RA FEW015 SCT020 OVC090 17/15 Q1018 NOSIG,27,12,2022,23,0
OTHH,2022-12-28 07:00:00,51.6084,25.2746,-3.72,62.6,50.0,63.38,300.0,13.0,0.0,30.18,6.21,FEW,2000.0,HZ,62.6,OTHH 280700Z 30013KT 9999 FEW020 17/10 Q1022 NOSIG,28,12,2022,7,0
OTHH,2022-12-28 08:00:00,51.6084,25.2746,-3.72,64.4,50.0,59.5,310.0,13.0,0.0,30.18,6.21,FEW,2000.0,HZ,64.4,OTHH 280800Z 31013KT 280V340 9999 FEW020 18/10 Q1022 NOSIG,28,12,2022,8,0
OTHH,2022-12-28 09:00:00,51.6084,25.2746,-3.72,66.2,50.0,55.88,310.0,12.0,0.0,30.15,6.21,FEW,3500.0,HZ,66.2,OTHH 280900Z 31012KT 9999 FEW035 19/10 Q1021 NOSIG,28,12,2022,9,0
OTHH,2022-12-28 11:00:00,51.6084,25.2746,-3.72,66.2,51.8,59.74,310.0,14.0,0.0,30.12,6.21,FEW,3500.0,HZ,66.2,OTHH 281100Z 31014KT 9999 FEW035 19/11 Q1020 NOSIG,28,12,2022,11,0
OTHH,2022-12-28 12:00:00,51.6084,25.2746,-3.72,66.2,53.6,63.82,320.0,13.0,0.0,30.12,4.97,SCT,3500.0,HZ,66.2,OTHH 281200Z 32013KT 8000 SCT035 19/12 Q1020 NOSIG,28,12,2022,12,0
OTHH,2022-12-28 13:00:00,51.6084,25.2746,-3.72,68.0,55.4,64.04,320.0,14.0,0.0,30.12,5.59,SCT,3500.0,HZ,68.0,OTHH 281300Z 32014KT 290V350 9000 SCT035 20/13 Q1020 NOSIG,28,12,2022,13,0
OTHH,2022-12-28 14:00:00,51.6084,25.2746,-3.72,66.2,57.2,72.74,320.0,14.0,0.0,30.15,6.21,SCT,3000.0,HZ,66.2,OTHH 281400Z 32014KT 9999 SCT030 19/14 Q1021 NOSIG,28,12,2022,14,0
OTHH,2022-12-28 15:00:00,51.6084,25.2746,-3.72,66.2,57.2,72.74,320.0,12.0,0.0,30.18,6.21,FEW,4000.0,HZ,66.2,OTHH 281500Z 32012KT 9999 FEW040 19/14 Q1022 NOSIG,28,12,2022,15,0
OTHH,2022-12-28 16:00:00,51.6084,25.2746,-3.72,66.2,53.6,63.82,320.0,12.0,0.0,30.18,6.21,FEW,4000.0,HZ,66.2,OTHH 281600Z 32012KT 9999 FEW040 19/12 Q1022 NOSIG,28,12,2022,16,0
OTHH,2022-12-28 19:00:00,51.6084,25.2746,-3.72,64.4,51.8,63.6,320.0,11.0,0.0,30.21,6.21,FEW,4000.0,HZ,64.4,OTHH 281900Z 32011KT 9999 FEW040 18/11 Q1023 NOSIG,28,12,2022,19,0
OTHH,2022-12-28 23:00:00,51.6084,25.2746,-3.72,60.8,53.6,77.14,300.0,9.0,0.0,30.21,5.59,NSC,,HZ,60.8,OTHH 282300Z 30009KT 9000 NSC 16/12 Q1023 NOSIG,28,12,2022,23,0
OTHH,2022-12-29 02:00:00,51.6084,25.2746,-3.72,60.8,53.6,77.14,300.0,11.0,0.0,30.21,5.59,NSC,,HZ,60.8,OTHH 290200Z 30011KT 270V330 9000 NSC 16/12 Q1023 NOSIG,29,12,2022,2,0
OTHH,2022-12-29 03:00:00,51.6084,25.2746,-3.72,60.8,53.6,77.14,300.0,11.0,0.0,30.24,4.35,NSC,,HZ,60.8,OTHH 290300Z 30011KT 7000 NSC 16/12 Q1024 NOSIG,29,12,2022,3,0
OTHH,2022-12-29 04:00:00,51.6084,25.2746,-3.72,60.8,53.6,77.14,300.0,10.0,0.0,30.27,3.73,NSC,,HZ,60.8,OTHH 290400Z 30010KT 6000 NSC 16/12 Q1025 NOSIG,29,12,2022,4,0
OTHH,2022-12-29 05:00:00,51.6084,25.2746,-3.72,62.6,53.6,72.38,300.0,10.0,0.0,30.3,4.35,NSC,,HZ,62.6,OTHH 290500Z 30010KT 7000 NSC 17/12 Q1026 NOSIG,29,12,2022,5,0
OTHH,2022-12-29 06:00:00,51.6084,25.2746,-3.72,64.4,55.4,72.56,310.0,13.0,0.0,30.3,4.35,NSC,,HZ,64.4,OTHH 290600Z 31013KT 7000 NSC 18/13 Q1026 NOSIG,29,12,2022,6,0
OTHH,2022-12-29 07:00:00,51.6084,25.2746,-3.72,66.2,55.4,68.15,310.0,13.0,0.0,30.3,4.35,NSC,,HZ,66.2,OTHH 290700Z 31013KT 7000 NSC 19/13 Q1026 NOSIG,29,12,2022,7,0
OTHH,2022-12-29 08:00:00,51.6084,25.2746,-3.72,68.0,55.4,64.04,320.0,13.0,0.0,30.27,5.59,NSC,,HZ,68.0,OTHH 290800Z 32013KT 9000 NSC 20/13 Q1025 NOSIG,29,12,2022,8,0
OTHH,2022-12-29 09:00:00,51.6084,25.2746,-3.72,69.8,53.6,56.38,340.0,16.0,0.0,30.24,6.21,FEW,3500.0,HZ,69.8,OTHH 290900Z 34016KT 9999 FEW035 21/12 Q1024 NOSIG,29,12,2022,9,0
OTHH,2022-12-29 10:00:00,51.6084,25.2746,-3.72,71.6,51.8,49.64,340.0,15.0,0.0,30.24,6.21,FEW,3500.0,HZ,71.6,OTHH 291000Z 34015KT 9999 FEW035 22/11 Q1024 NOSIG,29,12,2022,10,0
OTHH,2022-12-29 11:00:00,51.6084,25.2746,-3.72,71.6,51.8,49.64,350.0,16.0,0.0,30.21,6.21,FEW,3500.0,HZ,71.6,OTHH 291100Z 35016KT 9999 FEW035 22/11 Q1023 NOSIG,29,12,2022,11,0
OTHH,2022-12-29 12:00:00,51.6084,25.2746,-3.72,71.6,50.0,46.43,350.0,16.0,0.0,30.21,6.21,FEW,3500.0,HZ,71.6,OTHH 291200Z 35016KT 9999 FEW035 22/10 Q1023 NOSIG,29,12,2022,12,0
OTHH,2022-12-29 14:00:00,51.6084,25.2746,-3.72,68.0,50.0,52.51,360.0,16.0,0.0,30.24,6.21,FEW,4000.0,HZ,68.0,OTHH 291400Z 36016KT 9999 FEW040 20/10 Q1024 NOSIG,29,12,2022,14,0
OTHH,2022-12-30 04:00:00,51.6084,25.2746,-3.72,62.6,51.8,67.75,290.0,7.0,0.0,30.33,4.97,NSC,,HZ,62.6,OTHH 300400Z 29007KT 8000 NSC 17/11 Q1027 NOSIG,30,12,2022,4,0
OTHH,2022-12-30 05:00:00,51.6084,25.2746,-3.72,62.6,53.6,72.38,290.0,7.0,0.0,30.33,3.73,NSC,,HZ,62.6,OTHH 300500Z 29007KT 6000 NSC 17/12 Q1027 TEMPO 5000,30,12,2022,5,0
OTHH,2022-12-30 06:00:00,51.6084,25.2746,-3.72,64.4,55.4,72.56,290.0,9.0,0.0,30.36,4.35,NSC,,HZ,64.4,OTHH 300600Z 29009KT 7000 NSC 18/13 Q1028 NOSIG,30,12,2022,6,0
OTHH,2022-12-30 07:00:00,51.6084,25.2746,-3.72,66.2,53.6,63.82,300.0,10.0,0.0,30.33,4.97,NSC,,HZ,66.2,OTHH 300700Z 30010KT 8000 NSC 19/12 Q1027 NOSIG,30,12,2022,7,0
OTHH,2022-12-30 08:00:00,51.6084,25.2746,-3.72,66.2,53.6,63.82,310.0,7.0,0.0,30.3,4.97,NSC,,HZ,66.2,OTHH 300800Z 31007KT 270V330 8000 NSC 19/12 Q1026 NOSIG,30,12,2022,8,0
OTHH,2022-12-30 09:00:00,51.6084,25.2746,-3.72,68.0,53.6,59.97,300.0,8.0,0.0,30.3,4.97,NSC,,HZ,68.0,OTHH 300900Z 30008KT 8000 NSC 20/12 Q1026 NOSIG,30,12,2022,9,0
OTHH,2022-12-31 03:00:00,51.6084,25.2746,-3.72,62.6,53.6,72.38,330.0,9.0,0.0,30.27,5.59,NSC,,HZ,62.6,OTHH 310300Z 33009KT 9000 NSC 17/12 Q1025 NOSIG,31,12,2022,3,0
OTHH,2022-12-31 04:00:00,51.6084,25.2746,-3.72,62.6,53.6,72.38,330.0,8.0,0.0,30.3,4.97,NSC,,HZ,62.6,OTHH 310400Z 33008KT 8000 NSC 17/12 Q1026 NOSIG,31,12,2022,4,0
OTHH,2022-12-31 05:00:00,51.6084,25.2746,-3.72,64.4,53.6,67.95,320.0,9.0,0.0,30.33,4.97,NSC,,HZ,64.4,OTHH 310500Z 32009KT 8000 NSC 18/12 Q1027 NOSIG,31,12,2022,5,0
OTHH,2022-12-31 06:00:00,51.6084,25.2746,-3.72,64.4,55.4,72.56,320.0,11.0,0.0,30.33,4.97,NSC,,HZ,64.4,OTHH 310600Z 32011KT 8000 NSC 18/13 Q1027 NOSIG,31,12,2022,6,0
OTHH,2022-12-31 07:00:00,51.6084,25.2746,-3.72,66.2,55.4,68.15,330.0,9.0,0.0,30.3,4.97,NSC,,HZ,66.2,OTHH 310700Z 33009KT 8000 NSC 19/13 Q1026 NOSIG,31,12,2022,7,0
OTHH,2023-01-02 03:00:00,51.6084,25.2746,-3.72,62.6,57.2,82.5,330.0,10.0,0.0,30.21,4.97,NSC,,HZ,62.6,OTHH 020300Z 33010KT 8000 NSC 17/14 Q1023 NOSIG,2,1,2023,3,0
OTHH,2023-01-02 04:00:00,51.6084,25.2746,-3.72,62.6,57.2,82.5,320.0,12.0,0.0,30.24,3.11,NSC,,HZ,62.6,OTHH 020400Z 32012KT 5000 HZ NSC 17/14 Q1024 NOSIG,2,1,2023,4,0
OTHH,2023-01-02 05:00:00,51.6084,25.2746,-3.72,64.4,57.2,77.45,320.0,11.0,0.0,30.27,3.11,NSC,,HZ,64.4,OTHH 020500Z 32011KT 5000 HZ NSC 18/14 Q1025 NOSIG,2,1,2023,5,0
OTHH,2023-01-02 06:00:00,51.6084,25.2746,-3.72,66.2,57.2,72.74,320.0,11.0,0.0,30.3,3.11,NSC,,HZ,66.2,OTHH 020600Z 32011KT 5000 HZ NSC 19/14 Q1026 NOSIG,2,1,2023,6,0
OTHH,2023-01-02 07:00:00,51.6084,25.2746,-3.72,68.0,57.2,68.35,320.0,11.0,0.0,30.3,3.11,NSC,,HZ,68.0,OTHH 020700Z 32011KT 5000 HZ NSC 20/14 Q1026 NOSIG,2,1,2023,7,0
OTHH,2023-01-02 08:00:00,51.6084,25.2746,-3.72,68.0,59.0,72.92,320.0,14.0,0.0,30.27,3.73,NSC,,HZ,68.0,OTHH 020800Z 32014KT 6000 NSC 20/15 Q1025 NOSIG,2,1,2023,8,0
OTHH,2023-01-02 09:00:00,51.6084,25.2746,-3.72,69.8,59.0,68.55,330.0,15.0,0.0,30.24,3.73,NSC,,HZ,69.8,OTHH 020900Z 33015KT 6000 NSC 21/15 Q1024 NOSIG,2,1,2023,9,0
OTHH,2023-01-02 10:00:00,51.6084,25.2746,-3.72,69.8,57.2,64.26,340.0,20.0,0.0,30.21,3.73,NSC,,HZ,69.8,OTHH 021000Z 34020KT 6000 NSC 21/14 Q1023 NOSIG,2,1,2023,10,0
OTHH,2023-01-02 11:00:00,51.6084,25.2746,-3.72,68.0,55.4,64.04,350.0,20.0,0.0,30.21,4.97,NSC,,HZ,68.0,OTHH 021100Z 35020KT 8000 NSC 20/13 Q1023 NOSIG,2,1,2023,11,0
OTHH,2023-01-02 12:00:00,51.6084,25.2746,-3.72,68.0,57.2,68.35,350.0,18.0,0.0,30.21,5.59,NSC,,HZ,68.0,OTHH 021200Z 35018KT 9000 NSC 20/14 Q1023 NOSIG,2,1,2023,12,0
OTHH,2023-01-02 13:00:00,51.6084,25.2746,-3.72,68.0,59.0,72.92,350.0,16.0,0.0,30.21,3.11,NSC,,HZ,68.0,OTHH 021300Z 35016KT 5000 HZ NSC 20/15 Q1023 NOSIG,2,1,2023,13,0
OTHH,2023-01-02 16:00:00,51.6084,25.2746,-3.72,66.2,55.4,68.15,350.0,16.0,0.0,30.3,6.21,FEW,1500.0,HZ,66.2,OTHH 021600Z 35016KT 9999 FEW015 19/13 Q1026 NOSIG,2,1,2023,16,0
OTHH,2023-01-02 21:00:00,51.6084,25.2746,-3.72,64.4,59.0,82.62,310.0,8.0,0.0,30.27,3.73,NSC,,HZ,64.4,OTHH 022100Z 31008KT 280V340 6000 NSC 18/15 Q1025 TEMPO 5000 HZ,2,1,2023,21,0
OTHH,2023-01-02 23:00:00,51.6084,25.2746,-3.72,62.6,60.8,93.83,320.0,10.0,0.0,30.27,2.36,FEW,3000.0,-RA HZ,62.6,OTHH 022300Z 32010KT 3800 -RA HZ FEW030 OVC090 17/16 Q1025 TEMPO 3000,2,1,2023,23,0
OTHH,2023-01-03 00:00:00,51.6084,25.2746,-3.72,62.6,59.0,88.0,340.0,12.0,0.0,30.24,1.99,FEW,3000.0,-RA HZ,62.6,OTHH 030000Z 34012KT 3200 1300 -RA HZ FEW030 OVC080 17/15 Q1024 TEMPO 3000,3,1,2023,0,0
OTHH,2023-01-03 01:00:00,51.6084,25.2746,-3.72,62.6,59.0,88.0,320.0,10.0,0.0,30.27,2.17,FEW,600.0,-RA BR,62.6,OTHH 030100Z 32010KT 3500 1300 -RA BR FEW006 SCT035 OVC090 17/15 Q1025 TEMPO 3000,3,1,2023,1,0
OTHH,2023-01-03 02:00:00,51.6084,25.2746,-3.72,60.8,59.0,93.79,330.0,10.0,0.0,30.27,1.99,SCT,600.0,-RA BR,60.8,OTHH 030200Z 33010KT 3200 -RA BR SCT006 SCT035 OVC090 16/15 Q1025 TEMPO 3000,3,1,2023,2,0
OTHH,2023-01-03 03:00:00,51.6084,25.2746,-3.72,60.8,59.0,93.79,350.0,7.0,0.0,30.27,1.86,SCT,500.0,-RA BR,60.8,OTHH 030300Z 35007KT 3000 -RA BR SCT005 SCT035 OVC090 16/15 Q1025 NOSIG,3,1,2023,3,0
OTHH,2023-01-03 04:00:00,51.6084,25.2746,-3.72,60.8,59.0,93.79,350.0,11.0,0.0,30.27,1.43,SCT,600.0,-RA BR,60.8,OTHH 030400Z 35011KT 2300 -RA BR SCT006 OVC090 16/15 Q1025 NOSIG,3,1,2023,4,0
OTHH,2023-01-03 05:00:00,51.6084,25.2746,-3.72,60.8,59.0,93.79,330.0,6.0,0.0,30.3,1.55,FEW,3500.0,BR,60.8,OTHH 030500Z 33006KT 2500 BR FEW035 SCT050 BKN100 16/15 Q1026 BECMG 3000,3,1,2023,5,0
OTHH,2023-01-03 06:00:00,51.6084,25.2746,-3.72,64.4,59.0,82.62,320.0,5.0,0.0,30.33,2.17,FEW,3500.0,BR,64.4,OTHH 030600Z 32005KT 290V350 3500 BR FEW035 BKN050 18/15 Q1027 BECMG 4500,3,1,2023,6,0
OTHH,2023-01-03 07:00:00,51.6084,25.2746,-3.72,64.4,59.0,82.62,310.0,5.0,0.0,30.33,2.49,FEW,3500.0,-RA BR,64.4,OTHH 030700Z 31005KT 280V340 4000 -RA BR FEW035 BKN050 18/15 Q1027 NOSIG,3,1,2023,7,0
OTHH,2023-01-03 08:00:00,51.6084,25.2746,-3.72,64.4,59.0,82.62,300.0,9.0,0.0,30.33,2.17,FEW,3500.0,-RA BR,64.4,OTHH 030800Z 30009KT 3500 -RA BR FEW035 BKN050 18/15 Q1027 NOSIG,3,1,2023,8,0
OTHH,2023-01-03 09:00:00,51.6084,25.2746,-3.72,64.4,59.0,82.62,310.0,8.0,0.0,30.3,1.55,BKN,4000.0,-RA BR,64.4,OTHH 030900Z 31008KT 2500 -RA BR BKN040 OVC090 18/15 Q1026 TEMPO 2000,3,1,2023,9,0
OTHH,2023-01-03 10:00:00,51.6084,25.2746,-3.72,62.6,59.0,88.0,310.0,9.0,0.0,30.27,1.55,SCT,4000.0,-RA BR,62.6,OTHH 031000Z 31009KT 2500 -RA BR SCT040 OVC090 17/15 Q1025 TEMPO 2000,3,1,2023,10,0
OTHH,2023-01-03 11:00:00,51.6084,25.2746,-3.72,62.6,59.0,88.0,300.0,9.0,0.0,30.27,1.55,SCT,4000.0,-RA BR,62.6,OTHH 031100Z 30009KT 2500 -RA BR SCT040 OVC090 17/15 Q1025 TEMPO 2000,3,1,2023,11,0
OTHH,2023-01-03 12:00:00,51.6084,25.2746,-3.72,64.4,59.0,82.62,320.0,9.0,0.0,30.24,1.55,SCT,3500.0,-RA BR,64.4,OTHH 031200Z 32009KT 2500 -RA BR SCT035 OVC090 18/15 Q1024 TEMPO 2000,3,1,2023,12,0
OTHH,2023-01-03 13:00:00,51.6084,25.2746,-3.72,64.4,59.0,82.62,330.0,8.0,0.0,30.24,1.86,FEW,4000.0,BR,64.4,OTHH 031300Z 33008KT 3000 BR FEW040 BKN090 18/15 Q1024 RERA TEMPO 4000,3,1,2023,13,0
OTHH,2023-01-03 14:00:00,51.6084,25.2746,-3.72,64.4,59.0,82.62,320.0,4.0,0.0,30.24,1.86,NSC,,BR,64.4,OTHH 031400Z 32004KT 3000 BR NSC 18/15 Q1024 BECMG 4000,3,1,2023,14,0
OTHH,2023-01-03 15:00:00,51.6084,25.2746,-3.72,64.4,59.0,82.62,330.0,7.0,0.0,30.24,2.49,NSC,,BR,64.4,OTHH 031500Z 33007KT 4000 BR NSC 18/15 Q1024 NOSIG,3,1,2023,15,0
OTHH,2023-01-03 16:00:00,51.6084,25.2746,-3.72,64.4,59.0,82.62,310.0,6.0,0.0,30.24,2.49,NSC,,BR,64.4,OTHH 031600Z 31006KT 4000 BR NSC 18/15 Q1024 NOSIG,3,1,2023,16,0
OTHH,2023-01-03 17:00:00,51.6084,25.2746,-3.72,64.4,59.0,82.62,320.0,7.0,0.0,30.24,2.49,NSC,,BR,64.4,OTHH 031700Z 32007KT 4000 BR NSC 18/15 Q1024 NOSIG,3,1,2023,17,0
OTHH,2023-01-03 18:00:00,51.6084,25.2746,-3.72,64.4,59.0,82.62,320.0,7.0,0.0,30.24,2.49,FEW,4000.0,BR,64.4,OTHH 031800Z 32007KT 4000 BR FEW040 BKN090 18/15 Q1024 NOSIG,3,1,2023,18,0
OTHH,2023-01-03 19:00:00,51.6084,25.2746,-3.72,62.6,59.0,88.0,300.0,5.0,0.0,30.24,2.49,FEW,4000.0,BR,62.6,OTHH 031900Z 30005KT 4000 BR FEW040 BKN090 17/15 Q1024 NOSIG,3,1,2023,19,0
OTHH,2023-01-03 20:00:00,51.6084,25.2746,-3.72,62.6,59.0,88.0,300.0,3.0,0.0,30.24,2.86,FEW,4000.0,HZ,62.6,OTHH 032000Z 30003KT 4600 HZ FEW040 17/15 Q1024 TEMPO 2500,3,1,2023,20,0
OTHH,2023-01-03 21:00:00,51.6084,25.2746,-3.72,62.6,59.0,88.0,330.0,8.0,0.0,30.21,3.11,NSC,,HZ,62.6,OTHH 032100Z 33008KT 5000 HZ NSC 17/15 Q1023 NOSIG,3,1,2023,21,0
OTHH,2023-01-03 22:00:00,51.6084,25.2746,-3.72,64.4,59.0,82.62,310.0,8.0,0.0,30.21,3.73,NSC,,HZ,64.4,OTHH 032200Z 31008KT 6000 NSC 18/15 Q1023 NOSIG,3,1,2023,22,0
OTHH,2023-01-03 23:00:00,51.6084,25.2746,-3.72,62.6,59.0,88.0,340.0,6.0,0.0,30.18,3.73,NSC,,HZ,62.6,OTHH 032300Z 34006KT 6000 NSC 17/15 Q1022 NOSIG,3,1,2023,23,0
OTHH,2023-01-04 00:00:00,51.6084,25.2746,-3.72,64.4,59.0,82.62,360.0,7.0,0.0,30.15,3.11,FEW,3000.0,-RA HZ,64.4,OTHH 040000Z 36007KT 5000 -RA HZ FEW030 BKN100 18/15 Q1021 NOSIG,4,1,2023,0,0
OTHH,2023-01-04 01:00:00,51.6084,25.2746,-3.72,64.4,60.8,88.09,340.0,6.0,0.0,30.15,2.8,NSC,,HZ,64.4,OTHH 040100Z 34006KT 4500 HZ NSC 18/16 Q1021 TEMPO -RA,4,1,2023,1,0
OTHH,2023-01-04 02:00:00,51.6084,25.2746,-3.72,64.4,60.8,88.09,330.0,6.0,0.0,30.15,3.11,NSC,,HZ,64.4,OTHH 040200Z 33006KT 5000 HZ NSC 18/16 Q1021 TEMPO -RA,4,1,2023,2,0
OTHH,2023-01-04 03:00:00,51.6084,25.2746,-3.72,64.4,59.0,82.62,310.0,4.0,0.0,30.15,3.11,NSC,,HZ,64.4,OTHH 040300Z 31004KT 5000 HZ NSC 18/15 Q1021 NOSIG,4,1,2023,3,0
OTHH,2023-01-04 04:00:00,51.6084,25.2746,-3.72,64.4,60.8,88.09,320.0,2.0,0.0,30.18,2.17,NSC,,BR,64.4,OTHH 040400Z 32002KT 3500 BR NSC 18/16 Q1022 TEMPO 3000,4,1,2023,4,0
OTHH,2023-01-04 05:00:00,51.6084,25.2746,-3.72,66.2,62.6,88.18,320.0,4.0,0.0,30.21,2.17,NSC,,BR,66.2,OTHH 040500Z 32004KT 3500 BR NSC 19/17 Q1023 TEMPO 3000,4,1,2023,5,0
OTHH,2023-01-04 06:00:00,51.6084,25.2746,-3.72,66.2,62.6,88.18,340.0,5.0,0.0,30.21,2.49,FEW,3000.0,BR,66.2,OTHH 040600Z 34005KT 4000 BR FEW030 19/17 Q1023 NOSIG,4,1,2023,6,0
OTHH,2023-01-04 07:00:00,51.6084,25.2746,-3.72,69.8,62.6,77.9,320.0,6.0,0.0,30.21,3.73,NSC,,HZ,69.8,OTHH 040700Z 32006KT 6000 NSC 21/17 Q1023 NOSIG,4,1,2023,7,0
OTHH,2023-01-04 08:00:00,51.6084,25.2746,-3.72,69.8,62.6,77.9,360.0,7.0,0.0,30.18,4.35,NSC,,HZ,69.8,OTHH 040800Z 36007KT 7000 NSC 21/17 Q1022 NOSIG,4,1,2023,8,0
OTHH,2023-01-04 09:00:00,51.6084,25.2746,-3.72,68.0,64.4,88.26,350.0,12.0,0.0,30.15,6.21,FEW,3000.0,HZ,68.0,OTHH 040900Z 35012KT 9999 FEW030 20/18 Q1021 NOSIG,4,1,2023,9,0
OTHH,2023-01-04 10:00:00,51.6084,25.2746,-3.72,68.0,60.8,77.75,20.0,7.0,0.0,30.12,6.21,FEW,3000.0,HZ,68.0,OTHH 041000Z 02007KT 9999 FEW030 20/16 Q1020 NOSIG,4,1,2023,10,0
OTHH,2023-01-04 11:00:00,51.6084,25.2746,-3.72,69.8,62.6,77.9,70.0,10.0,0.0,30.06,6.21,FEW,3000.0,-RA,69.8,OTHH 041100Z 07010KT 9999 -RA FEW030 21/17 Q1018 NOSIG,4,1,2023,11,0
OTHH,2023-01-04 12:00:00,51.6084,25.2746,-3.72,69.8,60.8,73.09,60.0,10.0,0.0,30.06,6.21,SCT,2700.0,HZ,69.8,OTHH 041200Z 06010KT 9999 SCT027 21/16 Q1018 NOSIG,4,1,2023,12,0
OTHH,2023-01-04 13:00:00,51.6084,25.2746,-3.72,71.6,64.4,78.04,70.0,9.0,0.0,30.06,6.21,SCT,3000.0,HZ,71.6,OTHH 041300Z 07009KT 9999 SCT030 22/18 Q1018 NOSIG,4,1,2023,13,0
OTHH,2023-01-04 14:00:00,51.6084,25.2746,-3.72,69.8,64.4,82.98,80.0,9.0,0.0,30.06,6.21,FEW,3000.0,HZ,69.8,OTHH 041400Z 08009KT 9999 FEW030 21/18 Q1018 NOSIG,4,1,2023,14,0
OTHH,2023-01-05 00:00:00,51.6084,25.2746,-3.72,69.8,64.4,82.98,100.0,6.0,0.0,30.03,6.21,FEW,4000.0,HZ,69.8,OTHH 050000Z 10006KT 060V140 9999 FEW040 SCT100 BKN220 21/18 Q1017 RERA NOSIG,5,1,2023,0,0
OTHH,2023-01-05 03:00:00,51.6084,25.2746,-3.72,68.0,64.4,88.26,310.0,4.0,0.0,30.09,6.21,FEW,4000.0,HZ,68.0,OTHH 050300Z 31004KT 9999 FEW040 SCT100 BKN120 20/18 Q1019 RERA NOSIG,5,1,2023,3,0
OTHH,2023-01-05 04:00:00,51.6084,25.2746,-3.72,66.2,64.4,93.92,320.0,3.0,0.0,30.09,6.21,FEW,3500.0,-RA,66.2,OTHH 050400Z 32003KT 290V360 9999 -RA FEW035 19/18 Q1019 NOSIG,5,1,2023,4,0
OTHH,2023-01-05 05:00:00,51.6084,25.2746,-3.72,68.0,64.4,88.26,340.0,6.0,0.0,30.12,6.21,FEW,3500.0,HZ,68.0,OTHH 050500Z 34006KT 9999 FEW035 20/18 Q1020 RERA NOSIG,5,1,2023,5,0
OTHH,2023-01-05 06:00:00,51.6084,25.2746,-3.72,68.0,64.4,88.26,10.0,8.0,0.0,30.12,6.21,FEW,4000.0,HZ,68.0,OTHH 050600Z 01008KT 310V040 9999 FEW040 20/18 Q1020 NOSIG,5,1,2023,6,0
OTHH,2023-01-05 07:00:00,51.6084,25.2746,-3.72,68.0,64.4,88.26,360.0,8.0,0.0,30.12,6.21,FEW,4000.0,HZ,68.0,OTHH 050700Z 36008KT 9999 FEW040 20/18 Q1020 NOSIG,5,1,2023,7,0
OTHH,2023-01-05 08:00:00,51.6084,25.2746,-3.72,68.0,62.6,82.86,360.0,8.0,0.0,30.09,6.21,FEW,4000.0,HZ,68.0,OTHH 050800Z 36008KT 9999 FEW040 20/17 Q1019 NOSIG,5,1,2023,8,0
OTHH,2023-01-05 09:00:00,51.6084,25.2746,-3.72,69.8,60.8,73.09,350.0,7.0,0.0,30.09,6.21,FEW,4000.0,HZ,69.8,OTHH 050900Z 35007KT 9999 FEW040 21/16 Q1019 NOSIG,5,1,2023,9,0
OTHH,2023-01-05 10:00:00,51.6084,25.2746,-3.72,69.8,59.0,68.55,10.0,9.0,0.0,30.06,6.21,FEW,4000.0,HZ,69.8,OTHH 051000Z 01009KT 9999 FEW040 21/15 Q1018 NOSIG,5,1,2023,10,0
OTHH,2023-01-05 11:00:00,51.6084,25.2746,-3.72,69.8,62.6,77.9,360.0,8.0,0.0,30.03,6.21,FEW,4000.0,HZ,69.8,OTHH 051100Z 36008KT 9999 FEW040 21/17 Q1017 NOSIG,5,1,2023,11,0
OTHH,2023-01-05 12:00:00,51.6084,25.2746,-3.72,69.8,64.4,82.98,350.0,9.0,0.0,30.03,6.21,FEW,2500.0,HZ,69.8,OTHH 051200Z 35009KT 9999 FEW025 SCT090 BKN150 21/18 Q1017 NOSIG,5,1,2023,12,0
OTHH,2023-01-05 13:00:00,51.6084,25.2746,-3.72,69.8,62.6,77.9,360.0,13.0,0.0,30.03,6.21,FEW,2500.0,HZ,69.8,OTHH 051300Z 36013KT 320V030 9999 FEW025 SCT100 BKN150 21/17 Q1017 NOSIG,5,1,2023,13,0
OTHH,2023-01-05 14:00:00,51.6084,25.2746,-3.72,69.8,64.4,82.98,360.0,11.0,0.0,30.06,6.21,FEW,3000.0,-RA,69.8,OTHH 051400Z 36011KT 9999 -RA FEW030 BKN090 21/18 Q1018 NOSIG,5,1,2023,14,0
OTHH,2023-01-05 16:00:00,51.6084,25.2746,-3.72,68.0,62.6,82.86,350.0,16.0,0.0,30.12,6.21,FEW,1500.0,HZ,68.0,OTHH 051600Z 35016KT 9999 FEW015 BKN080 20/17 Q1020 NOSIG,5,1,2023,16,0
OTHH,2023-01-05 20:00:00,51.6084,25.2746,-3.72,66.2,60.8,82.74,360.0,15.0,0.0,30.12,6.21,FEW,4000.0,HZ,66.2,OTHH 052000Z 36015KT 9999 FEW040 BKN120 19/16 Q1020 NOSIG,5,1,2023,20,0
OTHH,2023-01-05 21:00:00,51.6084,25.2746,-3.72,66.2,60.8,82.74,360.0,11.0,0.0,30.12,6.21,FEW,4000.0,HZ,66.2,OTHH 052100Z 36011KT 9999 FEW040 BKN100 19/16 Q1020 NOSIG,5,1,2023,21,0
OTHH,2023-01-05 22:00:00,51.6084,25.2746,-3.72,66.2,60.8,82.74,350.0,9.0,0.0,30.09,6.21,FEW,3500.0,HZ,66.2,OTHH 052200Z 35009KT 9999 FEW035 BKN100 19/16 Q1019 NOSIG,5,1,2023,22,0
OTHH,2023-01-05 23:00:00,51.6084,25.2746,-3.72,64.4,60.8,88.09,340.0,12.0,0.0,30.09,6.21,FEW,3000.0,-RA,64.4,OTHH 052300Z 34012KT 9999 -RA FEW030TCU BKN090 18/16 Q1019 NOSIG,5,1,2023,23,0
OTHH,2023-01-06 00:00:00,51.6084,25.2746,-3.72,64.4,60.8,88.09,330.0,9.0,0.0,30.09,4.97,FEW,3000.0,-RA,64.4,OTHH 060000Z 33009KT 8000 -RA FEW030 OVC080 18/16 Q1019 NOSIG,6,1,2023,0,0
OTHH,2023-01-06 01:00:00,51.6084,25.2746,-3.72,62.6,60.8,93.83,330.0,9.0,0.0,30.09,6.21,SCT,2500.0,-RA,62.6,OTHH 060100Z 33009KT 9999 -RA SCT025 OVC080 17/16 Q1019 NOSIG,6,1,2023,1,0
OTHH,2023-01-06 02:00:00,51.6084,25.2746,-3.72,64.4,59.0,82.62,10.0,12.0,0.0,30.09,6.21,SCT,2500.0,HZ,64.4,OTHH 060200Z 01012KT 9999 SCT025 OVC080 18/15 Q1019 RERA NOSIG,6,1,2023,2,0
OTHH,2023-01-06 03:00:00,51.6084,25.2746,-3.72,64.4,60.8,88.09,340.0,7.0,0.0,30.12,6.21,SCT,3000.0,-RA,64.4,OTHH 060300Z 34007KT 9999 -RA SCT030 OVC080 18/16 Q1020 NOSIG,6,1,2023,3,0
OTHH,2023-01-06 04:00:00,51.6084,25.2746,-3.72,60.8,59.0,93.79,300.0,11.0,0.0,30.21,2.17,SCT,700.0,RA,60.8,OTHH 060400Z 30011KT 3500 RA SCT007 BKN015 16/15 Q1023 TEMPO TSRA SCT007 BKN015 FEW030CB,6,1,2023,4,0
OTHH,2023-01-06 05:00:00,51.6084,25.2746,-3.72,62.6,60.8,93.83,20.0,6.0,0.0,30.18,6.21,FEW,800.0,HZ,62.6,OTHH 060500Z 02006KT 350V050 9999 FEW008 SCT040 BKN090 17/16 Q1022 NOSIG,6,1,2023,5,0
OTHH,2023-01-06 06:00:00,51.6084,25.2746,-3.72,62.6,60.8,93.83,340.0,11.0,0.0,30.18,6.21,SCT,800.0,HZ,62.6,OTHH 060600Z 34011KT 9999 SCT008 BKN035 BKN090 17/16 Q1022 NOSIG,6,1,2023,6,0
OTHH,2023-01-06 07:00:00,51.6084,25.2746,-3.72,62.6,60.8,93.83,300.0,7.0,0.0,30.21,2.8,SCT,800.0,RA,62.6,OTHH 060700Z 30007KT 4500 RA SCT008 OVC020 17/16 Q1023 TEMPO 4000 RA,6,1,2023,7,0
OTHH,2023-01-06 08:00:00,51.6084,25.2746,-3.72,64.4,60.8,88.09,360.0,7.0,0.0,30.15,6.21,FEW,1000.0,HZ,64.4,OTHH 060800Z 36007KT 9999 FEW010 SCT025 BKN100 18/16 Q1021 NOSIG,6,1,2023,8,0
OTHH,2023-01-06 09:00:00,51.6084,25.2746,-3.72,62.6,60.8,93.83,290.0,14.0,0.0,30.21,1.55,FEW,1000.0,+RA,62.6,OTHH 060900Z 29014KT 2500 +RA FEW010 SCT025 FEW035TCU OVC100 17/16 Q1023 TEMPO 2000 TSRA FEW035CB,6,1,2023,9,0
OTHH,2023-01-06 10:00:00,51.6084,25.2746,-3.72,60.8,59.0,93.79,320.0,13.0,0.0,30.15,5.59,FEW,900.0,HZ,60.8,OTHH 061000Z 32013KT 9000 FEW009 SCT020 FEW035TCU OVC090 16/15 Q1021 NOSIG,6,1,2023,10,0
OTHH,2023-01-06 11:00:00,51.6084,25.2746,-3.72,62.6,60.8,93.83,10.0,13.0,0.0,30.09,6.21,FEW,3000.0,HZ,62.6,OTHH 061100Z 01013KT 9999 FEW030 SCT090 BKN100 17/16 Q1019 NOSIG,6,1,2023,11,0
OTHH,2023-01-06 12:00:00,51.6084,25.2746,-3.72,64.4,62.6,93.88,360.0,11.0,0.0,30.09,6.21,FEW,3000.0,HZ,64.4,OTHH 061200Z 36011KT 9999 FEW030 SCT080 18/17 Q1019 TEMPO 5000 -RA,6,1,2023,12,0
OTHH,2023-01-06 13:00:00,51.6084,25.2746,-3.72,64.4,60.8,88.09,360.0,12.0,0.0,30.09,6.21,FEW,800.0,HZ,64.4,OTHH 061300Z 36012KT 9999 FEW008 SCT035 18/16 Q1019 TEMPO 5000 -RA,6,1,2023,13,0
OTHH,2023-01-06 14:00:00,51.6084,25.2746,-3.72,64.4,60.8,88.09,320.0,11.0,0.0,30.15,6.21,FEW,800.0,HZ,64.4,OTHH 061400Z 32011KT 9999 FEW008 SCT035 18/16 Q1021 TEMPO 5000 -RA,6,1,2023,14,0
OTHH,2023-01-06 15:00:00,51.6084,25.2746,-3.72,62.6,60.8,93.83,330.0,10.0,0.0,30.15,4.35,FEW,800.0,-RA,62.6,OTHH 061500Z 33010KT 7000 -RA FEW008 SCT015 BKN040 17/16 Q1021 TEMPO 3000 RA,6,1,2023,15,0
OTHH,2023-01-06 16:00:00,51.6084,25.2746,-3.72,62.6,60.8,93.83,10.0,8.0,0.0,30.12,4.97,FEW,1500.0,HZ,62.6,OTHH 061600Z 01008KT 8000 FEW015 SCT025 17/16 Q1020 TEMPO 3000 RA,6,1,2023,16,0
OTHH,2023-01-06 17:00:00,51.6084,25.2746,-3.72,62.6,60.8,93.83,330.0,11.0,0.0,30.15,3.73,FEW,1500.0,RA,62.6,OTHH 061700Z 33011KT 6000 RA FEW015 SCT025 BKN040 17/16 Q1021 TEMPO 4000 RA,6,1,2023,17,0
OTHH,2023-01-06 18:00:00,51.6084,25.2746,-3.72,62.6,60.8,93.83,320.0,8.0,0.0,30.18,3.73,FEW,800.0,-RA,62.6,OTHH 061800Z 32008KT 6000 -RA FEW008 SCT025 BKN040 17/16 Q1022 TEMPO 2000 TSRA,6,1,2023,18,0
OTHH,2023-01-06 19:00:00,51.6084,25.2746,-3.72,62.6,60.8,93.83,300.0,7.0,0.0,30.15,3.73,FEW,800.0,-TSRA,62.6,OTHH 061900Z 30007KT 260V330 6000 -TSRA FEW008 SCT025 FEW030CB BKN040 17/16 Q1021 TEMPO 2000 TSRA,6,1,2023,19,0
OTHH,2023-01-06 20:00:00,51.6084,25.2746,-3.72,62.6,59.0,88.0,330.0,8.0,0.0,30.15,4.35,FEW,800.0,-RA,62.6,OTHH 062000Z 33008KT 7000 -RA FEW008 SCT020 17/15 Q1021 TEMPO -TSRA,6,1,2023,20,0
OTHH,2023-01-06 21:00:00,51.6084,25.2746,-3.72,60.8,59.0,93.79,340.0,9.0,0.0,30.12,3.11,FEW,1000.0,-TSRA BR,60.8,OTHH 062100Z 34009KT 5000 -TSRA BR FEW010 SCT030 FEW040CB OVC090 16/15 Q1020 NOSIG,6,1,2023,21,0
OTHH,2023-01-06 22:00:00,51.6084,25.2746,-3.72,62.6,60.8,93.83,350.0,11.0,0.0,30.12,4.35,FEW,600.0,-TSRA,62.6,OTHH 062200Z 35011KT 7000 -TSRA FEW006 SCT030 FEW040CB OVC080 17/16 Q1020 TEMPO 4000 TSRA,6,1,2023,22,0
OTHH,2023-01-06 23:00:00,51.6084,25.2746,-3.72,62.6,60.8,93.83,310.0,8.0,0.0,30.15,4.35,FEW,600.0,-TSRA,62.6,OTHH 062300Z 31008KT 290V350 7000 -TSRA FEW006 SCT030 FEW040CB OVC080 17/16 Q1021 TEMPO 4000 TSRA,6,1,2023,23,0
OTHH,2023-01-07 00:00:00,51.6084,25.2746,-3.72,62.6,60.8,93.83,340.0,8.0,0.0,30.09,4.97,FEW,600.0,-RA,62.6,OTHH 070000Z 34008KT 8000 -RA FEW006 SCT035 FEW040CB OVC080 17/16 Q1019 RETS TEMPO -TSRA,7,1,2023,0,0
OTHH,2023-01-07 01:00:00,51.6084,25.2746,-3.72,60.8,59.0,93.79,330.0,6.0,0.0,30.12,3.73,SCT,600.0,-TSRA,60.8,OTHH 070100Z 33006KT 6000 -TSRA SCT006 SCT035 FEW040CB OVC080 16/15 Q1020 NOSIG,7,1,2023,1,0
OTHH,2023-01-07 02:00:00,51.6084,25.2746,-3.72,60.8,59.0,93.79,330.0,9.0,0.0,30.09,3.11,FEW,1000.0,TSRA,60.8,OTHH 070200Z 33009KT 5000 TSRA FEW010 SCT035 FEW040CB OVC080 16/15 Q1019 NOSIG,7,1,2023,2,0
OTHH,2023-01-07 03:00:00,51.6084,25.2746,-3.72,60.8,59.0,93.79,360.0,13.0,0.0,30.12,3.73,FEW,500.0,RA,60.8,OTHH 070300Z 36013KT 6000 RA FEW005 BKN025 FEW040CB OVC080 16/15 Q1020 TEMPO TSRA,7,1,2023,3,0
OTHH,2023-01-07 04:00:00,51.6084,25.2746,-3.72,60.8,59.0,93.79,300.0,6.0,0.0,30.18,2.17,FEW,500.0,RA,60.8,OTHH 070400Z 30006KT 3500 RA FEW005 BKN025 FEW040CB OVC080 16/15 Q1022 TEMPO TSRA,7,1,2023,4,0
OTHH,2023-01-07 05:00:00,51.6084,25.2746,-3.72,60.8,59.0,93.79,300.0,5.0,0.0,30.18,2.49,FEW,1000.0,-RA,60.8,OTHH 070500Z 30005KT 4000 -RA FEW010 BKN035 OVC080 16/15 Q1022 RERA NOSIG,7,1,2023,5,0
OTHH,2023-01-07 06:00:00,51.6084,25.2746,-3.72,60.8,59.0,93.79,320.0,6.0,0.0,30.18,3.73,FEW,2500.0,HZ,60.8,OTHH 070600Z 32006KT 290V350 6000 FEW025 SCT035 BKN100 16/15 Q1022 NOSIG,7,1,2023,6,0
OTHH,2023-01-07 07:00:00,51.6084,25.2746,-3.72,62.6,60.8,93.83,300.0,8.0,0.0,30.18,3.73,SCT,3500.0,HZ,62.6,OTHH 070700Z 30008KT 270V330 6000 SCT035 BKN100 17/16 Q1022 NOSIG,7,1,2023,7,0
OTHH,2023-01-07 08:00:00,51.6084,25.2746,-3.72,64.4,57.2,77.45,300.0,8.0,0.0,30.18,4.97,BKN,3500.0,HZ,64.4,OTHH 070800Z 30008KT 8000 BKN035 18/14 Q1022 NOSIG,7,1,2023,8,0
OTHH,2023-01-07 10:00:00,51.6084,25.2746,-3.72,66.2,59.0,77.6,310.0,7.0,0.0,30.12,6.21,SCT,3500.0,HZ,66.2,OTHH 071000Z 31007KT 9999 SCT035 BKN080 19/15 Q1020 NOSIG,7,1,2023,10,0
OTHH,2023-01-07 11:00:00,51.6084,25.2746,-3.72,66.2,59.0,77.6,320.0,7.0,0.0,30.12,5.59,FEW,3500.0,HZ,66.2,OTHH 071100Z 32007KT 9000 FEW035 BKN045 19/15 Q1020 NOSIG,7,1,2023,11,0
OTHH,2023-01-07 12:00:00,51.6084,25.2746,-3.72,66.2,59.0,77.6,330.0,8.0,0.0,30.09,5.59,NSC,,HZ,66.2,OTHH 071200Z 33008KT 9000 NSC 19/15 Q1019 NOSIG,7,1,2023,12,0
OTHH,2023-01-08 01:00:00,51.6084,25.2746,-3.72,60.8,57.2,87.92,320.0,9.0,0.0,30.12,4.97,NSC,,HZ,60.8,OTHH 080100Z 32009KT 8000 NSC 16/14 Q1020 NOSIG,8,1,2023,1,0
OTHH,2023-01-08 02:00:00,51.6084,25.2746,-3.72,60.8,55.4,82.37,300.0,5.0,0.0,30.12,4.97,NSC,,HZ,60.8,OTHH 080200Z AUTO 30005KT 8000 NSC 16/13 Q1020 NOSIG,8,1,2023,2,0
OTHH,2023-01-08 03:00:00,51.6084,25.2746,-3.72,60.8,55.4,82.37,310.0,7.0,0.0,30.15,3.73,NSC,,HZ,60.8,OTHH 080300Z 31007KT 6000 HZ NSC 16/13 Q1021 NOSIG,8,1,2023,3,0
OTHH,2023-01-08 04:00:00,51.6084,25.2746,-3.72,60.8,55.4,82.37,310.0,6.0,0.0,30.15,1.86,NSC,,BR,60.8,OTHH 080400Z 31006KT 3000 BR NSC 16/13 Q1021 TEMPO 2500,8,1,2023,4,0
OTHH,2023-01-08 05:00:00,51.6084,25.2746,-3.72,62.6,53.6,72.38,320.0,10.0,0.0,30.18,2.8,NSC,,HZ,62.6,OTHH 080500Z 32010KT 4500 HZ NSC 17/12 Q1022 TEMPO 5000,8,1,2023,5,0
OTHH,2023-01-08 06:00:00,51.6084,25.2746,-3.72,64.4,53.6,67.95,330.0,9.0,0.0,30.18,3.73,NSC,,HZ,64.4,OTHH 080600Z 33009KT 6000 NSC 18/12 Q1022 NOSIG,8,1,2023,6,0
OTHH,2023-01-08 07:00:00,51.6084,25.2746,-3.72,64.4,53.6,67.95,330.0,11.0,0.0,30.18,4.35,NSC,,HZ,64.4,OTHH 080700Z 33011KT 7000 NSC 18/12 Q1022 NOSIG,8,1,2023,7,0
OTHH,2023-01-08 10:00:00,51.6084,25.2746,-3.72,68.0,53.6,59.97,10.0,8.0,0.0,30.12,6.21,FEW,3500.0,HZ,68.0,OTHH 081000Z 01008KT 340V040 9999 FEW035 20/12 Q1020 NOSIG,8,1,2023,10,0
OTHH,2023-01-08 11:00:00,51.6084,25.2746,-3.72,68.0,51.8,56.13,20.0,9.0,0.0,30.09,6.21,FEW,3500.0,HZ,68.0,OTHH 081100Z 02009KT 9999 FEW035 20/11 Q1019 NOSIG,8,1,2023,11,0
OTHH,2023-01-09 04:00:00,51.6084,25.2746,-3.72,59.0,53.6,82.25,330.0,6.0,0.0,30.18,4.97,NSC,,HZ,59.0,OTHH 090400Z 33006KT 8000 NSC 15/12 Q1022 NOSIG,9,1,2023,4,0
OTHH,2023-01-09 05:00:00,51.6084,25.2746,-3.72,60.8,55.4,82.37,340.0,3.0,0.0,30.18,4.97,NSC,,HZ,60.8,OTHH 090500Z 34003KT 8000 NSC 16/13 Q1022 NOSIG,9,1,2023,5,0
OTHH,2023-01-09 06:00:00,51.6084,25.2746,-3.72,62.6,53.6,72.38,340.0,3.0,0.0,30.18,5.59,NSC,,HZ,62.6,OTHH 090600Z 34003KT 310V010 9000 NSC 17/12 Q1022 NOSIG,9,1,2023,6,0
OTHH,2023-01-10 03:00:00,51.6084,25.2746,-3.72,69.8,64.4,82.98,170.0,8.0,0.0,29.97,5.59,NSC,,HZ,69.8,OTHH 100300Z 17008KT 9000 NSC 21/18 Q1015 NOSIG,10,1,2023,3,0
OTHH,2023-01-10 04:00:00,51.6084,25.2746,-3.72,69.8,64.4,82.98,180.0,9.0,0.0,30.0,4.97,FEW,3000.0,-RA,69.8,OTHH 100400Z 18009KT 8000 -RA FEW030 BKN090 21/18 Q1016 NOSIG,10,1,2023,4,0
OTHH,2023-01-10 05:00:00,51.6084,25.2746,-3.72,69.8,62.6,77.9,240.0,8.0,0.0,30.06,5.59,FEW,3500.0,HZ,69.8,OTHH 100500Z 24008KT 200V280 9000 FEW035 BKN090 21/17 Q1018 RERA NOSIG,10,1,2023,5,0
OTHH,2023-01-10 06:00:00,51.6084,25.2746,-3.72,66.2,60.8,82.74,310.0,10.0,0.0,30.09,3.73,FEW,3000.0,-RA,66.2,OTHH 100600Z 31010KT 6000 -RA FEW030 BKN090 19/16 Q1019 NOSIG,10,1,2023,6,0
OTHH,2023-01-10 07:00:00,51.6084,25.2746,-3.72,66.2,60.8,82.74,300.0,8.0,0.0,30.09,4.97,FEW,4000.0,HZ,66.2,OTHH 100700Z 30008KT 8000 FEW040 BKN090 19/16 Q1019 NOSIG,10,1,2023,7,0
OTHH,2023-01-10 08:00:00,51.6084,25.2746,-3.72,68.0,60.8,77.75,310.0,11.0,0.0,30.09,6.21,SCT,2000.0,HZ,68.0,OTHH 100800Z 31011KT 9999 SCT020 BKN090 20/16 Q1019 NOSIG,10,1,2023,8,0
OTHH,2023-01-10 09:00:00,51.6084,25.2746,-3.72,66.2,59.0,77.6,320.0,12.0,0.0,30.06,6.21,SCT,2000.0,HZ,66.2,OTHH 100900Z 32012KT 9999 SCT020 BKN090 19/15 Q1018 NOSIG,10,1,2023,9,0
OTHH,2023-01-10 10:00:00,51.6084,25.2746,-3.72,66.2,57.2,72.74,320.0,13.0,0.0,30.03,6.21,FEW,3000.0,HZ,66.2,OTHH 101000Z 32013KT 9999 FEW030 SCT090 19/14 Q1017 NOSIG,10,1,2023,10,0
OTHH,2023-01-10 11:00:00,51.6084,25.2746,-3.72,68.0,57.2,68.35,330.0,15.0,0.0,30.03,6.21,FEW,4000.0,HZ,68.0,OTHH 101100Z 33015KT 9999 FEW040 SCT090 20/14 Q1017 NOSIG,10,1,2023,11,0
OTHH,2023-01-10 12:00:00,51.6084,25.2746,-3.72,66.2,55.4,68.15,330.0,17.0,0.0,30.06,6.21,FEW,2000.0,HZ,66.2,OTHH 101200Z 33017KT 9999 FEW020 SCT080 BKN100 19/13 Q1018 NOSIG,10,1,2023,12,0
OTHH,2023-01-10 13:00:00,51.6084,25.2746,-3.72,64.4,55.4,72.56,330.0,13.0,0.0,30.09,6.21,FEW,2000.0,HZ,64.4,OTHH 101300Z 33013KT 9999 FEW020 SCT080 BKN100 18/13 Q1019 NOSIG,10,1,2023,13,0
OTHH,2023-01-10 14:00:00,51.6084,25.2746,-3.72,62.6,55.4,77.29,320.0,13.0,0.0,30.09,6.21,FEW,2000.0,HZ,62.6,OTHH 101400Z 32013KT 9999 FEW020 BKN090 17/13 Q1019 NOSIG,10,1,2023,14,0
OTHH,2023-01-10 15:00:00,51.6084,25.2746,-3.72,62.6,55.4,77.29,330.0,14.0,0.0,30.12,6.21,FEW,2000.0,HZ,62.6,OTHH 101500Z 33014KT 9999 FEW020 BKN100 17/13 Q1020 NOSIG,10,1,2023,15,0
OTHH,2023-01-10 16:00:00,51.6084,25.2746,-3.72,62.6,53.6,72.38,330.0,17.0,0.0,30.15,5.59,FEW,2500.0,HZ,62.6,OTHH 101600Z 33017KT 9000 FEW025 17/12 Q1021 NOSIG,10,1,2023,16,0
OTHH,2023-01-10 17:00:00,51.6084,25.2746,-3.72,60.8,53.6,77.14,320.0,12.0,0.0,30.15,5.59,FEW,2500.0,HZ,60.8,OTHH 101700Z 32012KT 9000 FEW025 16/12 Q1021 NOSIG,10,1,2023,17,0
OTHH,2023-01-10 18:00:00,51.6084,25.2746,-3.72,60.8,51.8,72.2,320.0,13.0,0.0,30.15,6.21,FEW,2500.0,HZ,60.8,OTHH 101800Z 32013KT 9999 FEW025 16/11 Q1021 NOSIG,10,1,2023,18,0
OTHH,2023-01-11 00:00:00,51.6084,25.2746,-3.72,59.0,51.8,76.98,310.0,11.0,0.0,30.12,6.21,SCT,2500.0,HZ,59.0,OTHH 110000Z 31011KT 270V330 9999 SCT025 15/11 Q1020 NOSIG,11,1,2023,0,0
OTHH,2023-01-11 04:00:00,51.6084,25.2746,-3.72,57.2,51.8,82.12,300.0,12.0,0.0,30.18,4.97,NSC,,HZ,57.2,OTHH 110400Z 30012KT 8000 NSC 14/11 Q1022 NOSIG,11,1,2023,4,0
OTHH,2023-01-11 05:00:00,51.6084,25.2746,-3.72,59.0,51.8,76.98,310.0,12.0,0.0,30.21,5.59,NSC,,HZ,59.0,OTHH 110500Z 31012KT 9000 NSC 15/11 Q1023 NOSIG,11,1,2023,5,0
OTHH,2023-01-11 06:00:00,51.6084,25.2746,-3.72,60.8,51.8,72.2,310.0,12.0,0.0,30.21,5.59,NSC,,HZ,60.8,OTHH 110600Z 31012KT 9000 NSC 16/11 Q1023 NOSIG,11,1,2023,6,0
OTHH,2023-01-11 07:00:00,51.6084,25.2746,-3.72,62.6,53.6,72.38,300.0,11.0,0.0,30.21,4.97,NSC,,HZ,62.6,OTHH 110700Z 30011KT 8000 NSC 17/12 Q1023 NOSIG,11,1,2023,7,0
OTHH,2023-01-11 08:00:00,51.6084,25.2746,-3.72,64.4,55.4,72.56,310.0,12.0,0.0,30.21,6.21,FEW,3000.0,HZ,64.4,OTHH 110800Z 31012KT 9999 FEW030 18/13 Q1023 NOSIG,11,1,2023,8,0
OTHH,2023-01-11 09:00:00,51.6084,25.2746,-3.72,64.4,53.6,67.95,310.0,11.0,0.0,30.15,6.21,FEW,3000.0,HZ,64.4,OTHH 110900Z 31011KT 9999 FEW030 18/12 Q1021 NOSIG,11,1,2023,9,0
OTHH,2023-01-11 10:00:00,51.6084,25.2746,-3.72,66.2,53.6,63.82,320.0,13.0,0.0,30.12,6.21,FEW,2500.0,HZ,66.2,OTHH 111000Z 32013KT 9999 FEW025 19/12 Q1020 NOSIG,11,1,2023,10,0
OTHH,2023-01-11 11:00:00,51.6084,25.2746,-3.72,66.2,55.4,68.15,320.0,14.0,0.0,30.12,6.21,SCT,3000.0,HZ,66.2,OTHH 111100Z 32014KT 9999 SCT030 19/13 Q1020 NOSIG,11,1,2023,11,0
OTHH,2023-01-11 12:00:00,51.6084,25.2746,-3.72,66.2,55.4,68.15,330.0,15.0,0.0,30.12,6.21,FEW,3000.0,HZ,66.2,OTHH 111200Z 33015KT 9999 FEW030 19/13 Q1020 NOSIG,11,1,2023,12,0
OTHH,2023-01-11 13:00:00,51.6084,25.2746,-3.72,64.4,53.6,67.95,320.0,15.0,0.0,30.12,6.21,FEW,3000.0,HZ,64.4,OTHH 111300Z 32015KT 9999 FEW030 18/12 Q1020 NOSIG,11,1,2023,13,0
OTHH,2023-01-11 14:00:00,51.6084,25.2746,-3.72,62.6,53.6,72.38,320.0,14.0,0.0,30.15,6.21,FEW,2500.0,HZ,62.6,OTHH 111400Z 32014KT 9999 FEW025 17/12 Q1021 NOSIG,11,1,2023,14,0
OTHH,2023-01-11 15:00:00,51.6084,25.2746,-3.72,60.8,53.6,77.14,320.0,13.0,0.0,30.18,6.21,FEW,2500.0,HZ,60.8,OTHH 111500Z 32013KT 9999 FEW025 16/12 Q1022 NOSIG,11,1,2023,15,0
OTHH,2023-01-12 12:00:00,51.6084,25.2746,-3.72,64.4,51.8,63.6,330.0,10.0,0.0,30.12,6.21,SCT,4000.0,HZ,64.4,OTHH 121200Z 33010KT 9999 SCT040 BKN090 18/11 Q1020 NOSIG,12,1,2023,12,0
OTHH,2023-01-12 15:00:00,51.6084,25.2746,-3.72,62.6,51.8,67.75,320.0,9.0,0.0,30.18,6.21,FEW,4000.0,HZ,62.6,OTHH 121500Z 32009KT 9999 FEW040 BKN090 17/11 Q1022 NOSIG,12,1,2023,15,0
OTHH,2023-01-12 16:00:00,51.6084,25.2746,-3.72,62.6,51.8,67.75,330.0,9.0,0.0,30.18,6.21,FEW,4000.0,HZ,62.6,OTHH 121600Z 33009KT 9999 FEW040 BKN090 17/11 Q1022 NOSIG,12,1,2023,16,0
OTHH,2023-01-12 17:00:00,51.6084,25.2746,-3.72,60.8,51.8,72.2,320.0,8.0,0.0,30.18,6.21,FEW,4000.0,HZ,60.8,OTHH 121700Z 32008KT 9999 FEW040 BKN090 16/11 Q1022 NOSIG,12,1,2023,17,0
OTHH,2023-01-12 23:00:00,51.6084,25.2746,-3.72,60.8,53.6,77.14,330.0,6.0,0.0,30.12,6.21,FEW,3000.0,HZ,60.8,OTHH 122300Z 33006KT 9999 FEW030 16/12 Q1020 NOSIG,12,1,2023,23,0
OTHH,2023-01-13 03:00:00,51.6084,25.2746,-3.72,60.8,55.4,82.37,330.0,4.0,0.0,30.15,6.21,FEW,4000.0,HZ,60.8,OTHH 130300Z 33004KT 9999 FEW040 16/13 Q1021 NOSIG,13,1,2023,3,0
OTHH,2023-01-13 04:00:00,51.6084,25.2746,-3.72,62.6,55.4,77.29,340.0,6.0,0.0,30.18,6.21,SCT,4000.0,HZ,62.6,OTHH 130400Z 34006KT 9999 SCT040 17/13 Q1022 NOSIG,13,1,2023,4,0
OTHH,2023-01-13 05:00:00,51.6084,25.2746,-3.72,62.6,55.4,77.29,330.0,6.0,0.0,30.18,6.21,FEW,4000.0,HZ,62.6,OTHH 130500Z 33006KT 9999 FEW040 BKN090 17/13 Q1022 NOSIG,13,1,2023,5,0
OTHH,2023-01-13 06:00:00,51.6084,25.2746,-3.72,64.4,57.2,77.45,330.0,6.0,0.0,30.21,6.21,FEW,4000.0,HZ,64.4,OTHH 130600Z 33006KT 9999 FEW040 BKN090 18/14 Q1023 NOSIG,13,1,2023,6,0
OTHH,2023-01-13 07:00:00,51.6084,25.2746,-3.72,66.2,57.2,72.74,340.0,5.0,0.0,30.21,6.21,SCT,4000.0,HZ,66.2,OTHH 130700Z 34005KT 9999 SCT040 BKN090 19/14 Q1023 NOSIG,13,1,2023,7,0
OTHH,2023-01-13 08:00:00,51.6084,25.2746,-3.72,68.0,57.2,68.35,20.0,4.0,0.0,30.18,6.21,FEW,4000.0,HZ,68.0,OTHH 130800Z 02004KT 9999 FEW040 BKN090 20/14 Q1022 NOSIG,13,1,2023,8,0
OTHH,2023-01-13 09:00:00,51.6084,25.2746,-3.72,68.0,57.2,68.35,350.0,5.0,0.0,30.15,5.59,FEW,3000.0,HZ,68.0,OTHH 130900Z 35005KT 9000 FEW030 OVC080 20/14 Q1021 NOSIG,13,1,2023,9,0
OTHH,2023-01-13 10:00:00,51.6084,25.2746,-3.72,69.8,57.2,64.26,120.0,5.0,0.0,30.15,6.21,FEW,3000.0,HZ,69.8,OTHH 131000Z 12005KT 090V150 9999 FEW030 OVC080 21/14 Q1021 NOSIG,13,1,2023,10,0
OTHH,2023-01-13 11:00:00,51.6084,25.2746,-3.72,69.8,57.2,64.26,90.0,6.0,0.0,30.12,6.21,FEW,3000.0,HZ,69.8,OTHH 131100Z 09006KT 070V130 9999 FEW030 SCT080 BKN100 21/14 Q1020 NOSIG,13,1,2023,11,0
OTHH,2023-01-13 12:00:00,51.6084,25.2746,-3.72,69.8,55.4,60.21,130.0,9.0,0.0,30.12,6.21,FEW,3000.0,HZ,69.8,OTHH 131200Z 13009KT 9999 FEW030 SCT080 BKN090 21/13 Q1020 NOSIG,13,1,2023,12,0
OTHH,2023-01-13 13:00:00,51.6084,25.2746,-3.72,69.8,55.4,60.21,120.0,8.0,0.0,30.12,6.21,FEW,3000.0,HZ,69.8,OTHH 131300Z 12008KT 9999 FEW030 BKN090 21/13 Q1020 NOSIG,13,1,2023,13,0
OTHH,2023-01-13 21:00:00,51.6084,25.2746,-3.72,68.0,57.2,68.35,120.0,5.0,0.0,30.15,6.21,FEW,3200.0,HZ,68.0,OTHH 132100Z 12005KT 9999 FEW032 BKN070 20/14 Q1021 NOSIG,13,1,2023,21,0
OTHH,2023-01-13 22:00:00,51.6084,25.2746,-3.72,68.0,60.8,77.75,90.0,6.0,0.0,30.12,6.21,FEW,3000.0,HZ,68.0,OTHH 132200Z 09006KT 9999 FEW030 BKN070 20/16 Q1020 NOSIG,13,1,2023,22,0
OTHH,2023-01-13 23:00:00,51.6084,25.2746,-3.72,68.0,57.2,68.35,90.0,6.0,0.0,30.12,6.21,FEW,3000.0,HZ,68.0,OTHH 132300Z AUTO 09006KT 9999 FEW030 BKN070 20/14 Q1020 NOSIG,13,1,2023,23,0
OTHH,2023-01-14 00:00:00,51.6084,25.2746,-3.72,68.0,57.2,68.35,100.0,7.0,0.0,30.12,6.21,FEW,3000.0,HZ,68.0,OTHH 140000Z 10007KT 080V160 9999 FEW030 BKN070 20/14 Q1020 NOSIG,14,1,2023,0,0
OTHH,2023-01-14 03:00:00,51.6084,25.2746,-3.72,68.0,57.2,68.35,100.0,6.0,0.0,30.15,6.21,SCT,4500.0,HZ,68.0,OTHH 140300Z 10006KT 9999 SCT045 SCT070 20/14 Q1021 NOSIG,14,1,2023,3,0
OTHH,2023-01-14 04:00:00,51.6084,25.2746,-3.72,68.0,57.2,68.35,100.0,7.0,0.0,30.15,6.21,SCT,4500.0,HZ,68.0,OTHH 140400Z 10007KT 9999 SCT045 SCT070 20/14 Q1021 NOSIG,14,1,2023,4,0
OTHH,2023-01-14 05:00:00,51.6084,25.2746,-3.72,69.8,57.2,64.26,120.0,5.0,0.0,30.18,6.21,FEW,4500.0,HZ,69.8,OTHH 140500Z 12005KT 090V150 9999 FEW045 SCT070 21/14 Q1022 NOSIG,14,1,2023,5,0
OTHH,2023-01-14 06:00:00,51.6084,25.2746,-3.72,68.0,59.0,72.92,120.0,8.0,0.0,30.18,6.21,SCT,3500.0,HZ,68.0,OTHH 140600Z 12008KT 9999 SCT035 BKN070 20/15 Q1022 RERA NOSIG,14,1,2023,6,0
OTHH,2023-01-14 10:00:00,51.6084,25.2746,-3.72,71.6,57.2,60.44,140.0,9.0,0.0,30.12,6.21,FEW,4000.0,HZ,71.6,OTHH 141000Z 14009KT 9999 FEW040 BKN080 22/14 Q1020 NOSIG,14,1,2023,10,0
OTHH,2023-01-14 11:00:00,51.6084,25.2746,-3.72,69.8,59.0,68.55,170.0,6.0,0.0,30.12,6.21,FEW,4000.0,HZ,69.8,OTHH 141100Z 17006KT 9999 FEW040 BKN080 21/15 Q1020 NOSIG,14,1,2023,11,0
OTHH,2023-01-14 12:00:00,51.6084,25.2746,-3.72,68.0,60.8,77.75,150.0,7.0,0.0,30.09,6.21,FEW,3000.0,-RA,68.0,OTHH 141200Z 15007KT 9999 -RA FEW030 SCT050 BKN090 20/16 Q1019 NOSIG,14,1,2023,12,0
OTHH,2023-01-14 13:00:00,51.6084,25.2746,-3.72,68.0,60.8,77.75,140.0,7.0,0.0,30.12,6.21,FEW,3000.0,HZ,68.0,OTHH 141300Z 14007KT 9999 FEW030 BKN090 OVC200 20/16 Q1020 RERA NOSIG,14,1,2023,13,0
OTHH,2023-01-14 14:00:00,51.6084,25.2746,-3.72,66.2,62.6,88.18,150.0,8.0,0.0,30.12,6.21,FEW,3000.0,-RA,66.2,OTHH 141400Z 15008KT 9999 -RA FEW030 BKN080 OVC180 19/17 Q1020 NOSIG,14,1,2023,14,0
OTHH,2023-01-14 15:00:00,51.6084,25.2746,-3.72,66.2,60.8,82.74,100.0,8.0,0.0,30.09,6.21,FEW,3000.0,HZ,66.2,OTHH 141500Z 10008KT 9999 FEW030 SCT080 BKN120 19/16 Q1019 NOSIG,14,1,2023,15,0
OTHH,2023-01-14 16:00:00,51.6084,25.2746,-3.72,66.2,59.0,77.6,100.0,5.0,0.0,30.12,6.21,FEW,3000.0,HZ,66.2,OTHH 141600Z 10005KT 9999 FEW030 BKN100 19/15 Q1020 NOSIG,14,1,2023,16,0
OTHH,2023-01-14 20:00:00,51.6084,25.2746,-3.72,66.2,62.6,88.18,110.0,5.0,0.0,30.12,6.21,FEW,3000.0,TS,66.2,OTHH 142000Z 11005KT 080V240 9999 TS FEW030 FEW040CB BKN090 19/17 Q1020 TEMPO -TSRA,14,1,2023,20,0
OTHH,2023-01-14 21:00:00,51.6084,25.2746,-3.72,66.2,60.8,82.74,90.0,6.0,0.0,30.09,6.21,FEW,3000.0,HZ,66.2,OTHH 142100Z 09006KT 9999 FEW030 FEW040CB BKN090 19/16 Q1019 RETSRA NOSIG,14,1,2023,21,0
OTHH,2023-01-14 22:00:00,51.6084,25.2746,-3.72,68.0,60.8,77.75,90.0,8.0,0.0,30.06,6.21,FEW,3000.0,HZ,68.0,OTHH 142200Z 09008KT 9999 FEW030 BKN090 20/16 Q1018 NOSIG,14,1,2023,22,0
OTHH,2023-01-14 23:00:00,51.6084,25.2746,-3.72,68.0,62.6,82.86,,1.0,0.0,30.09,5.59,FEW,3000.0,-RA,68.0,OTHH 142300Z VRB01KT 9000 -RA FEW030 FEW035CB BKN090 20/17 Q1019 TEMPO -TSRA,14,1,2023,23,0
OTHH,2023-01-15 00:00:00,51.6084,25.2746,-3.72,66.2,60.8,82.74,60.0,8.0,0.0,30.06,6.21,FEW,3500.0,HZ,66.2,OTHH 150000Z 06008KT 9999 FEW035 BKN090 19/16 Q1018 RERA NOSIG,15,1,2023,0,0
OTHH,2023-01-15 01:00:00,51.6084,25.2746,-3.72,66.2,57.2,72.74,80.0,6.0,0.0,30.06,6.21,FEW,3500.0,HZ,66.2,OTHH 150100Z 08006KT 9999 FEW035 BKN090 19/14 Q1018 NOSIG,15,1,2023,1,0
OTHH,2023-01-15 02:00:00,51.6084,25.2746,-3.72,66.2,57.2,72.74,90.0,6.0,0.0,30.06,6.21,FEW,3500.0,HZ,66.2,OTHH 150200Z 09006KT 9999 FEW035 BKN090 19/14 Q1018 NOSIG,15,1,2023,2,0
OTHH,2023-01-15 03:00:00,51.6084,25.2746,-3.72,66.2,57.2,72.74,50.0,7.0,0.0,30.09,6.21,FEW,3500.0,-RA,66.2,OTHH 150300Z 05007KT 9999 -RA FEW035 BKN080 19/14 Q1019 NOSIG,15,1,2023,3,0
OTHH,2023-01-15 04:00:00,51.6084,25.2746,-3.72,68.0,59.0,72.92,90.0,9.0,0.0,30.09,6.21,FEW,3500.0,HZ,68.0,OTHH 150400Z 09009KT 9999 FEW035 BKN080 20/15 Q1019 NOSIG,15,1,2023,4,0
OTHH,2023-01-15 05:00:00,51.6084,25.2746,-3.72,69.8,60.8,73.09,90.0,8.0,0.0,30.12,6.21,FEW,3500.0,HZ,69.8,OTHH 150500Z 09008KT 9999 FEW035 BKN080 21/16 Q1020 NOSIG,15,1,2023,5,0
OTHH,2023-01-15 06:00:00,51.6084,25.2746,-3.72,71.6,60.8,68.75,100.0,11.0,0.0,30.12,6.21,FEW,4000.0,HZ,71.6,OTHH 150600Z 10011KT 9999 FEW040 BKN080 22/16 Q1020 NOSIG,15,1,2023,6,0
OTHH,2023-01-15 07:00:00,51.6084,25.2746,-3.72,71.6,62.6,73.27,110.0,9.0,0.0,30.15,6.21,FEW,4000.0,HZ,71.6,OTHH 150700Z 11009KT 9999 FEW040 BKN080 22/17 Q1021 NOSIG,15,1,2023,7,0
OTHH,2023-01-15 08:00:00,51.6084,25.2746,-3.72,71.6,62.6,73.27,110.0,9.0,0.0,30.12,6.21,FEW,4000.0,HZ,71.6,OTHH 150800Z 11009KT 9999 FEW040 BKN080 22/17 Q1020 NOSIG,15,1,2023,8,0
OTHH,2023-01-15 12:00:00,51.6084,25.2746,-3.72,71.6,60.8,68.75,120.0,5.0,0.0,30.06,6.21,FEW,4000.0,HZ,71.6,OTHH 151200Z 12005KT 9999 FEW040 BKN080 22/16 Q1018 NOSIG,15,1,2023,12,0
OTHH,2023-01-15 21:00:00,51.6084,25.2746,-3.72,66.2,62.6,88.18,360.0,3.0,0.0,30.06,4.35,NSC,,HZ,66.2,OTHH 152100Z 36003KT 7000 NSC 19/17 Q1018 NOSIG,15,1,2023,21,0
OTHH,2023-01-15 22:00:00,51.6084,25.2746,-3.72,64.4,62.6,93.88,340.0,2.0,0.0,30.03,3.11,NSC,,BR,64.4,OTHH 152200Z 34002KT 5000 BR NSC 18/17 Q1017 TEMPO 4500,15,1,2023,22,0
OTHH,2023-01-15 23:00:00,51.6084,25.2746,-3.72,66.2,64.4,93.92,20.0,5.0,0.0,30.03,2.8,NSC,,BR,66.2,OTHH 152300Z 02005KT 350V050 4500 BR NSC 19/18 Q1017 TEMPO 2500,15,1,2023,23,0
OTHH,2023-01-16 00:00:00,51.6084,25.2746,-3.72,66.2,64.4,93.92,60.0,4.0,0.0,30.03,3.73,NSC,,HZ,66.2,OTHH 160000Z 06004KT 020V100 6000 NSC 19/18 Q1017 NOSIG,16,1,2023,0,0
OTHH,2023-01-16 01:00:00,51.6084,25.2746,-3.72,64.4,62.6,93.88,340.0,2.0,0.0,30.03,3.73,NSC,,HZ,64.4,OTHH 160100Z 34002KT 6000 NSC 18/17 Q1017 NOSIG,16,1,2023,1,0
OTHH,2023-01-16 02:00:00,51.6084,25.2746,-3.72,64.4,62.6,93.88,360.0,3.0,0.0,30.03,2.8,NSC,,BR,64.4,OTHH 160200Z 36003KT 4500 BR NSC 18/17 Q1017 TEMPO 3000,16,1,2023,2,0
OTHH,2023-01-16 03:00:00,51.6084,25.2746,-3.72,64.4,62.6,93.88,360.0,4.0,0.0,30.06,3.73,NSC,,HZ,64.4,OTHH 160300Z 36004KT 6000 NSC 18/17 Q1018 NOSIG,16,1,2023,3,0
OTHH,2023-01-16 04:00:00,51.6084,25.2746,-3.72,64.4,62.6,93.88,330.0,2.0,0.0,30.09,4.35,NSC,,HZ,64.4,OTHH 160400Z 33002KT 7000 NSC 18/17 Q1019 NOSIG,16,1,2023,4,0
OTHH,2023-01-16 06:00:00,51.6084,25.2746,-3.72,69.8,64.4,82.98,330.0,4.0,0.0,30.12,6.21,FEW,1400.0,HZ,69.8,OTHH 160600Z 33004KT 9999 FEW014 21/18 Q1020 NOSIG,16,1,2023,6,0
OTHH,2023-01-16 07:00:00,51.6084,25.2746,-3.72,69.8,64.4,82.98,10.0,5.0,0.0,30.09,6.21,FEW,1500.0,HZ,69.8,OTHH 160700Z 01005KT 9999 FEW015 FEW030TCU 21/18 Q1019 NOSIG,16,1,2023,7,0
OTHH,2023-01-16 08:00:00,51.6084,25.2746,-3.72,71.6,64.4,78.04,20.0,6.0,0.0,30.06,6.21,FEW,1700.0,HZ,71.6,OTHH 160800Z 02006KT 9999 FEW017 22/18 Q1018 NOSIG,16,1,2023,8,0
OTHH,2023-01-16 09:00:00,51.6084,25.2746,-3.72,71.6,64.4,78.04,20.0,4.0,0.0,30.03,6.21,FEW,1700.0,HZ,71.6,OTHH 160900Z 02004KT 350V070 9999 FEW017 22/18 Q1017 NOSIG,16,1,2023,9,0
OTHH,2023-01-16 10:00:00,51.6084,25.2746,-3.72,71.6,64.4,78.04,20.0,6.0,0.0,30.0,6.21,FEW,2500.0,HZ,71.6,OTHH 161000Z 02006KT 9999 FEW025 22/18 Q1016 NOSIG,16,1,2023,10,0
OTHH,2023-01-16 11:00:00,51.6084,25.2746,-3.72,71.6,64.4,78.04,20.0,6.0,0.0,30.0,6.21,FEW,2500.0,HZ,71.6,OTHH 161100Z 02006KT 9999 FEW025 22/18 Q1016 NOSIG,16,1,2023,11,0
OTHH,2023-01-17 07:00:00,51.6084,25.2746,-3.72,71.6,64.4,78.04,160.0,9.0,0.0,30.0,6.21,FEW,4700.0,HZ,71.6,OTHH 170700Z 16009KT 9999 FEW047 BKN220 22/18 Q1016 NOSIG,17,1,2023,7,0
OTHH,2023-01-17 08:00:00,51.6084,25.2746,-3.72,73.4,62.6,68.94,160.0,12.0,0.0,29.97,6.21,SCT,3000.0,HZ,73.4,OTHH 170800Z 16012KT 9999 SCT030 BKN040 23/17 Q1015 NOSIG,17,1,2023,8,0
OTHH,2023-01-17 09:00:00,51.6084,25.2746,-3.72,73.4,62.6,68.94,160.0,10.0,0.0,29.91,6.21,FEW,4000.0,HZ,73.4,OTHH 170900Z 16010KT 9999 FEW040 SCT100 BKN220 23/17 Q1013 NOSIG,17,1,2023,9,0
OTHH,2023-01-17 16:00:00,51.6084,25.2746,-3.72,69.8,60.8,73.09,300.0,17.0,0.0,29.94,2.8,NSC,,BLDU,69.8,OTHH 171600Z 30017G27KT 4500 BLDU NSC 21/16 Q1014 TEMPO 3000 BLDU,17,1,2023,16,0
OTHH,2023-01-17 17:00:00,51.6084,25.2746,-3.72,68.0,59.0,72.92,310.0,17.0,0.0,29.97,2.49,NSC,,BLDU,68.0,OTHH 171700Z 31017G27KT 4000 BLDU NSC 20/15 Q1015 TEMPO 3000 BLDU,17,1,2023,17,0
OTHH,2023-01-17 18:00:00,51.6084,25.2746,-3.72,66.2,59.0,77.6,320.0,16.0,0.0,30.0,3.11,NSC,,BLDU,66.2,OTHH 171800Z 32016KT 5000 BLDU NSC 19/15 Q1016 TEMPO 3000 BLDU,17,1,2023,18,0
OTHH,2023-01-17 19:00:00,51.6084,25.2746,-3.72,66.2,59.0,77.6,320.0,17.0,0.0,30.0,5.59,FEW,1000.0,HZ,66.2,OTHH 171900Z 32017KT 9000 FEW010 SCT090 19/15 Q1016 TEMPO 5000 BLDU,17,1,2023,19,0
OTHH,2023-01-17 20:00:00,51.6084,25.2746,-3.72,64.4,57.2,77.45,320.0,19.0,0.0,30.0,6.21,SCT,1500.0,HZ,64.4,OTHH 172000Z 32019KT 9999 SCT015 SCT090 18/14 Q1016 NOSIG,17,1,2023,20,0
OTHH,2023-01-17 21:00:00,51.6084,25.2746,-3.72,62.6,55.4,77.29,320.0,16.0,0.0,30.0,6.21,FEW,1500.0,HZ,62.6,OTHH 172100Z 32016KT 9999 FEW015 BKN090 17/13 Q1016 NOSIG,17,1,2023,21,0
OTHH,2023-01-17 22:00:00,51.6084,25.2746,-3.72,62.6,55.4,77.29,310.0,15.0,0.0,30.0,6.21,FEW,1500.0,HZ,62.6,OTHH 172200Z AUTO 31015KT 9999 FEW015 BKN090 17/13 Q1016 NOSIG,17,1,2023,22,0
OTHH,2023-01-17 23:00:00,51.6084,25.2746,-3.72,60.8,53.6,77.14,310.0,13.0,0.0,30.03,6.21,FEW,1500.0,HZ,60.8,OTHH 172300Z AUTO 31013KT 9999 FEW015 16/12 Q1017 NOSIG,17,1,2023,23,0
OTHH,2023-01-18 00:00:00,51.6084,25.2746,-3.72,60.8,53.6,77.14,310.0,15.0,0.0,30.03,6.21,FEW,1500.0,HZ,60.8,OTHH 180000Z AUTO 31015KT 9999 FEW015 16/12 Q1017 NOSIG,18,1,2023,0,0
OTHH,2023-01-18 01:00:00,51.6084,25.2746,-3.72,60.8,53.6,77.14,310.0,14.0,0.0,30.03,5.59,NSC,,HZ,60.8,OTHH 180100Z 31014KT 9000 NSC 16/12 Q1017 NOSIG,18,1,2023,1,0
OTHH,2023-01-18 02:00:00,51.6084,25.2746,-3.72,59.0,53.6,82.25,310.0,13.0,0.0,30.03,4.97,NSC,,HZ,59.0,OTHH 180200Z 31013KT 8000 NSC 15/12 Q1017 NOSIG,18,1,2023,2,0
OTHH,2023-01-18 03:00:00,51.6084,25.2746,-3.72,59.0,53.6,82.25,300.0,11.0,0.0,30.06,3.73,NSC,,HZ,59.0,OTHH 180300Z 30011KT 6000 NSC 15/12 Q1018 TEMPO 5000,18,1,2023,3,0
OTHH,2023-01-18 04:00:00,51.6084,25.2746,-3.72,59.0,53.6,82.25,290.0,10.0,0.0,30.09,3.11,FEW,1500.0,HZ,59.0,OTHH 180400Z 29010KT 5000 HZ FEW015 15/12 Q1019 TEMPO 4000,18,1,2023,4,0
OTHH,2023-01-18 05:00:00,51.6084,25.2746,-3.72,60.8,53.6,77.14,290.0,11.0,0.0,30.09,3.11,NSC,,HZ,60.8,OTHH 180500Z 29011KT 5000 HZ NSC 16/12 Q1019 TEMPO 4000,18,1,2023,5,0
OTHH,2023-01-18 06:00:00,51.6084,25.2746,-3.72,62.6,53.6,72.38,290.0,12.0,0.0,30.12,3.73,NSC,,HZ,62.6,OTHH 180600Z 29012KT 6000 NSC 17/12 Q1020 NOSIG,18,1,2023,6,0
OTHH,2023-01-18 07:00:00,51.6084,25.2746,-3.72,64.4,55.4,72.56,300.0,12.0,0.0,30.12,3.73,NSC,,HZ,64.4,OTHH 180700Z 30012KT 6000 NSC 18/13 Q1020 NOSIG,18,1,2023,7,0
OTHH,2023-01-18 08:00:00,51.6084,25.2746,-3.72,66.2,55.4,68.15,320.0,13.0,0.0,30.09,4.97,NSC,,HZ,66.2,OTHH 180800Z 32013KT 8000 NSC 19/13 Q1019 NOSIG,18,1,2023,8,0
OTHH,2023-01-18 09:00:00,51.6084,25.2746,-3.72,66.2,55.4,68.15,310.0,12.0,0.0,30.09,5.59,FEW,2500.0,HZ,66.2,OTHH 180900Z 31012KT 9000 FEW025 19/13 Q1019 NOSIG,18,1,2023,9,0
OTHH,2023-01-18 10:00:00,51.6084,25.2746,-3.72,68.0,55.4,64.04,310.0,12.0,0.0,30.06,6.21,FEW,2500.0,HZ,68.0,OTHH 181000Z 31012KT 9999 FEW025 20/13 Q1018 NOSIG,18,1,2023,10,0
OTHH,2023-01-18 11:00:00,51.6084,25.2746,-3.72,68.0,53.6,59.97,320.0,13.0,0.0,30.03,6.21,FEW,2500.0,HZ,68.0,OTHH 181100Z 32013KT 9999 FEW025 20/12 Q1017 NOSIG,18,1,2023,11,0
OTHH,2023-01-18 12:00:00,51.6084,25.2746,-3.72,68.0,51.8,56.13,320.0,12.0,0.0,30.06,6.21,FEW,3000.0,HZ,68.0,OTHH 181200Z 32012KT 9999 FEW030 20/11 Q1018 NOSIG,18,1,2023,12,0
OTHH,2023-01-18 13:00:00,51.6084,25.2746,-3.72,68.0,51.8,56.13,310.0,13.0,0.0,30.06,6.21,FEW,3000.0,HZ,68.0,OTHH 181300Z 31013KT 9999 FEW030 20/11 Q1018 NOSIG,18,1,2023,13,0
OTHH,2023-01-18 15:00:00,51.6084,25.2746,-3.72,64.4,51.8,63.6,320.0,12.0,0.0,30.09,5.59,NSC,,HZ,64.4,OTHH 181500Z 32012KT 9000 NSC 18/11 Q1019 NOSIG,18,1,2023,15,0
OTHH,2023-01-19 04:00:00,51.6084,25.2746,-3.72,57.2,51.8,82.12,290.0,11.0,0.0,30.15,4.97,NSC,,HZ,57.2,OTHH 190400Z 29011KT 8000 NSC 14/11 Q1021 NOSIG,19,1,2023,4,0
OTHH,2023-01-19 05:00:00,51.6084,25.2746,-3.72,59.0,51.8,76.98,290.0,10.0,0.0,30.18,4.97,NSC,,HZ,59.0,OTHH 190500Z 29010KT 8000 NSC 15/11 Q1022 NOSIG,19,1,2023,5,0
OTHH,2023-01-19 08:00:00,51.6084,25.2746,-3.72,66.2,53.6,63.82,300.0,11.0,0.0,30.15,6.21,FEW,2500.0,HZ,66.2,OTHH 190800Z 30011KT 270V330 9999 FEW025 19/12 Q1021 NOSIG,19,1,2023,8,0
OTHH,2023-01-19 09:00:00,51.6084,25.2746,-3.72,68.0,53.6,59.97,320.0,12.0,0.0,30.12,6.21,FEW,2500.0,HZ,68.0,OTHH 190900Z 32012KT 9999 FEW025 20/12 Q1020 NOSIG,19,1,2023,9,0
OTHH,2023-01-19 10:00:00,51.6084,25.2746,-3.72,68.0,53.6,59.97,330.0,14.0,0.0,30.09,6.21,FEW,2500.0,HZ,68.0,OTHH 191000Z 33014KT 9999 FEW025 20/12 Q1019 NOSIG,19,1,2023,10,0
OTHH,2023-01-19 11:00:00,51.6084,25.2746,-3.72,68.0,53.6,59.97,330.0,14.0,0.0,30.09,6.21,FEW,2500.0,HZ,68.0,OTHH 191100Z 33014KT 9999 FEW025 20/12 Q1019 NOSIG,19,1,2023,11,0
OTHH,2023-01-19 12:00:00,51.6084,25.2746,-3.72,68.0,51.8,56.13,330.0,15.0,0.0,30.09,6.21,FEW,3000.0,HZ,68.0,OTHH 191200Z 33015KT 9999 FEW030 20/11 Q1019 NOSIG,19,1,2023,12,0
OTHH,2023-01-19 13:00:00,51.6084,25.2746,-3.72,66.2,51.8,59.74,330.0,14.0,0.0,30.09,6.21,FEW,3000.0,HZ,66.2,OTHH 191300Z 33014KT 9999 FEW030 19/11 Q1019 NOSIG,19,1,2023,13,0
OTHH,2023-01-19 14:00:00,51.6084,25.2746,-3.72,66.2,53.6,63.82,320.0,12.0,0.0,30.09,6.21,SCT,3000.0,HZ,66.2,OTHH 191400Z 32012KT 9999 SCT030 19/12 Q1019 NOSIG,19,1,2023,14,0
OTHH,2023-01-19 15:00:00,51.6084,25.2746,-3.72,64.4,53.6,67.95,320.0,11.0,0.0,30.12,6.21,SCT,3000.0,HZ,64.4,OTHH 191500Z 32011KT 9999 SCT030 18/12 Q1020 NOSIG,19,1,2023,15,0
OTHH,2023-01-19 16:00:00,51.6084,25.2746,-3.72,64.4,55.4,72.56,330.0,10.0,0.0,30.12,6.21,FEW,3000.0,HZ,64.4,OTHH 191600Z 33010KT 9999 FEW030 18/13 Q1020 NOSIG,19,1,2023,16,0
OTHH,2023-01-19 21:00:00,51.6084,25.2746,-3.72,60.8,55.4,82.37,290.0,8.0,0.0,30.12,4.97,NSC,,HZ,60.8,OTHH 192100Z 29008KT 8000 NSC 16/13 Q1020 NOSIG,19,1,2023,21,0
OTHH,2023-01-19 22:00:00,51.6084,25.2746,-3.72,60.8,55.4,82.37,300.0,6.0,0.0,30.12,4.97,NSC,,HZ,60.8,OTHH 192200Z AUTO 30006KT 8000 NSC 16/13 Q1020 NOSIG,19,1,2023,22,0
OTHH,2023-01-19 23:00:00,51.6084,25.2746,-3.72,59.0,53.6,82.25,290.0,7.0,0.0,30.12,4.97,NSC,,HZ,59.0,OTHH 192300Z 29007KT 8000 NSC 15/12 Q1020 NOSIG,19,1,2023,23,0
OTHH,2023-01-20 00:00:00,51.6084,25.2746,-3.72,59.0,53.6,82.25,280.0,6.0,0.0,30.12,5.59,NSC,,HZ,59.0,OTHH 200000Z 28006KT 9000 NSC 15/12 Q1020 NOSIG,20,1,2023,0,0
OTHH,2023-01-20 01:00:00,51.6084,25.2746,-3.72,59.0,53.6,82.25,290.0,7.0,0.0,30.12,5.59,NSC,,HZ,59.0,OTHH 200100Z AUTO 29007KT 9000 NSC 15/12 Q1020 NOSIG,20,1,2023,1,0
OTHH,2023-01-20 02:00:00,51.6084,25.2746,-3.72,59.0,51.8,76.98,290.0,7.0,0.0,30.12,5.59,NSC,,HZ,59.0,OTHH 200200Z AUTO 29007KT 9000 NSC 15/11 Q1020 NOSIG,20,1,2023,2,0
OTHH,2023-01-20 03:00:00,51.6084,25.2746,-3.72,59.0,51.8,76.98,290.0,8.0,0.0,30.15,5.59,NSC,,HZ,59.0,OTHH 200300Z 29008KT 9000 NSC 15/11 Q1021 NOSIG,20,1,2023,3,0
OTHH,2023-01-20 04:00:00,51.6084,25.2746,-3.72,59.0,51.8,76.98,280.0,7.0,0.0,30.15,4.97,FEW,3500.0,HZ,59.0,OTHH 200400Z 28007KT 8000 FEW035 15/11 Q1021 NOSIG,20,1,2023,4,0
OTHH,2023-01-20 05:00:00,51.6084,25.2746,-3.72,60.8,53.6,77.14,300.0,7.0,0.0,30.18,6.21,FEW,3500.0,HZ,60.8,OTHH 200500Z 30007KT 9999 FEW035 16/12 Q1022 NOSIG,20,1,2023,5,0
OTHH,2023-01-20 06:00:00,51.6084,25.2746,-3.72,62.6,53.6,72.38,290.0,9.0,0.0,30.21,6.21,FEW,3500.0,HZ,62.6,OTHH 200600Z 29009KT 9999 FEW035 17/12 Q1023 NOSIG,20,1,2023,6,0
OTHH,2023-01-20 07:00:00,51.6084,25.2746,-3.72,64.4,53.6,67.95,300.0,8.0,0.0,30.18,6.21,FEW,3500.0,HZ,64.4,OTHH 200700Z 30008KT 9999 FEW035 18/12 Q1022 NOSIG,20,1,2023,7,0
OTHH,2023-01-20 09:00:00,51.6084,25.2746,-3.72,68.0,53.6,59.97,320.0,7.0,0.0,30.12,6.21,FEW,3000.0,HZ,68.0,OTHH 200900Z 32007KT 9999 FEW030 20/12 Q1020 NOSIG,20,1,2023,9,0
OTHH,2023-01-20 10:00:00,51.6084,25.2746,-3.72,69.8,51.8,52.77,350.0,7.0,0.0,30.09,6.21,FEW,3000.0,HZ,69.8,OTHH 201000Z 35007KT 9999 FEW030 21/11 Q1019 NOSIG,20,1,2023,10,0
OTHH,2023-01-20 11:00:00,51.6084,25.2746,-3.72,69.8,51.8,52.77,10.0,8.0,0.0,30.09,6.21,FEW,3000.0,HZ,69.8,OTHH 201100Z 01008KT 9999 FEW030 21/11 Q1019 NOSIG,20,1,2023,11,0
OTHH,2023-01-20 12:00:00,51.6084,25.2746,-3.72,69.8,53.6,56.38,20.0,7.0,0.0,30.06,6.21,FEW,3000.0,HZ,69.8,OTHH 201200Z 02007KT 350V050 9999 FEW030 21/12 Q1018 NOSIG,20,1,2023,12,0
OTHH,2023-01-20 13:00:00,51.6084,25.2746,-3.72,68.0,53.6,59.97,20.0,7.0,0.0,30.09,6.21,FEW,3000.0,HZ,68.0,OTHH 201300Z 02007KT 9999 FEW030 20/12 Q1019 NOSIG,20,1,2023,13,0
OTHH,2023-01-20 14:00:00,51.6084,25.2746,-3.72,68.0,55.4,64.04,30.0,6.0,0.0,30.09,6.21,FEW,3000.0,HZ,68.0,OTHH 201400Z 03006KT 9999 FEW030 20/13 Q1019 NOSIG,20,1,2023,14,0
OTHH,2023-01-20 15:00:00,51.6084,25.2746,-3.72,66.2,57.2,72.74,20.0,6.0,0.0,30.09,6.21,FEW,3000.0,HZ,66.2,OTHH 201500Z 02006KT 9999 FEW030 19/14 Q1019 NOSIG,20,1,2023,15,0
OTHH,2023-01-20 16:00:00,51.6084,25.2746,-3.72,66.2,55.4,68.15,340.0,10.0,0.0,30.12,6.21,FEW,2500.0,HZ,66.2,OTHH 201600Z 34010KT 9999 FEW025 SCT035 19/13 Q1020 NOSIG,20,1,2023,16,0
OTHH,2023-01-20 17:00:00,51.6084,25.2746,-3.72,64.4,55.4,72.56,330.0,7.0,0.0,30.12,6.21,FEW,2500.0,HZ,64.4,OTHH 201700Z 33007KT 9999 FEW025 SCT035 18/13 Q1020 NOSIG,20,1,2023,17,0
OTHH,2023-01-21 08:00:00,51.6084,25.2746,-3.72,68.0,51.8,56.13,340.0,8.0,0.0,30.15,6.21,FEW,3000.0,HZ,68.0,OTHH 210800Z 34008KT 9999 FEW030 20/11 Q1021 NOSIG,21,1,2023,8,0
OTHH,2023-01-21 09:00:00,51.6084,25.2746,-3.72,68.0,53.6,59.97,350.0,8.0,0.0,30.12,6.21,FEW,3000.0,HZ,68.0,OTHH 210900Z 35008KT 9999 FEW030 SCT090 20/12 Q1020 NOSIG,21,1,2023,9,0
OTHH,2023-01-21 10:00:00,51.6084,25.2746,-3.72,69.8,53.6,56.38,20.0,8.0,0.0,30.12,6.21,FEW,3000.0,HZ,69.8,OTHH 211000Z 02008KT 9999 FEW030 21/12 Q1020 NOSIG,21,1,2023,10,0
OTHH,2023-01-21 11:00:00,51.6084,25.2746,-3.72,69.8,53.6,56.38,20.0,9.0,0.0,30.09,6.21,FEW,3000.0,HZ,69.8,OTHH 211100Z 02009KT 9999 FEW030 21/12 Q1019 NOSIG,21,1,2023,11,0
OTHH,2023-01-21 12:00:00,51.6084,25.2746,-3.72,69.8,53.6,56.38,30.0,9.0,0.0,30.09,6.21,FEW,3000.0,HZ,69.8,OTHH 211200Z 03009KT 9999 FEW030 21/12 Q1019 NOSIG,21,1,2023,12,0
OTHH,2023-01-21 13:00:00,51.6084,25.2746,-3.72,69.8,55.4,60.21,40.0,8.0,0.0,30.09,6.21,FEW,3000.0,HZ,69.8,OTHH 211300Z 04008KT 9999 FEW030 21/13 Q1019 NOSIG,21,1,2023,13,0
OTHH,2023-01-21 14:00:00,51.6084,25.2746,-3.72,68.0,59.0,72.92,40.0,7.0,0.0,30.09,6.21,FEW,3000.0,HZ,68.0,OTHH 211400Z 04007KT 9999 FEW030 20/15 Q1019 NOSIG,21,1,2023,14,0
OTHH,2023-01-21 15:00:00,51.6084,25.2746,-3.72,68.0,59.0,72.92,40.0,7.0,0.0,30.09,6.21,FEW,3000.0,HZ,68.0,OTHH 211500Z 04007KT 9999 FEW030 20/15 Q1019 NOSIG,21,1,2023,15,0
OTHH,2023-01-22 04:00:00,51.6084,25.2746,-3.72,60.8,55.4,82.37,330.0,4.0,0.0,30.09,3.73,NSC,,HZ,60.8,OTHH 220400Z 33004KT 6000 NSC 16/13 Q1019 NOSIG,22,1,2023,4,0
OTHH,2023-01-22 05:00:00,51.6084,25.2746,-3.72,64.4,57.2,77.45,330.0,4.0,0.0,30.12,4.35,FEW,4000.0,HZ,64.4,OTHH 220500Z 33004KT 7000 FEW040 18/14 Q1020 NOSIG,22,1,2023,5,0
OTHH,2023-01-22 06:00:00,51.6084,25.2746,-3.72,66.2,59.0,77.6,10.0,6.0,0.0,30.12,4.35,FEW,4000.0,HZ,66.2,OTHH 220600Z 01006KT 7000 FEW040 19/15 Q1020 NOSIG,22,1,2023,6,0
OTHH,2023-01-22 07:00:00,51.6084,25.2746,-3.72,68.0,59.0,72.92,10.0,6.0,0.0,30.12,4.35,FEW,4000.0,HZ,68.0,OTHH 220700Z 01006KT 7000 FEW040 20/15 Q1020 NOSIG,22,1,2023,7,0
OTHH,2023-01-22 08:00:00,51.6084,25.2746,-3.72,69.8,59.0,68.55,30.0,5.0,0.0,30.09,4.35,FEW,3500.0,HZ,69.8,OTHH 220800Z 03005KT 7000 FEW035 21/15 Q1019 NOSIG,22,1,2023,8,0
OTHH,2023-01-22 09:00:00,51.6084,25.2746,-3.72,69.8,60.8,73.09,20.0,8.0,0.0,30.06,4.97,FEW,3500.0,HZ,69.8,OTHH 220900Z 02008KT 8000 FEW035 SCT120 21/16 Q1018 NOSIG,22,1,2023,9,0
OTHH,2023-01-22 10:00:00,51.6084,25.2746,-3.72,71.6,60.8,68.75,40.0,7.0,0.0,30.06,6.21,FEW,3500.0,HZ,71.6,OTHH 221000Z 04007KT 9999 FEW035 SCT120 22/16 Q1018 NOSIG,22,1,2023,10,0
OTHH,2023-01-22 11:00:00,51.6084,25.2746,-3.72,71.6,57.2,60.44,80.0,7.0,0.0,30.03,6.21,FEW,3000.0,HZ,71.6,OTHH 221100Z 08007KT 9999 FEW030 22/14 Q1017 NOSIG,22,1,2023,11,0
OTHH,2023-01-22 12:00:00,51.6084,25.2746,-3.72,71.6,57.2,60.44,70.0,6.0,0.0,30.03,6.21,FEW,3500.0,HZ,71.6,OTHH 221200Z 07006KT 030V140 9999 FEW035 22/14 Q1017 NOSIG,22,1,2023,12,0
OTHH,2023-01-22 13:00:00,51.6084,25.2746,-3.72,71.6,57.2,60.44,90.0,5.0,0.0,30.06,6.21,FEW,3500.0,HZ,71.6,OTHH 221300Z 09005KT 040V130 9999 FEW035 22/14 Q1018 NOSIG,22,1,2023,13,0
OTHH,2023-01-22 16:00:00,51.6084,25.2746,-3.72,68.0,55.4,64.04,120.0,5.0,0.0,30.06,6.21,FEW,4000.0,HZ,68.0,OTHH 221600Z 12005KT 9999 FEW040 20/13 Q1018 NOSIG,22,1,2023,16,0
OTHH,2023-01-22 17:00:00,51.6084,25.2746,-3.72,68.0,55.4,64.04,110.0,4.0,0.0,30.09,6.21,FEW,4000.0,HZ,68.0,OTHH 221700Z 11004KT 9999 FEW040 20/13 Q1019 NOSIG,22,1,2023,17,0
OTHH,2023-01-22 18:00:00,51.6084,25.2746,-3.72,68.0,55.4,64.04,90.0,5.0,0.0,30.09,6.21,FEW,4000.0,HZ,68.0,OTHH 221800Z 09005KT 9999 FEW040 20/13 Q1019 NOSIG,22,1,2023,18,0
OTHH,2023-01-23 02:00:00,51.6084,25.2746,-3.72,64.4,59.0,82.62,340.0,2.0,0.0,30.06,3.73,NSC,,HZ,64.4,OTHH 230200Z 34002KT 6000 NSC 18/15 Q1018 NOSIG,23,1,2023,2,0
OTHH,2023-01-23 03:00:00,51.6084,25.2746,-3.72,64.4,59.0,82.62,20.0,5.0,0.0,30.09,3.73,FEW,3000.0,HZ,64.4,OTHH 230300Z 02005KT 6000 FEW030 18/15 Q1019 NOSIG,23,1,2023,3,0
OTHH,2023-01-23 04:00:00,51.6084,25.2746,-3.72,66.2,60.8,82.74,20.0,6.0,0.0,30.09,6.21,FEW,3000.0,HZ,66.2,OTHH 230400Z 02006KT 9999 FEW030 BKN120 19/16 Q1019 NOSIG,23,1,2023,4,0
OTHH,2023-01-23 05:00:00,51.6084,25.2746,-3.72,66.2,60.8,82.74,320.0,3.0,0.0,30.12,6.21,FEW,3000.0,HZ,66.2,OTHH 230500Z 32003KT 290V350 9999 FEW030 BKN120 19/16 Q1020 NOSIG,23,1,2023,5,0
OTHH,2023-01-23 06:00:00,51.6084,25.2746,-3.72,68.0,59.0,72.92,10.0,5.0,0.0,30.12,6.21,FEW,4000.0,HZ,68.0,OTHH 230600Z 01005KT 9999 FEW040 BKN100 20/15 Q1020 NOSIG,23,1,2023,6,0
OTHH,2023-01-23 07:00:00,51.6084,25.2746,-3.72,68.0,60.8,77.75,20.0,3.0,0.0,30.12,6.21,FEW,4000.0,HZ,68.0,OTHH 230700Z 02003KT 9999 FEW040 BKN100 20/16 Q1020 NOSIG,23,1,2023,7,0
OTHH,2023-01-23 08:00:00,51.6084,25.2746,-3.72,69.8,59.0,68.55,360.0,5.0,0.0,30.09,6.21,FEW,4000.0,HZ,69.8,OTHH 230800Z 36005KT 9999 FEW040 BKN100 21/15 Q1019 NOSIG,23,1,2023,8,0
OTHH,2023-01-23 09:00:00,51.6084,25.2746,-3.72,69.8,59.0,68.55,360.0,7.0,0.0,30.06,6.21,FEW,3000.0,HZ,69.8,OTHH 230900Z 36007KT 9999 FEW030 SCT120 21/15 Q1018 NOSIG,23,1,2023,9,0
OTHH,2023-01-23 10:00:00,51.6084,25.2746,-3.72,71.6,59.0,64.48,10.0,7.0,0.0,30.06,6.21,FEW,3000.0,HZ,71.6,OTHH 231000Z 01007KT 9999 FEW030 22/15 Q1018 NOSIG,23,1,2023,10,0
OTHH,2023-01-23 11:00:00,51.6084,25.2746,-3.72,71.6,59.0,64.48,30.0,8.0,0.0,30.06,6.21,FEW,3000.0,HZ,71.6,OTHH 231100Z 03008KT 9999 FEW030 22/15 Q1018 NOSIG,23,1,2023,11,0
OTHH,2023-01-23 12:00:00,51.6084,25.2746,-3.72,71.6,59.0,64.48,20.0,7.0,0.0,30.03,6.21,FEW,3000.0,HZ,71.6,OTHH 231200Z 02007KT 360V070 9999 FEW030 22/15 Q1017 NOSIG,23,1,2023,12,0
OTHH,2023-01-23 14:00:00,51.6084,25.2746,-3.72,69.8,60.8,73.09,30.0,11.0,0.0,30.06,6.21,FEW,4000.0,HZ,69.8,OTHH 231400Z 03011KT 9999 FEW040 21/16 Q1018 NOSIG,23,1,2023,14,0
OTHH,2023-01-24 01:00:00,51.6084,25.2746,-3.72,64.4,60.8,88.09,,5.0,0.0,30.06,5.59,NSC,,HZ,64.4,OTHH 240100Z VRB05KT 9000 NSC 18/16 Q1018 NOSIG,24,1,2023,1,0
OTHH,2023-01-24 02:00:00,51.6084,25.2746,-3.72,62.6,59.0,88.0,340.0,5.0,0.0,30.06,4.35,NSC,,HZ,62.6,OTHH 240200Z 34005KT 7000 NSC 17/15 Q1018 NOSIG,24,1,2023,2,0
OTHH,2023-01-24 03:00:00,51.6084,25.2746,-3.72,62.6,60.8,93.83,30.0,4.0,0.0,30.09,5.59,FEW,3000.0,HZ,62.6,OTHH 240300Z 03004KT 9000 FEW030 17/16 Q1019 NOSIG,24,1,2023,3,0
OTHH,2023-01-24 04:00:00,51.6084,25.2746,-3.72,62.6,60.8,93.83,340.0,4.0,0.0,30.09,5.59,NSC,,HZ,62.6,OTHH 240400Z 34004KT 9000 NSC 17/16 Q1019 NOSIG,24,1,2023,4,0
OTHH,2023-01-24 05:00:00,51.6084,25.2746,-3.72,66.2,62.6,88.18,,2.0,0.0,30.12,4.97,FEW,3000.0,HZ,66.2,OTHH 240500Z VRB02KT 8000 FEW030 19/17 Q1020 NOSIG,24,1,2023,5,0
OTHH,2023-01-24 06:00:00,51.6084,25.2746,-3.72,68.0,60.8,77.75,20.0,4.0,0.0,30.15,4.97,FEW,2500.0,HZ,68.0,OTHH 240600Z 02004KT 350V050 8000 FEW025 BKN030 20/16 Q1021 NOSIG,24,1,2023,6,0
OTHH,2023-01-24 07:00:00,51.6084,25.2746,-3.72,71.6,59.0,64.48,110.0,6.0,0.0,30.12,5.59,FEW,3000.0,HZ,71.6,OTHH 240700Z 11006KT 080V150 9000 FEW030 22/15 Q1020 NOSIG,24,1,2023,7,0
OTHH,2023-01-24 08:00:00,51.6084,25.2746,-3.72,73.4,57.2,56.88,130.0,7.0,0.0,30.09,6.21,FEW,3000.0,HZ,73.4,OTHH 240800Z 13007KT 100V180 9999 FEW030 23/14 Q1019 NOSIG,24,1,2023,8,0
OTHH,2023-01-24 09:00:00,51.6084,25.2746,-3.72,73.4,57.2,56.88,120.0,8.0,0.0,30.06,6.21,FEW,3000.0,HZ,73.4,OTHH 240900Z 12008KT 9999 FEW030 23/14 Q1018 NOSIG,24,1,2023,9,0
OTHH,2023-01-24 10:00:00,51.6084,25.2746,-3.72,71.6,57.2,60.44,100.0,8.0,0.0,30.03,6.21,SCT,3000.0,HZ,71.6,OTHH 241000Z 10008KT 070V130 9999 SCT030 FEW035TCU 22/14 Q1017 NOSIG,24,1,2023,10,0
OTHH,2023-01-24 11:00:00,51.6084,25.2746,-3.72,69.8,50.0,49.37,90.0,14.0,0.0,30.03,6.21,BKN,3000.0,HZ,69.8,OTHH 241100Z 09014KT 9999 BKN030 FEW035TCU 21/10 Q1017 NOSIG,24,1,2023,11,0
OTHH,2023-01-24 12:00:00,51.6084,25.2746,-3.72,71.6,50.0,46.43,100.0,13.0,0.0,30.0,6.21,FEW,4500.0,HZ,71.6,OTHH 241200Z 10013KT 9999 FEW045 BKN100 22/10 Q1016 NOSIG,24,1,2023,12,0
OTHH,2023-01-24 13:00:00,51.6084,25.2746,-3.72,69.8,50.0,49.37,100.0,8.0,0.0,30.03,6.21,SCT,4000.0,HZ,69.8,OTHH 241300Z 10008KT 9999 SCT040 BKN080 21/10 Q1017 NOSIG,24,1,2023,13,0
OTHH,2023-01-24 14:00:00,51.6084,25.2746,-3.72,68.0,57.2,68.35,100.0,4.0,0.0,30.03,6.21,SCT,3500.0,HZ,68.0,OTHH 241400Z 10004KT 040V120 9999 SCT035 FEW040TCU BKN080 20/14 Q1017 NOSIG,24,1,2023,14,0
OTHH,2023-01-24 15:00:00,51.6084,25.2746,-3.72,68.0,59.0,72.92,50.0,5.0,0.0,30.06,6.21,SCT,3500.0,HZ,68.0,OTHH 241500Z 05005KT 020V080 9999 SCT035 BKN080 20/15 Q1018 NOSIG,24,1,2023,15,0
OTHH,2023-01-25 06:00:00,51.6084,25.2746,-3.72,71.6,57.2,60.44,100.0,8.0,0.0,30.09,6.21,FEW,3000.0,HZ,71.6,OTHH 250600Z 10008KT 070V130 9999 FEW030 22/14 Q1019 NOSIG,25,1,2023,6,0
OTHH,2023-01-25 07:00:00,51.6084,25.2746,-3.72,69.8,59.0,68.55,110.0,8.0,0.0,30.06,6.21,FEW,3000.0,HZ,69.8,OTHH 250700Z 11008KT 9999 FEW030 21/15 Q1018 NOSIG,25,1,2023,7,0
OTHH,2023-01-25 08:00:00,51.6084,25.2746,-3.72,71.6,59.0,64.48,110.0,8.0,0.0,30.06,6.21,FEW,3000.0,HZ,71.6,OTHH 250800Z 11008KT 9999 FEW030 22/15 Q1018 NOSIG,25,1,2023,8,0
OTHH,2023-01-25 09:00:00,51.6084,25.2746,-3.72,73.4,57.2,56.88,110.0,9.0,0.0,30.03,6.21,FEW,3000.0,HZ,73.4,OTHH 250900Z 11009KT 080V140 9999 FEW030 23/14 Q1017 NOSIG,25,1,2023,9,0
OTHH,2023-01-25 10:00:00,51.6084,25.2746,-3.72,71.6,57.2,60.44,70.0,8.0,0.0,30.0,6.21,FEW,3000.0,HZ,71.6,OTHH 251000Z 07008KT 050V110 9999 FEW030 22/14 Q1016 NOSIG,25,1,2023,10,0
OTHH,2023-01-25 11:00:00,51.6084,25.2746,-3.72,71.6,57.2,60.44,70.0,6.0,0.0,29.97,6.21,FEW,3000.0,HZ,71.6,OTHH 251100Z 07006KT 030V090 9999 FEW030 22/14 Q1015 NOSIG,25,1,2023,11,0
OTHH,2023-01-25 12:00:00,51.6084,25.2746,-3.72,71.6,57.2,60.44,70.0,5.0,0.0,29.97,6.21,FEW,3000.0,HZ,71.6,OTHH 251200Z 07005KT 030V120 9999 FEW030 22/14 Q1015 NOSIG,25,1,2023,12,0
OTHH,2023-01-25 13:00:00,51.6084,25.2746,-3.72,69.8,60.8,73.09,60.0,7.0,0.0,29.97,6.21,FEW,3000.0,HZ,69.8,OTHH 251300Z 06007KT 020V080 9999 FEW030 SCT120 21/16 Q1015 NOSIG,25,1,2023,13,0
OTHH,2023-01-25 14:00:00,51.6084,25.2746,-3.72,69.8,60.8,73.09,70.0,6.0,0.0,30.0,6.21,FEW,3000.0,HZ,69.8,OTHH 251400Z 07006KT 9999 FEW030 SCT120 21/16 Q1016 NOSIG,25,1,2023,14,0
OTHH,2023-01-25 15:00:00,51.6084,25.2746,-3.72,68.0,60.8,77.75,70.0,5.0,0.0,30.0,6.21,FEW,3000.0,HZ,68.0,OTHH 251500Z 07005KT 9999 FEW030 SCT120 20/16 Q1016 NOSIG,25,1,2023,15,0
OTHH,2023-01-25 16:00:00,51.6084,25.2746,-3.72,68.0,60.8,77.75,50.0,13.0,0.0,30.0,6.21,FEW,2000.0,HZ,68.0,OTHH 251600Z 05013KT 9999 FEW020 FEW030CB SCT035 20/16 Q1016 RERA NOSIG,25,1,2023,16,0
OTHH,2023-01-25 17:00:00,51.6084,25.2746,-3.72,66.2,59.0,77.6,60.0,17.0,0.0,30.03,6.21,FEW,1500.0,HZ,66.2,OTHH 251700Z 06017KT 9999 FEW015 SCT025 19/15 Q1017 NOSIG,25,1,2023,17,0
OTHH,2023-01-25 18:00:00,51.6084,25.2746,-3.72,68.0,59.0,72.92,70.0,14.0,0.0,30.03,6.21,FEW,3000.0,HZ,68.0,OTHH 251800Z 07014KT 9999 FEW030 SCT120 BKN150 20/15 Q1017 NOSIG,25,1,2023,18,0
OTHH,2023-01-25 20:00:00,51.6084,25.2746,-3.72,68.0,59.0,72.92,80.0,12.0,0.0,30.0,6.21,FEW,3000.0,HZ,68.0,OTHH 252000Z 08012KT 9999 FEW030 20/15 Q1016 NOSIG,25,1,2023,20,0
OTHH,2023-01-25 21:00:00,51.6084,25.2746,-3.72,66.2,60.8,82.74,90.0,10.0,0.0,30.0,6.21,FEW,2000.0,HZ,66.2,OTHH 252100Z 09010KT 9999 FEW020 SCT120 19/16 Q1016 NOSIG,25,1,2023,21,0
OTHH,2023-01-25 22:00:00,51.6084,25.2746,-3.72,66.2,59.0,77.6,100.0,12.0,0.0,29.97,6.21,FEW,2500.0,HZ,66.2,OTHH 252200Z 10012KT 9999 FEW025 SCT120 19/15 Q1015 NOSIG,25,1,2023,22,0
OTHH,2023-01-25 23:00:00,51.6084,25.2746,-3.72,66.2,60.8,82.74,100.0,13.0,0.0,29.97,6.21,FEW,2000.0,HZ,66.2,OTHH 252300Z 10013KT 9999 FEW020 BKN120 19/16 Q1015 NOSIG,25,1,2023,23,0
OTHH,2023-01-26 00:00:00,51.6084,25.2746,-3.72,66.2,60.8,82.74,110.0,14.0,0.0,29.97,6.21,FEW,3000.0,HZ,66.2,OTHH 260000Z 11014KT 9999 FEW030 BKN120 19/16 Q1015 NOSIG,26,1,2023,0,0
OTHH,2023-01-26 01:00:00,51.6084,25.2746,-3.72,66.2,60.8,82.74,110.0,14.0,0.0,29.97,6.21,FEW,2000.0,HZ,66.2,OTHH 260100Z 11014KT 9999 FEW020 BKN120 19/16 Q1015 NOSIG,26,1,2023,1,0
OTHH,2023-01-26 02:00:00,51.6084,25.2746,-3.72,66.2,60.8,82.74,120.0,12.0,0.0,29.97,6.21,FEW,1500.0,HZ,66.2,OTHH 260200Z 12012KT 9999 FEW015 BKN120 19/16 Q1015 NOSIG,26,1,2023,2,0
OTHH,2023-01-26 03:00:00,51.6084,25.2746,-3.72,68.0,62.6,82.86,150.0,11.0,0.0,30.0,6.21,SCT,1200.0,HZ,68.0,OTHH 260300Z 15011KT 9999 SCT012 BKN090 20/17 Q1016 NOSIG,26,1,2023,3,0
OTHH,2023-01-26 04:00:00,51.6084,25.2746,-3.72,66.2,64.4,93.92,150.0,11.0,0.0,30.0,6.21,FEW,800.0,-RA,66.2,OTHH 260400Z 15011KT 9999 -RA FEW008 SCT010 FEW035TCU BKN090 19/18 Q1016 TEMPO TSRA FEW035CB,26,1,2023,4,0
OTHH,2023-01-26 05:00:00,51.6084,25.2746,-3.72,64.4,60.8,88.09,190.0,12.0,0.0,30.03,4.97,FEW,800.0,-TSRA,64.4,OTHH 260500Z 19012KT 160V220 8000 -TSRA FEW008 SCT013 FEW035CB OVC090 18/16 Q1017 TEMPO 5000,26,1,2023,5,0
OTHH,2023-01-26 06:00:00,51.6084,25.2746,-3.72,66.2,59.0,77.6,180.0,7.0,0.0,30.06,6.21,FEW,1300.0,HZ,66.2,OTHH 260600Z 18007KT 9999 FEW013 BKN080 OVC090 19/15 Q1018 NOSIG,26,1,2023,6,0
OTHH,2023-01-26 07:00:00,51.6084,25.2746,-3.72,68.0,59.0,72.92,200.0,4.0,0.0,30.03,6.21,FEW,1500.0,HZ,68.0,OTHH 260700Z 20004KT 9999 FEW015 BKN080 OVC090 20/15 Q1017 NOSIG,26,1,2023,7,0
OTHH,2023-01-26 08:00:00,51.6084,25.2746,-3.72,68.0,60.8,77.75,230.0,4.0,0.0,30.0,6.21,FEW,800.0,HZ,68.0,OTHH 260800Z 23004KT 190V270 9999 FEW008 SCT015 OVC090 20/16 Q1016 NOSIG,26,1,2023,8,0
OTHH,2023-01-26 09:00:00,51.6084,25.2746,-3.72,68.0,59.0,72.92,210.0,8.0,0.0,29.97,4.97,FEW,1000.0,-RA,68.0,OTHH 260900Z 21008KT 190V250 8000 -RA FEW010 BKN020 FEW035TCU OVC090 20/15 Q1015 TEMPO 5000 TSRA FEW035CB,26,1,2023,9,0
OTHH,2023-01-26 10:00:00,51.6084,25.2746,-3.72,66.2,60.8,82.74,,3.0,0.0,29.94,4.35,SCT,1500.0,HZ,66.2,OTHH 261000Z VRB03KT 7000 SCT015 BKN020 FEW035TCU BKN090 19/16 Q1014 TEMPO TSRA FEW035CB,26,1,2023,10,0
OTHH,2023-01-26 11:00:00,51.6084,25.2746,-3.72,68.0,62.6,82.86,260.0,6.0,0.0,29.94,4.35,SCT,800.0,-RA,68.0,OTHH 261100Z 26006KT 220V010 7000 -RA SCT008 OVC017 FEW035CB 20/17 Q1014 TEMPO TSRA,26,1,2023,11,0
OTHH,2023-01-26 12:00:00,51.6084,25.2746,-3.72,66.2,62.6,88.18,350.0,14.0,0.0,29.94,4.97,SCT,800.0,HZ,66.2,OTHH 261200Z 35014KT 8000 SCT008 BKN020 FEW035TCU 19/17 Q1014 RERA NOSIG,26,1,2023,12,0
OTHH,2023-01-26 13:00:00,51.6084,25.2746,-3.72,64.4,62.6,93.88,20.0,17.0,0.0,29.97,6.21,SCT,800.0,HZ,64.4,OTHH 261300Z 02017KT 9999 SCT008 BKN015 FEW035TCU 18/17 Q1015 NOSIG,26,1,2023,13,0
OTHH,2023-01-26 14:00:00,51.6084,25.2746,-3.72,64.4,60.8,88.09,60.0,14.0,0.0,29.97,6.21,FEW,800.0,HZ,64.4,OTHH 261400Z 06014KT 9999 FEW008 BKN030 18/16 Q1015 NOSIG,26,1,2023,14,0
OTHH,2023-01-26 15:00:00,51.6084,25.2746,-3.72,64.4,60.8,88.09,70.0,10.0,0.0,29.97,6.21,FEW,800.0,HZ,64.4,OTHH 261500Z 07010KT 9999 FEW008 BKN030 18/16 Q1015 NOSIG,26,1,2023,15,0
OTHH,2023-01-26 16:00:00,51.6084,25.2746,-3.72,64.4,59.0,82.62,70.0,8.0,0.0,30.0,6.21,SCT,800.0,HZ,64.4,OTHH 261600Z 07008KT 9999 SCT008 BKN040 18/15 Q1016 NOSIG,26,1,2023,16,0
OTHH,2023-01-26 17:00:00,51.6084,25.2746,-3.72,64.4,60.8,88.09,80.0,11.0,0.0,30.0,6.21,SCT,800.0,HZ,64.4,OTHH 261700Z 08011KT 9999 SCT008 BKN020 18/16 Q1016 NOSIG,26,1,2023,17,0
OTHH,2023-01-26 18:00:00,51.6084,25.2746,-3.72,66.2,60.8,82.74,100.0,13.0,0.0,30.0,6.21,SCT,800.0,HZ,66.2,OTHH 261800Z 10013KT 9999 SCT008 BKN020 19/16 Q1016 NOSIG,26,1,2023,18,0
OTHH,2023-01-26 19:00:00,51.6084,25.2746,-3.72,66.2,60.8,82.74,100.0,11.0,0.0,30.0,6.21,FEW,800.0,HZ,66.2,OTHH 261900Z 10011KT 9999 FEW008 BKN025 FEW030TCU 19/16 Q1016 TEMPO TSRA,26,1,2023,19,0
OTHH,2023-01-26 20:00:00,51.6084,25.2746,-3.72,66.2,60.8,82.74,110.0,14.0,0.0,29.97,6.21,FEW,1500.0,-RA,66.2,OTHH 262000Z 11014KT 9999 -RA FEW015 SCT030 FEW035CB BKN045 19/16 Q1015 TEMPO TSRA,26,1,2023,20,0
OTHH,2023-01-26 21:00:00,51.6084,25.2746,-3.72,60.8,60.8,100.0,340.0,8.0,0.0,30.0,0.93,SCT,800.0,+TSRA,60.8,OTHH 262100Z 34008KT 310V010 1500 +TSRA SCT008 SCT020 FEW030CB OVC070 16/16 Q1016 NOSIG,26,1,2023,21,0
OTHH,2023-01-26 22:00:00,51.6084,25.2746,-3.72,60.8,60.8,100.0,10.0,10.0,0.0,30.0,2.49,SCT,500.0,TSRA,60.8,OTHH 262200Z 01010KT 340V040 4000 TSRA SCT005 SCT015 FEW030CB OVC070 16/16 Q1016 NOSIG,26,1,2023,22,0
OTHH,2023-01-26 23:00:00,51.6084,25.2746,-3.72,64.4,64.4,100.0,70.0,9.0,0.0,29.97,4.97,SCT,500.0,-TSRA,64.4,OTHH 262300Z 07009KT 8000 -TSRA SCT005 SCT025 FEW030CB OVC070 18/18 Q1015 TEMPO 5000 TSRA,26,1,2023,23,0
OTHH,2023-01-27 00:00:00,51.6084,25.2746,-3.72,64.4,60.8,88.09,30.0,4.0,0.0,29.97,6.21,FEW,800.0,-TSRA,64.4,OTHH 270000Z 03004KT 350V060 9999 -TSRA FEW008 SCT025 FEW030CB BKN090 18/16 Q1015 TEMPO 5000 TSRA,27,1,2023,0,0
OTHH,2023-01-27 01:00:00,51.6084,25.2746,-3.72,64.4,60.8,88.09,310.0,5.0,0.0,29.97,6.21,FEW,800.0,HZ,64.4,OTHH 270100Z 31005KT 9999 FEW008 SCT030 OVC090 18/16 Q1015 RETS TEMPO -TSRA,27,1,2023,1,0
OTHH,2023-01-27 02:00:00,51.6084,25.2746,-3.72,62.6,57.2,82.5,340.0,19.0,0.0,30.0,6.21,FEW,1000.0,-RA,62.6,OTHH 270200Z 34019KT 9999 -RA FEW010 SCT025 BKN060 17/14 Q1016 RERA TEMPO -TSRA,27,1,2023,2,0
OTHH,2023-01-27 03:00:00,51.6084,25.2746,-3.72,62.6,59.0,88.0,340.0,17.0,0.0,30.0,6.21,FEW,1500.0,HZ,62.6,OTHH 270300Z 34017KT 9999 FEW015 SCT030 BKN070 17/15 Q1016 NOSIG,27,1,2023,3,0
OTHH,2023-01-27 04:00:00,51.6084,25.2746,-3.72,64.4,59.0,82.62,10.0,19.0,0.0,30.03,6.21,FEW,1500.0,HZ,64.4,OTHH 270400Z 01019KT 9999 FEW015 SCT025 18/15 Q1017 NOSIG,27,1,2023,4,0
OTHH,2023-01-27 05:00:00,51.6084,25.2746,-3.72,64.4,59.0,82.62,40.0,13.0,0.0,30.06,6.21,FEW,1500.0,HZ,64.4,OTHH 270500Z 04013KT 9999 FEW015 BKN035 18/15 Q1018 NOSIG,27,1,2023,5,0
OTHH,2023-01-27 06:00:00,51.6084,25.2746,-3.72,66.2,59.0,77.6,50.0,13.0,0.0,30.06,6.21,FEW,1500.0,-RA,66.2,OTHH 270600Z 05013KT 360V070 9999 -RA FEW015 SCT030 BKN070 19/15 Q1018 TEMPO 6000 -SHRA FEW035TCU,27,1,2023,6,0
OTHH,2023-01-27 07:00:00,51.6084,25.2746,-3.72,62.6,59.0,88.0,360.0,15.0,0.0,30.09,4.35,FEW,2000.0,-RA,62.6,OTHH 270700Z 36015KT 7000 -RA FEW020 SCT030 BKN070 17/15 Q1019 NOSIG,27,1,2023,7,0
OTHH,2023-01-27 08:00:00,51.6084,25.2746,-3.72,62.6,59.0,88.0,360.0,13.0,0.0,30.06,6.21,FEW,2500.0,-RA,62.6,OTHH 270800Z 36013KT 9999 -RA FEW025 OVC080 17/15 Q1018 NOSIG,27,1,2023,8,0
OTHH,2023-01-27 09:00:00,51.6084,25.2746,-3.72,64.4,60.8,88.09,20.0,14.0,0.0,30.06,6.21,SCT,3500.0,HZ,64.4,OTHH 270900Z 02014KT 9999 SCT035 OVC100 18/16 Q1018 NOSIG,27,1,2023,9,0
OTHH,2023-01-27 10:00:00,51.6084,25.2746,-3.72,64.4,59.0,82.62,360.0,15.0,0.0,30.03,6.21,FEW,1500.0,-RA,64.4,OTHH 271000Z 36015KT 9999 -RA FEW015 SCT035 FEW040TCU BKN080 18/15 Q1017 NOSIG,27,1,2023,10,0
OTHH,2023-01-27 11:00:00,51.6084,25.2746,-3.72,64.4,57.2,77.45,20.0,11.0,0.0,30.03,6.21,FEW,2500.0,HZ,64.4,OTHH 271100Z 02011KT 9999 FEW025 SCT035 BKN080 18/14 Q1017 NOSIG,27,1,2023,11,0
OTHH,2023-01-27 12:00:00,51.6084,25.2746,-3.72,66.2,57.2,72.74,350.0,11.0,0.0,30.03,6.21,SCT,2500.0,HZ,66.2,OTHH 271200Z 35011KT 9999 SCT025 19/14 Q1017 NOSIG,27,1,2023,12,0
OTHH,2023-01-27 13:00:00,51.6084,25.2746,-3.72,68.0,51.8,56.13,360.0,20.0,0.0,30.06,6.21,FEW,2500.0,HZ,68.0,OTHH 271300Z 36020KT 9999 FEW025 20/11 Q1018 NOSIG,27,1,2023,13,0
OTHH,2023-01-27 14:00:00,51.6084,25.2746,-3.72,66.2,50.0,55.88,350.0,19.0,0.0,30.06,6.21,FEW,3000.0,HZ,66.2,OTHH 271400Z 35019KT 9999 FEW030 19/10 Q1018 NOSIG,27,1,2023,14,0
OTHH,2023-01-28 11:00:00,51.6084,25.2746,-3.72,68.0,48.2,49.1,340.0,16.0,0.0,30.06,6.21,FEW,4000.0,HZ,68.0,OTHH 281100Z 34016KT 9999 FEW040 20/09 Q1018 NOSIG,28,1,2023,11,0
OTHH,2023-01-29 04:00:00,51.6084,25.2746,-3.72,57.2,46.4,67.12,290.0,9.0,0.0,30.09,4.97,NSC,,HZ,57.2,OTHH 290400Z 29009KT 8000 NSC 14/08 Q1019 NOSIG,29,1,2023,4,0
OTHH,2023-01-29 05:00:00,51.6084,25.2746,-3.72,60.8,46.4,59.01,290.0,8.0,0.0,30.12,5.59,NSC,,HZ,60.8,OTHH 290500Z 29008KT 9000 NSC 16/08 Q1020 NOSIG,29,1,2023,5,0
OTHH,2023-01-31 04:00:00,51.6084,25.2746,-3.72,64.4,59.0,82.62,150.0,13.0,0.0,30.0,4.97,NSC,,HZ,64.4,OTHH 310400Z 15013KT 8000 NSC 18/15 Q1016 NOSIG,31,1,2023,4,0
OTHH,2023-01-31 05:00:00,51.6084,25.2746,-3.72,66.2,59.0,77.6,160.0,12.0,0.0,30.03,5.59,NSC,,HZ,66.2,OTHH 310500Z 16012KT 9000 NSC 19/15 Q1017 NOSIG,31,1,2023,5,0
OTHH,2023-01-31 07:00:00,51.6084,25.2746,-3.72,68.0,59.0,72.92,160.0,15.0,0.0,30.06,6.21,FEW,2000.0,HZ,68.0,OTHH 310700Z 16015KT 9999 FEW020 20/15 Q1018 NOSIG,31,1,2023,7,0
OTHH,2023-01-31 08:00:00,51.6084,25.2746,-3.72,69.8,59.0,68.55,150.0,16.0,0.0,30.03,4.97,FEW,3000.0,HZ,69.8,OTHH 310800Z 15016KT 8000 FEW030 21/15 Q1017 NOSIG,31,1,2023,8,0
OTHH,2023-01-31 11:00:00,51.6084,25.2746,-3.72,69.8,59.0,68.55,150.0,14.0,0.0,29.91,5.59,NSC,,HZ,69.8,OTHH 311100Z 15014KT 9000 NSC 21/15 Q1013 NOSIG,31,1,2023,11,0
OTHH,2023-01-31 13:00:00,51.6084,25.2746,-3.72,69.8,60.8,73.09,110.0,10.0,0.0,29.91,4.35,NSC,,HZ,69.8,OTHH 311300Z 11010KT 7000 NSC 21/16 Q1013 NOSIG,31,1,2023,13,0
OTHH,2023-01-31 14:00:00,51.6084,25.2746,-3.72,69.8,62.6,77.9,100.0,11.0,0.0,29.91,4.35,NSC,,HZ,69.8,OTHH 311400Z 10011KT 7000 NSC 21/17 Q1013 NOSIG,31,1,2023,14,0
OTHH,2023-01-31 15:00:00,51.6084,25.2746,-3.72,68.0,62.6,82.86,110.0,13.0,0.0,29.91,5.59,NSC,,HZ,68.0,OTHH 311500Z 11013KT 9000 NSC 20/17 Q1013 NOSIG,31,1,2023,15,0
OTHH,2023-01-31 16:00:00,51.6084,25.2746,-3.72,68.0,62.6,82.86,110.0,13.0,0.0,29.94,5.59,NSC,,HZ,68.0,OTHH 311600Z 11013KT 9000 NSC 20/17 Q1014 NOSIG,31,1,2023,16,0
OTHH,2023-01-31 17:00:00,51.6084,25.2746,-3.72,68.0,62.6,82.86,120.0,14.0,0.0,29.94,5.59,NSC,,HZ,68.0,OTHH 311700Z 12014KT 9000 NSC 20/17 Q1014 NOSIG,31,1,2023,17,0
OTHH,2023-01-31 18:00:00,51.6084,25.2746,-3.72,68.0,60.8,77.75,120.0,16.0,0.0,29.94,5.59,NSC,,HZ,68.0,OTHH 311800Z 12016KT 9000 NSC 20/16 Q1014 NOSIG,31,1,2023,18,0
OTHH,2023-01-31 19:00:00,51.6084,25.2746,-3.72,68.0,62.6,82.86,120.0,15.0,0.0,29.94,4.97,NSC,,HZ,68.0,OTHH 311900Z 12015KT 8000 NSC 20/17 Q1014 NOSIG,31,1,2023,19,0
OTHH,2023-01-31 20:00:00,51.6084,25.2746,-3.72,68.0,62.6,82.86,120.0,17.0,0.0,29.91,5.59,NSC,,HZ,68.0,OTHH 312000Z 12017KT 9000 NSC 20/17 Q1013 NOSIG,31,1,2023,20,0
OTHH,2023-01-31 21:00:00,51.6084,25.2746,-3.72,68.0,62.6,82.86,140.0,14.0,0.0,29.91,5.59,NSC,,HZ,68.0,OTHH 312100Z 14014KT 9000 NSC 20/17 Q1013 NOSIG,31,1,2023,21,0
OTHH,2023-02-01 10:00:00,51.6084,25.2746,-3.72,73.4,55.4,53.29,160.0,14.0,0.0,29.91,4.97,NSC,,HZ,73.4,OTHH 011000Z 16014KT 8000 NSC 23/13 Q1013 TEMPO 5000,1,2,2023,10,0
OTHH,2023-02-01 11:00:00,51.6084,25.2746,-3.72,71.6,57.2,60.44,150.0,14.0,0.0,29.88,1.74,NSC,,DU,71.6,OTHH 011100Z 15014KT 2800 DU NSC 22/14 Q1012 TEMPO 2000,1,2,2023,11,0
OTHH,2023-02-01 12:00:00,51.6084,25.2746,-3.72,73.4,59.0,60.67,150.0,13.0,0.0,29.88,1.12,NSC,,DU,73.4,OTHH 011200Z 15013KT 1800 DU NSC 23/15 Q1012 NOSIG,1,2,2023,12,0
OTHH,2023-02-01 13:00:00,51.6084,25.2746,-3.72,73.4,59.0,60.67,130.0,13.0,0.0,29.88,0.87,NSC,,DU,73.4,OTHH 011300Z 13013KT 1400 R16L/1400N R16R/2000N DU NSC 23/15 Q1012 NOSIG,1,2,2023,13,0
OTHH,2023-02-01 14:00:00,51.6084,25.2746,-3.72,71.6,60.8,68.75,120.0,12.0,0.0,29.88,1.55,NSC,,DU,71.6,OTHH 011400Z 12012KT 2500 DU NSC 22/16 Q1012 NOSIG,1,2,2023,14,0
OTHH,2023-02-01 15:00:00,51.6084,25.2746,-3.72,69.8,62.6,77.9,110.0,13.0,0.0,29.88,3.73,FEW,3000.0,HZ,69.8,OTHH 011500Z 11013KT 6000 FEW030 21/17 Q1012 NOSIG,1,2,2023,15,0
OTHH,2023-02-01 16:00:00,51.6084,25.2746,-3.72,71.6,62.6,73.27,120.0,13.0,0.0,29.91,4.97,FEW,3000.0,HZ,71.6,OTHH 011600Z 12013KT 8000 FEW030 22/17 Q1013 NOSIG,1,2,2023,16,0
OTHH,2023-02-01 17:00:00,51.6084,25.2746,-3.72,71.6,62.6,73.27,130.0,13.0,0.0,29.91,4.97,NSC,,HZ,71.6,OTHH 011700Z 13013KT 8000 NSC 22/17 Q1013 NOSIG,1,2,2023,17,0
OTHH,2023-02-01 18:00:00,51.6084,25.2746,-3.72,69.8,62.6,77.9,150.0,11.0,0.0,29.91,5.59,NSC,,HZ,69.8,OTHH 011800Z 15011KT 9000 NSC 21/17 Q1013 NOSIG,1,2,2023,18,0
OTHH,2023-02-01 19:00:00,51.6084,25.2746,-3.72,69.8,62.6,77.9,160.0,8.0,0.0,29.91,4.97,NSC,,HZ,69.8,OTHH 011900Z 16008KT 8000 NSC 21/17 Q1013 NOSIG,1,2,2023,19,0
OTHH,2023-02-01 20:00:00,51.6084,25.2746,-3.72,69.8,62.6,77.9,160.0,8.0,0.0,29.91,4.97,NSC,,HZ,69.8,OTHH 012000Z 16008KT 8000 NSC 21/17 Q1013 NOSIG,1,2,2023,20,0
OTHH,2023-02-02 04:00:00,51.6084,25.2746,-3.72,66.2,59.0,77.6,360.0,3.0,0.0,29.94,5.59,NSC,,HZ,66.2,OTHH 020400Z 36003KT 9000 NSC 19/15 Q1014 NOSIG,2,2,2023,4,0
OTHH,2023-02-02 19:00:00,51.6084,25.2746,-3.72,68.0,64.4,88.26,320.0,9.0,0.0,30.03,6.21,FEW,2000.0,HZ,68.0,OTHH 021900Z 32009KT 9999 FEW020 20/18 Q1017 NOSIG,2,2,2023,19,0
OTHH,2023-02-02 20:00:00,51.6084,25.2746,-3.72,68.0,64.4,88.26,330.0,11.0,0.0,30.03,4.97,SCT,1200.0,HZ,68.0,OTHH 022000Z 33011KT 8000 SCT012 SCT015 20/18 Q1017 NOSIG,2,2,2023,20,0
OTHH,2023-02-02 21:00:00,51.6084,25.2746,-3.72,68.0,62.6,82.86,330.0,11.0,0.0,30.03,4.97,SCT,1200.0,HZ,68.0,OTHH 022100Z 33011KT 8000 SCT012 SCT018 20/17 Q1017 NOSIG,2,2,2023,21,0
OTHH,2023-02-02 22:00:00,51.6084,25.2746,-3.72,66.2,62.6,88.18,330.0,11.0,0.0,30.03,4.97,SCT,1000.0,HZ,66.2,OTHH 022200Z 33011KT 8000 SCT010 SCT018 19/17 Q1017 NOSIG,2,2,2023,22,0
OTHH,2023-02-02 23:00:00,51.6084,25.2746,-3.72,66.2,62.6,88.18,320.0,9.0,0.0,30.03,4.97,SCT,1000.0,HZ,66.2,OTHH 022300Z 32009KT 8000 SCT010 19/17 Q1017 NOSIG,2,2,2023,23,0
OTHH,2023-02-03 00:00:00,51.6084,25.2746,-3.72,66.2,62.6,88.18,320.0,9.0,0.0,30.03,4.97,FEW,1400.0,HZ,66.2,OTHH 030000Z 32009KT 8000 FEW014 19/17 Q1017 NOSIG,3,2,2023,0,0
OTHH,2023-02-03 01:00:00,51.6084,25.2746,-3.72,66.2,62.6,88.18,320.0,9.0,0.0,30.03,4.97,SCT,1000.0,HZ,66.2,OTHH 030100Z 32009KT 8000 SCT010 19/17 Q1017 NOSIG,3,2,2023,1,0
OTHH,2023-02-03 02:00:00,51.6084,25.2746,-3.72,64.4,62.6,93.88,320.0,9.0,0.0,30.06,4.97,SCT,1000.0,HZ,64.4,OTHH 030200Z 32009KT 8000 SCT010 18/17 Q1018 NOSIG,3,2,2023,2,0
OTHH,2023-02-03 03:00:00,51.6084,25.2746,-3.72,64.4,60.8,88.09,320.0,10.0,0.0,30.06,4.35,FEW,1200.0,HZ,64.4,OTHH 030300Z 32010KT 7000 HZ FEW012 18/16 Q1018 TEMPO 5000 HZ,3,2,2023,3,0
OTHH,2023-02-03 04:00:00,51.6084,25.2746,-3.72,64.4,60.8,88.09,310.0,9.0,0.0,30.09,4.35,NSC,,HZ,64.4,OTHH 030400Z 31009KT 7000 NSC 18/16 Q1019 NOSIG,3,2,2023,4,0
OTHH,2023-02-03 05:00:00,51.6084,25.2746,-3.72,66.2,60.8,82.74,330.0,9.0,0.0,30.09,6.21,FEW,2500.0,HZ,66.2,OTHH 030500Z 33009KT 9999 FEW025 19/16 Q1019 NOSIG,3,2,2023,5,0
OTHH,2023-02-07 03:00:00,51.6084,25.2746,-3.72,68.0,64.4,88.26,120.0,15.0,0.0,29.85,5.59,NSC,,HZ,68.0,OTHH 070300Z 12015KT 9000 NSC 20/18 Q1011 NOSIG,7,2,2023,3,0
OTHH,2023-02-07 18:00:00,51.6084,25.2746,-3.72,73.4,53.6,49.9,330.0,10.0,0.0,29.85,5.59,NSC,,HZ,73.4,OTHH 071800Z 33010KT 9000 NSC 23/12 Q1011 NOSIG,7,2,2023,18,0
OTHH,2023-02-08 00:00:00,51.6084,25.2746,-3.72,66.2,62.6,88.18,340.0,16.0,0.0,29.88,4.97,NSC,,HZ,66.2,OTHH 080000Z 34016KT 8000 NSC 19/17 Q1012 NOSIG,8,2,2023,0,0
OTHH,2023-02-08 01:00:00,51.6084,25.2746,-3.72,66.2,62.6,88.18,340.0,16.0,0.0,29.88,4.35,FEW,800.0,HZ,66.2,OTHH 080100Z 34016KT 7000 FEW008 19/17 Q1012 NOSIG,8,2,2023,1,0
OTHH,2023-02-08 02:00:00,51.6084,25.2746,-3.72,66.2,62.6,88.18,340.0,15.0,0.0,29.91,4.35,SCT,800.0,HZ,66.2,OTHH 080200Z 34015KT 7000 SCT008 BKN010 19/17 Q1013 NOSIG,8,2,2023,2,0
OTHH,2023-02-08 03:00:00,51.6084,25.2746,-3.72,66.2,60.8,82.74,340.0,15.0,0.0,29.91,4.35,FEW,1200.0,HZ,66.2,OTHH 080300Z 34015KT 7000 FEW012 19/16 Q1013 NOSIG,8,2,2023,3,0
OTHH,2023-02-08 08:00:00,51.6084,25.2746,-3.72,71.6,57.2,60.44,350.0,18.0,0.0,29.97,4.35,NSC,,HZ,71.6,OTHH 080800Z 35018KT 7000 NSC 22/14 Q1015 NOSIG,8,2,2023,8,0
OTHH,2023-02-08 09:00:00,51.6084,25.2746,-3.72,73.4,57.2,56.88,360.0,19.0,0.0,29.94,4.35,NSC,,HZ,73.4,OTHH 080900Z 36019KT 7000 NSC 23/14 Q1014 NOSIG,8,2,2023,9,0
OTHH,2023-02-09 09:00:00,51.6084,25.2746,-3.72,69.8,41.0,35.09,340.0,16.0,0.0,30.15,6.21,FEW,4000.0,HZ,69.8,OTHH 090900Z 34016KT 9999 FEW040 21/05 Q1021 NOSIG,9,2,2023,9,0
OTHH,2023-02-09 10:00:00,51.6084,25.2746,-3.72,69.8,42.8,37.61,320.0,19.0,0.0,30.12,6.21,FEW,4000.0,HZ,69.8,OTHH 091000Z 32019KT 9999 FEW040 21/06 Q1020 NOSIG,9,2,2023,10,0
OTHH,2023-02-09 11:00:00,51.6084,25.2746,-3.72,69.8,44.6,40.29,330.0,16.0,0.0,30.12,6.21,FEW,4000.0,HZ,69.8,OTHH 091100Z 33016KT 9999 FEW040 21/07 Q1020 NOSIG,9,2,2023,11,0
OTHH,2023-02-09 12:00:00,51.6084,25.2746,-3.72,69.8,42.8,37.61,330.0,16.0,0.0,30.12,6.21,FEW,4700.0,HZ,69.8,OTHH 091200Z 33016KT 9999 FEW047 21/06 Q1020 NOSIG,9,2,2023,12,0
OTHH,2023-02-12 03:00:00,51.6084,25.2746,-3.72,62.6,59.0,88.0,,2.0,0.0,30.03,4.97,NSC,,HZ,62.6,OTHH 120300Z VRB02KT 8000 NSC 17/15 Q1017 NOSIG,12,2,2023,3,0
OTHH,2023-02-12 04:00:00,51.6084,25.2746,-3.72,62.6,60.8,93.83,,2.0,0.0,30.06,4.35,NSC,,HZ,62.6,OTHH 120400Z VRB02KT 7000 NSC 17/16 Q1018 NOSIG,12,2,2023,4,0
OTHH,2023-02-12 11:00:00,51.6084,25.2746,-3.72,71.6,64.4,78.04,100.0,8.0,0.0,30.0,6.21,FEW,3000.0,HZ,71.6,OTHH 121100Z 10008KT 070V150 9999 FEW030 22/18 Q1016 NOSIG,12,2,2023,11,0
OTHH,2023-02-12 17:00:00,51.6084,25.2746,-3.72,68.0,62.6,82.86,110.0,11.0,0.0,30.03,4.35,NSC,,HZ,68.0,OTHH 121700Z 11011KT 7000 NSC 20/17 Q1017 NOSIG,12,2,2023,17,0
OTHH,2023-02-12 18:00:00,51.6084,25.2746,-3.72,68.0,62.6,82.86,110.0,8.0,0.0,30.03,3.11,NSC,,HZ,68.0,OTHH 121800Z 11008KT 5000 HZ NSC 20/17 Q1017 NOSIG,12,2,2023,18,0
OTHH,2023-02-12 19:00:00,51.6084,25.2746,-3.72,68.0,62.6,82.86,120.0,7.0,0.0,30.03,3.11,NSC,,HZ,68.0,OTHH 121900Z 12007KT 5000 HZ NSC 20/17 Q1017 NOSIG,12,2,2023,19,0
OTHH,2023-02-12 20:00:00,51.6084,25.2746,-3.72,68.0,62.6,82.86,130.0,9.0,0.0,30.03,3.11,NSC,,HZ,68.0,OTHH 122000Z 13009KT 5000 HZ NSC 20/17 Q1017 NOSIG,12,2,2023,20,0
OTHH,2023-02-12 21:00:00,51.6084,25.2746,-3.72,68.0,62.6,82.86,120.0,8.0,0.0,30.0,4.97,NSC,,HZ,68.0,OTHH 122100Z 12008KT 8000 NSC 20/17 Q1016 NOSIG,12,2,2023,21,0
OTHH,2023-02-12 22:00:00,51.6084,25.2746,-3.72,68.0,64.4,88.26,130.0,7.0,0.0,30.0,4.97,NSC,,HZ,68.0,OTHH 122200Z 13007KT 8000 NSC 20/18 Q1016 NOSIG,12,2,2023,22,0
OTHH,2023-02-12 23:00:00,51.6084,25.2746,-3.72,68.0,62.6,82.86,140.0,8.0,0.0,30.0,5.59,NSC,,HZ,68.0,OTHH 122300Z 14008KT 9000 NSC 20/17 Q1016 NOSIG,12,2,2023,23,0
OTHH,2023-02-13 23:00:00,51.6084,25.2746,-3.72,66.2,62.6,88.18,330.0,8.0,0.0,29.97,3.73,NSC,,HZ,66.2,OTHH 132300Z 33008KT 6000 NSC 19/17 Q1015 TEMPO 5000 HZ,13,2,2023,23,0
OTHH,2023-02-14 00:00:00,51.6084,25.2746,-3.72,66.2,62.6,88.18,360.0,9.0,0.0,29.97,2.8,NSC,,HZ,66.2,OTHH 140000Z 36009KT 4500 HZ NSC 19/17 Q1015 TEMPO 4000 BR,14,2,2023,0,0
OTHH,2023-02-14 01:00:00,51.6084,25.2746,-3.72,66.2,64.4,93.92,20.0,7.0,0.0,29.97,3.11,NSC,,HZ,66.2,OTHH 140100Z 02007KT 5000 HZ NSC 19/18 Q1015 NOSIG,14,2,2023,1,0
OTHH,2023-02-14 02:00:00,51.6084,25.2746,-3.72,66.2,64.4,93.92,50.0,5.0,0.0,29.97,3.73,NSC,,HZ,66.2,OTHH 140200Z 05005KT 6000 NSC 19/18 Q1015 NOSIG,14,2,2023,2,0
OTHH,2023-02-14 03:00:00,51.6084,25.2746,-3.72,66.2,64.4,93.92,80.0,3.0,0.0,29.97,2.55,NSC,,BR,66.2,OTHH 140300Z 08003KT 4100 BR NSC 19/18 Q1015 TEMPO 3000,14,2,2023,3,0
OTHH,2023-02-15 08:00:00,51.6084,25.2746,-3.72,80.6,48.2,32.18,170.0,10.0,0.0,29.88,4.97,NSC,,HZ,79.71,OTHH 150800Z 17010KT 140V210 8000 NSC 27/09 Q1012 NOSIG,15,2,2023,8,0
OTHH,2023-02-15 09:00:00,51.6084,25.2746,-3.72,80.6,48.2,32.18,150.0,14.0,0.0,29.85,3.73,NSC,,HZ,79.71,OTHH 150900Z 15014KT 6000 NSC 27/09 Q1011 NOSIG,15,2,2023,9,0
OTHH,2023-02-15 10:00:00,51.6084,25.2746,-3.72,78.8,53.6,41.69,120.0,11.0,0.0,29.83,3.73,NSC,,HZ,78.8,OTHH 151000Z 12011KT 6000 NSC 26/12 Q1010 NOSIG,15,2,2023,10,0
OTHH,2023-02-15 11:00:00,51.6084,25.2746,-3.72,78.8,55.4,44.52,100.0,9.0,0.0,29.8,3.73,NSC,,HZ,78.8,OTHH 151100Z 10009KT 6000 NSC 26/13 Q1009 NOSIG,15,2,2023,11,0
OTHH,2023-02-15 12:00:00,51.6084,25.2746,-3.72,75.2,60.8,60.9,100.0,12.0,0.0,29.8,3.73,NSC,,HZ,75.2,OTHH 151200Z 10012KT 6000 NSC 24/16 Q1009 NOSIG,15,2,2023,12,0
OTHH,2023-02-15 13:00:00,51.6084,25.2746,-3.72,73.4,62.6,68.94,110.0,11.0,0.0,29.77,3.73,NSC,,HZ,73.4,OTHH 151300Z 11011KT 6000 NSC 23/17 Q1008 NOSIG,15,2,2023,13,0
OTHH,2023-02-15 14:00:00,51.6084,25.2746,-3.72,71.6,64.4,78.04,80.0,6.0,0.0,29.8,4.35,NSC,,HZ,71.6,OTHH 151400Z 08006KT 050V110 7000 NSC 22/18 Q1009 NOSIG,15,2,2023,14,0
OTHH,2023-02-15 15:00:00,51.6084,25.2746,-3.72,71.6,60.8,68.75,80.0,3.0,0.0,29.8,4.35,NSC,,HZ,71.6,OTHH 151500Z 08003KT 030V160 7000 NSC 22/16 Q1009 NOSIG,15,2,2023,15,0
OTHH,2023-02-15 16:00:00,51.6084,25.2746,-3.72,71.6,62.6,73.27,50.0,5.0,0.0,29.83,4.97,NSC,,HZ,71.6,OTHH 151600Z 05005KT 010V120 8000 NSC 22/17 Q1010 NOSIG,15,2,2023,16,0
OTHH,2023-02-15 17:00:00,51.6084,25.2746,-3.72,71.6,62.6,73.27,130.0,9.0,0.0,29.83,4.97,NSC,,HZ,71.6,OTHH 151700Z 13009KT 8000 NSC 22/17 Q1010 NOSIG,15,2,2023,17,0
OTHH,2023-02-15 18:00:00,51.6084,25.2746,-3.72,71.6,60.8,68.75,130.0,7.0,0.0,29.85,4.97,NSC,,HZ,71.6,OTHH 151800Z 13007KT 8000 NSC 22/16 Q1011 NOSIG,15,2,2023,18,0
OTHH,2023-02-15 19:00:00,51.6084,25.2746,-3.72,71.6,60.8,68.75,270.0,6.0,0.0,29.88,4.97,NSC,,HZ,71.6,OTHH 151900Z 27006KT 8000 NSC 22/16 Q1012 NOSIG,15,2,2023,19,0
OTHH,2023-02-15 20:00:00,51.6084,25.2746,-3.72,69.8,60.8,73.09,320.0,4.0,0.0,29.88,4.97,NSC,,HZ,69.8,OTHH 152000Z 32004KT 8000 NSC 21/16 Q1012 NOSIG,15,2,2023,20,0
OTHH,2023-02-15 21:00:00,51.6084,25.2746,-3.72,68.0,64.4,88.26,360.0,6.0,0.0,29.88,4.97,NSC,,HZ,68.0,OTHH 152100Z 36006KT 8000 NSC 20/18 Q1012 NOSIG,15,2,2023,21,0
OTHH,2023-02-15 22:00:00,51.6084,25.2746,-3.72,68.0,60.8,77.75,340.0,11.0,0.0,29.88,5.59,NSC,,HZ,68.0,OTHH 152200Z 34011KT 9000 NSC 20/16 Q1012 NOSIG,15,2,2023,22,0
OTHH,2023-02-15 23:00:00,51.6084,25.2746,-3.72,66.2,62.6,88.18,340.0,15.0,0.0,29.88,4.35,FEW,700.0,HZ,66.2,OTHH 152300Z 34015KT 7000 FEW007 19/17 Q1012 NOSIG,15,2,2023,23,0
OTHH,2023-02-16 00:00:00,51.6084,25.2746,-3.72,66.2,62.6,88.18,340.0,16.0,0.0,29.88,4.35,BKN,800.0,HZ,66.2,OTHH 160000Z 34016KT 7000 BKN008 BKN022 19/17 Q1012 NOSIG,16,2,2023,0,0
OTHH,2023-02-16 01:00:00,51.6084,25.2746,-3.72,66.2,60.8,82.74,340.0,17.0,0.0,29.91,5.59,SCT,1200.0,HZ,66.2,OTHH 160100Z 34017KT 9000 SCT012 BKN022 19/16 Q1013 NOSIG,16,2,2023,1,0
OTHH,2023-02-16 02:00:00,51.6084,25.2746,-3.72,66.2,60.8,82.74,340.0,15.0,0.0,29.91,6.21,SCT,1200.0,HZ,66.2,OTHH 160200Z 34015KT 9999 SCT012 BKN025 19/16 Q1013 NOSIG,16,2,2023,2,0
OTHH,2023-02-16 03:00:00,51.6084,25.2746,-3.72,66.2,60.8,82.74,340.0,15.0,0.0,29.97,4.97,SCT,1300.0,HZ,66.2,OTHH 160300Z 34015KT 8000 SCT013 BKN025 19/16 Q1015 NOSIG,16,2,2023,3,0
OTHH,2023-02-16 04:00:00,51.6084,25.2746,-3.72,66.2,59.0,77.6,340.0,18.0,0.0,29.97,4.97,BKN,1500.0,HZ,66.2,OTHH 160400Z 34018KT 8000 BKN015 19/15 Q1015 NOSIG,16,2,2023,4,0
OTHH,2023-02-16 05:00:00,51.6084,25.2746,-3.72,68.0,59.0,72.92,340.0,19.0,0.0,30.0,6.21,FEW,2000.0,HZ,68.0,OTHH 160500Z 34019KT 9999 FEW020 20/15 Q1016 NOSIG,16,2,2023,5,0
OTHH,2023-02-16 06:00:00,51.6084,25.2746,-3.72,69.8,59.0,68.55,340.0,19.0,0.0,30.03,6.21,FEW,2000.0,HZ,69.8,OTHH 160600Z 34019KT 9999 FEW020 21/15 Q1017 NOSIG,16,2,2023,6,0
OTHH,2023-02-16 07:00:00,51.6084,25.2746,-3.72,71.6,59.0,64.48,350.0,22.0,0.0,30.03,6.21,FEW,2000.0,HZ,71.6,OTHH 160700Z 35022KT 9999 FEW020 22/15 Q1017 NOSIG,16,2,2023,7,0
OTHH,2023-02-24 03:00:00,51.6084,25.2746,-3.72,66.2,60.8,82.74,150.0,13.0,0.0,29.83,4.97,NSC,,HZ,66.2,OTHH 240300Z 15013KT 8000 NSC 19/16 Q1010 NOSIG,24,2,2023,3,0
OTHH,2023-02-25 03:00:00,51.6084,25.2746,-3.72,68.0,60.8,77.75,20.0,4.0,0.0,29.94,4.97,NSC,,HZ,68.0,OTHH 250300Z 02004KT 8000 NSC 20/16 Q1014 NOSIG,25,2,2023,3,0
OTHH,2023-02-25 04:00:00,51.6084,25.2746,-3.72,68.0,64.4,88.26,10.0,6.0,0.0,29.97,4.97,NSC,,HZ,68.0,OTHH 250400Z 01006KT 8000 NSC 20/18 Q1015 NOSIG,25,2,2023,4,0
OTHH,2023-02-25 05:00:00,51.6084,25.2746,-3.72,69.8,64.4,82.98,360.0,5.0,0.0,29.97,4.97,NSC,,HZ,69.8,OTHH 250500Z 36005KT 8000 NSC 21/18 Q1015 NOSIG,25,2,2023,5,0
OTHH,2023-02-25 23:00:00,51.6084,25.2746,-3.72,71.6,64.4,78.04,130.0,10.0,0.0,29.94,5.59,NSC,,HZ,71.6,OTHH 252300Z 13010KT 9000 NSC 22/18 Q1014 NOSIG,25,2,2023,23,0
OTHH,2023-02-27 03:00:00,51.6084,25.2746,-3.72,71.6,64.4,78.04,50.0,6.0,0.0,30.0,6.21,FEW,4000.0,HZ,71.6,OTHH 270300Z 05006KT 9999 FEW040 SCT100 22/18 Q1016 RERA NOSIG,27,2,2023,3,0
OTHH,2023-02-27 04:00:00,51.6084,25.2746,-3.72,71.6,62.6,73.27,,2.0,0.0,30.03,6.21,FEW,4000.0,HZ,71.6,OTHH 270400Z VRB02KT 9999 FEW040 BKN090 22/17 Q1017 NOSIG,27,2,2023,4,0
OTHH,2023-02-27 05:00:00,51.6084,25.2746,-3.72,73.4,64.4,73.44,350.0,9.0,0.0,30.06,6.21,FEW,4000.0,HZ,73.4,OTHH 270500Z 35009KT 9999 FEW040 BKN090 23/18 Q1018 NOSIG,27,2,2023,5,0
OTHH,2023-02-27 07:00:00,51.6084,25.2746,-3.72,78.8,60.8,54.05,100.0,6.0,0.0,30.06,6.21,FEW,3500.0,HZ,78.8,OTHH 270700Z 10006KT 9999 FEW035 26/16 Q1018 NOSIG,27,2,2023,7,0
OTHH,2023-02-27 08:00:00,51.6084,25.2746,-3.72,78.8,60.8,54.05,360.0,11.0,0.0,30.06,6.21,FEW,3500.0,HZ,78.8,OTHH 270800Z 36011KT 330V120 9999 FEW035 26/16 Q1018 NOSIG,27,2,2023,8,0
OTHH,2023-02-27 09:00:00,51.6084,25.2746,-3.72,75.2,64.4,69.14,20.0,18.0,0.0,30.03,4.97,FEW,3500.0,HZ,75.2,OTHH 270900Z 02018KT 8000 FEW035 24/18 Q1017 NOSIG,27,2,2023,9,0
OTHH,2023-02-27 10:00:00,51.6084,25.2746,-3.72,75.2,62.6,64.91,40.0,17.0,0.0,30.0,4.97,FEW,3500.0,HZ,75.2,OTHH 271000Z 04017KT 8000 FEW035 SCT080 24/17 Q1016 NOSIG,27,2,2023,10,0
OTHH,2023-02-27 11:00:00,51.6084,25.2746,-3.72,77.0,62.6,61.13,40.0,17.0,0.0,29.97,4.97,FEW,3500.0,HZ,77.0,OTHH 271100Z 04017KT 8000 FEW035 SCT080 25/17 Q1015 NOSIG,27,2,2023,11,0
OTHH,2023-02-27 13:00:00,51.6084,25.2746,-3.72,75.2,64.4,69.14,40.0,14.0,0.0,29.94,6.21,FEW,3500.0,HZ,75.2,OTHH 271300Z 04014KT 9999 FEW035 BKN100 24/18 Q1014 NOSIG,27,2,2023,13,0
OTHH,2023-02-27 14:00:00,51.6084,25.2746,-3.72,77.0,57.2,50.43,60.0,15.0,0.0,29.91,6.21,FEW,3500.0,HZ,77.0,OTHH 271400Z 06015KT 9999 FEW035 25/14 Q1013 NOSIG,27,2,2023,14,0
OTHH,2023-02-27 15:00:00,51.6084,25.2746,-3.72,75.2,60.8,60.9,60.0,12.0,0.0,29.94,6.21,FEW,3500.0,HZ,75.2,OTHH 271500Z 06012KT 9999 FEW035 FEW040CB 24/16 Q1014 TEMPO TS,27,2,2023,15,0
OTHH,2023-02-27 16:00:00,51.6084,25.2746,-3.72,75.2,59.0,57.12,90.0,13.0,0.0,29.94,6.21,FEW,3500.0,HZ,75.2,OTHH 271600Z 09013KT 9999 FEW035 FEW040CB SCT100 24/15 Q1014 TEMPO TS,27,2,2023,16,0
OTHH,2023-02-27 17:00:00,51.6084,25.2746,-3.72,75.2,60.8,60.9,70.0,8.0,0.0,29.97,6.21,FEW,3500.0,HZ,75.2,OTHH 271700Z 07008KT 9999 FEW035 FEW040CB SCT100 24/16 Q1015 TEMPO TS,27,2,2023,17,0
OTHH,2023-02-27 18:00:00,51.6084,25.2746,-3.72,73.4,62.6,68.94,360.0,7.0,0.0,30.0,6.21,FEW,3500.0,TS,73.4,OTHH 271800Z 36007KT 330V030 9999 TS FEW035 FEW040CB SCT100 23/17 Q1016 NOSIG,27,2,2023,18,0
OTHH,2023-02-27 19:00:00,51.6084,25.2746,-3.72,75.2,59.0,57.12,90.0,10.0,0.0,29.97,6.21,FEW,3500.0,TS,75.2,OTHH 271900Z 09010KT 9999 TS FEW035 FEW040CB BKN100 24/15 Q1015 NOSIG,27,2,2023,19,0
OTHH,2023-02-27 20:00:00,51.6084,25.2746,-3.72,75.2,57.2,53.55,90.0,6.0,0.0,29.97,6.21,FEW,3500.0,-RA,75.2,OTHH 272000Z 09006KT 020V110 9999 -RA FEW035 24/14 Q1015 NOSIG,27,2,2023,20,0
OTHH,2023-02-28 00:00:00,51.6084,25.2746,-3.72,71.6,60.8,68.75,340.0,13.0,0.0,29.97,6.21,FEW,3500.0,HZ,71.6,OTHH 280000Z 34013KT 9999 FEW035 22/16 Q1015 NOSIG,28,2,2023,0,0
OTHH,2023-03-01 06:00:00,51.6084,25.2746,-3.72,73.4,51.8,46.71,300.0,14.0,0.0,30.09,6.21,FEW,4000.0,HZ,73.4,OTHH 010600Z 30014KT 9999 FEW040 23/11 Q1019 NOSIG,1,3,2023,6,0
OTHH,2023-03-02 03:00:00,51.6084,25.2746,-3.72,68.0,46.4,45.88,310.0,7.0,0.0,30.03,6.21,FEW,4000.0,HZ,68.0,OTHH 020300Z 31007KT 9999 FEW040 BKN120 20/08 Q1017 NOSIG,2,3,2023,3,0
OTHH,2023-03-02 05:00:00,51.6084,25.2746,-3.72,69.8,44.6,40.29,300.0,9.0,0.0,30.09,6.21,FEW,4000.0,HZ,69.8,OTHH 020500Z 30009KT 9999 FEW040 21/07 Q1019 NOSIG,2,3,2023,5,0
OTHH,2023-03-03 03:00:00,51.6084,25.2746,-3.72,60.8,53.6,77.14,220.0,3.0,0.0,30.09,4.97,NSC,,HZ,60.8,OTHH 030300Z 22003KT 8000 NSC 16/12 Q1019 NOSIG,3,3,2023,3,0
OTHH,2023-03-03 04:00:00,51.6084,25.2746,-3.72,62.6,53.6,72.38,110.0,3.0,0.0,30.09,4.97,NSC,,HZ,62.6,OTHH 030400Z 11003KT 8000 NSC 17/12 Q1019 NOSIG,3,3,2023,4,0
OTHH,2023-03-03 05:00:00,51.6084,25.2746,-3.72,68.0,57.2,68.35,240.0,3.0,0.0,30.12,4.97,NSC,,HZ,68.0,OTHH 030500Z 24003KT 220V290 8000 NSC 20/14 Q1020 NOSIG,3,3,2023,5,0
OTHH,2023-03-04 03:00:00,51.6084,25.2746,-3.72,62.6,55.4,77.29,0.0,0.0,0.0,30.12,4.97,NSC,,HZ,62.6,OTHH 040300Z 00000KT 8000 NSC 17/13 Q1020 NOSIG,4,3,2023,3,0
OTHH,2023-03-04 04:00:00,51.6084,25.2746,-3.72,66.2,59.0,77.6,200.0,2.0,0.0,30.12,5.59,NSC,,HZ,66.2,OTHH 040400Z 20002KT 9000 NSC 19/15 Q1020 NOSIG,4,3,2023,4,0
OTHH,2023-03-05 09:00:00,51.6084,25.2746,-3.72,82.4,46.4,28.36,150.0,6.0,0.0,30.12,3.11,NSC,,HZ,80.64,OTHH 050900Z 15006KT 5000 HZ NSC 28/08 Q1020 NOSIG,5,3,2023,9,0
OTHH,2023-03-08 03:00:00,51.6084,25.2746,-3.72,71.6,60.8,68.75,160.0,9.0,0.0,29.91,4.97,NSC,,HZ,71.6,OTHH 080300Z 16009KT 8000 NSC 22/16 Q1013 NOSIG,8,3,2023,3,0
OTHH,2023-03-08 04:00:00,51.6084,25.2746,-3.72,73.4,62.6,68.94,170.0,9.0,0.0,29.94,4.97,NSC,,HZ,73.4,OTHH 080400Z 17009KT 8000 NSC 23/17 Q1014 NOSIG,8,3,2023,4,0
OTHH,2023-03-08 05:00:00,51.6084,25.2746,-3.72,75.2,62.6,64.91,180.0,10.0,0.0,29.94,4.97,NSC,,HZ,75.2,OTHH 080500Z 18010KT 8000 NSC 24/17 Q1014 NOSIG,8,3,2023,5,0
OTHH,2023-03-08 06:00:00,51.6084,25.2746,-3.72,78.8,57.2,47.52,170.0,13.0,0.0,29.97,5.59,NSC,,HZ,78.8,OTHH 080600Z 17013KT 9000 NSC 26/14 Q1015 NOSIG,8,3,2023,6,0
OTHH,2023-03-08 11:00:00,51.6084,25.2746,-3.72,80.6,60.8,50.95,100.0,9.0,0.0,29.88,4.97,NSC,,HZ,81.46,OTHH 081100Z 10009KT 8000 NSC 27/16 Q1012 NOSIG,8,3,2023,11,0
OTHH,2023-03-08 12:00:00,51.6084,25.2746,-3.72,80.6,59.0,47.79,90.0,5.0,0.0,29.88,3.73,NSC,,HZ,81.11,OTHH 081200Z 09005KT 6000 NSC 27/15 Q1012 NOSIG,8,3,2023,12,0
OTHH,2023-03-08 13:00:00,51.6084,25.2746,-3.72,80.6,59.0,47.79,50.0,5.0,0.0,29.88,4.35,NSC,,HZ,81.11,OTHH 081300Z 05005KT 7000 NSC 27/15 Q1012 NOSIG,8,3,2023,13,0
OTHH,2023-03-08 14:00:00,51.6084,25.2746,-3.72,78.8,62.6,57.6,80.0,8.0,0.0,29.88,4.35,NSC,,HZ,78.8,OTHH 081400Z 08008KT 7000 NSC 26/17 Q1012 NOSIG,8,3,2023,14,0
OTHH,2023-03-08 15:00:00,51.6084,25.2746,-3.72,75.2,66.2,73.61,70.0,11.0,0.0,29.88,3.73,NSC,,HZ,75.2,OTHH 081500Z 07011KT 6000 NSC 24/19 Q1012 NOSIG,8,3,2023,15,0
OTHH,2023-03-08 16:00:00,51.6084,25.2746,-3.72,75.2,69.8,83.32,70.0,11.0,0.0,29.91,3.11,NSC,,HZ,75.2,OTHH 081600Z 07011KT 5000 HZ NSC 24/21 Q1013 NOSIG,8,3,2023,16,0
OTHH,2023-03-08 17:00:00,51.6084,25.2746,-3.72,75.2,68.0,78.34,60.0,12.0,0.0,29.91,3.73,NSC,,HZ,75.2,OTHH 081700Z 06012KT 6000 NSC 24/20 Q1013 NOSIG,8,3,2023,17,0
OTHH,2023-03-08 18:00:00,51.6084,25.2746,-3.72,75.2,64.4,69.14,60.0,9.0,0.0,29.91,4.35,NSC,,HZ,75.2,OTHH 081800Z 06009KT 7000 NSC 24/18 Q1013 NOSIG,8,3,2023,18,0
OTHH,2023-03-08 19:00:00,51.6084,25.2746,-3.72,73.4,66.2,78.19,80.0,7.0,0.0,29.91,4.35,NSC,,HZ,73.4,OTHH 081900Z 08007KT 7000 NSC 23/19 Q1013 NOSIG,8,3,2023,19,0
OTHH,2023-03-08 20:00:00,51.6084,25.2746,-3.72,73.4,68.0,83.21,80.0,6.0,0.0,29.91,4.35,NSC,,HZ,73.4,OTHH 082000Z 08006KT 7000 NSC 23/20 Q1013 NOSIG,8,3,2023,20,0
OTHH,2023-03-08 21:00:00,51.6084,25.2746,-3.72,73.4,68.0,83.21,110.0,7.0,0.0,29.88,4.35,NSC,,HZ,73.4,OTHH 082100Z 11007KT 7000 NSC 23/20 Q1012 NOSIG,8,3,2023,21,0
OTHH,2023-03-08 22:00:00,51.6084,25.2746,-3.72,73.4,66.2,78.19,120.0,9.0,0.0,29.88,4.35,NSC,,HZ,73.4,OTHH 082200Z 12009KT 7000 NSC 23/19 Q1012 NOSIG,8,3,2023,22,0
OTHH,2023-03-08 23:00:00,51.6084,25.2746,-3.72,73.4,66.2,78.19,110.0,6.0,0.0,29.85,4.35,NSC,,HZ,73.4,OTHH 082300Z 11006KT 7000 NSC 23/19 Q1011 NOSIG,8,3,2023,23,0
OTHH,2023-03-09 00:00:00,51.6084,25.2746,-3.72,73.4,62.6,68.94,110.0,4.0,0.0,29.85,4.97,NSC,,HZ,73.4,OTHH 090000Z 11004KT 8000 NSC 23/17 Q1011 NOSIG,9,3,2023,0,0
OTHH,2023-03-09 03:00:00,51.6084,25.2746,-3.72,73.4,66.2,78.19,150.0,9.0,0.0,29.88,4.35,NSC,,HZ,73.4,OTHH 090300Z 15009KT 7000 NSC 23/19 Q1012 NOSIG,9,3,2023,3,0
OTHH,2023-03-09 04:00:00,51.6084,25.2746,-3.72,75.2,66.2,73.61,130.0,9.0,0.0,29.91,4.97,NSC,,HZ,75.2,OTHH 090400Z 13009KT 8000 NSC 24/19 Q1013 NOSIG,9,3,2023,4,0
OTHH,2023-03-09 05:00:00,51.6084,25.2746,-3.72,77.0,66.2,69.33,130.0,8.0,0.0,29.91,4.97,NSC,,HZ,77.0,OTHH 090500Z 13008KT 8000 NSC 25/19 Q1013 NOSIG,9,3,2023,5,0
OTHH,2023-03-09 06:00:00,51.6084,25.2746,-3.72,78.8,66.2,65.33,100.0,8.0,0.0,29.91,5.59,NSC,,HZ,78.8,OTHH 090600Z 10008KT 9000 NSC 26/19 Q1013 NOSIG,9,3,2023,6,0
OTHH,2023-03-10 20:00:00,51.6084,25.2746,-3.72,73.4,66.2,78.19,360.0,19.0,0.0,29.94,6.21,FEW,1000.0,HZ,73.4,OTHH 102000Z 36019KT 9999 FEW010 23/19 Q1014 NOSIG,10,3,2023,20,0
OTHH,2023-03-10 21:00:00,51.6084,25.2746,-3.72,73.4,64.4,73.44,350.0,21.0,0.0,29.94,6.21,FEW,2000.0,HZ,73.4,OTHH 102100Z 35021KT 9999 FEW020 23/18 Q1014 NOSIG,10,3,2023,21,0
OTHH,2023-03-12 11:00:00,51.6084,25.2746,-3.72,82.4,62.6,51.21,100.0,9.0,0.0,29.88,5.59,NSC,,HZ,83.41,OTHH 121100Z 10009KT 070V130 9000 NSC 28/17 Q1012 NOSIG,12,3,2023,11,0
OTHH,2023-03-13 04:00:00,51.6084,25.2746,-3.72,75.2,66.2,73.61,340.0,10.0,0.0,29.91,5.59,NSC,,HZ,75.2,OTHH 130400Z 34010KT 9000 NSC 24/19 Q1013 TEMPO -RA,13,3,2023,4,0
OTHH,2023-03-13 05:00:00,51.6084,25.2746,-3.72,75.2,66.2,73.61,340.0,11.0,0.0,29.91,6.21,FEW,4000.0,-RA,75.2,OTHH 130500Z 34011KT 9999 -RA FEW040 BKN100 24/19 Q1013 NOSIG,13,3,2023,5,0
OTHH,2023-03-13 08:00:00,51.6084,25.2746,-3.72,75.2,60.8,60.9,300.0,15.0,0.0,29.97,6.21,SCT,3000.0,-RA,75.2,OTHH 130800Z 30015KT 9999 -RA SCT030 BKN080 24/16 Q1015 NOSIG,13,3,2023,8,0
OTHH,2023-03-13 09:00:00,51.6084,25.2746,-3.72,75.2,62.6,64.91,300.0,14.0,0.0,29.94,6.21,SCT,3500.0,-RA,75.2,OTHH 130900Z 30014KT 9999 -RA SCT035 BKN080 24/17 Q1014 NOSIG,13,3,2023,9,0
OTHH,2023-03-13 10:00:00,51.6084,25.2746,-3.72,71.6,64.4,78.04,280.0,11.0,0.0,29.94,5.59,SCT,3500.0,-RA,71.6,OTHH 131000Z 28011KT 9000 -RA SCT035 BKN080 22/18 Q1014 NOSIG,13,3,2023,10,0
OTHH,2023-03-13 11:00:00,51.6084,25.2746,-3.72,71.6,64.4,78.04,30.0,10.0,0.0,29.88,5.59,FEW,3500.0,-RA,71.6,OTHH 131100Z 03010KT 9000 -RA FEW035 OVC080 22/18 Q1012 NOSIG,13,3,2023,11,0
OTHH,2023-03-13 12:00:00,51.6084,25.2746,-3.72,73.4,64.4,73.44,30.0,11.0,0.0,29.88,5.59,NSC,,HZ,73.4,OTHH 131200Z 03011KT 9000 NSC 23/18 Q1012 RERA NOSIG,13,3,2023,12,0
OTHH,2023-03-13 13:00:00,51.6084,25.2746,-3.72,73.4,64.4,73.44,20.0,12.0,0.0,29.88,5.59,NSC,,HZ,73.4,OTHH 131300Z 02012KT 9000 NSC 23/18 Q1012 NOSIG,13,3,2023,13,0
OTHH,2023-03-14 03:00:00,51.6084,25.2746,-3.72,71.6,66.2,83.09,110.0,4.0,0.0,29.91,5.59,NSC,,HZ,71.6,OTHH 140300Z 11004KT 9000 NSC 22/19 Q1013 NOSIG,14,3,2023,3,0
OTHH,2023-03-14 04:00:00,51.6084,25.2746,-3.72,71.6,66.2,83.09,130.0,7.0,0.0,29.91,5.59,NSC,,HZ,71.6,OTHH 140400Z 13007KT 9000 NSC 22/19 Q1013 NOSIG,14,3,2023,4,0
OTHH,2023-03-15 03:00:00,51.6084,25.2746,-3.72,71.6,66.2,83.09,70.0,8.0,0.0,29.83,5.59,NSC,,HZ,71.6,OTHH 150300Z 07008KT 9000 NSC 22/19 Q1010 NOSIG,15,3,2023,3,0
OTHH,2023-03-15 04:00:00,51.6084,25.2746,-3.72,73.4,66.2,78.19,60.0,7.0,0.0,29.85,4.97,NSC,,HZ,73.4,OTHH 150400Z 06007KT 8000 NSC 23/19 Q1011 NOSIG,15,3,2023,4,0
OTHH,2023-03-15 12:00:00,51.6084,25.2746,-3.72,80.6,60.8,50.95,120.0,8.0,0.0,29.8,6.21,FEW,4000.0,HZ,81.46,OTHH 151200Z 12008KT 9999 FEW040 27/16 Q1009 NOSIG,15,3,2023,12,0
OTHH,2023-03-15 13:00:00,51.6084,25.2746,-3.72,78.8,62.6,57.6,90.0,5.0,0.0,29.8,6.21,FEW,4000.0,HZ,78.8,OTHH 151300Z 09005KT 9999 FEW040 SCT100 26/17 Q1009 NOSIG,15,3,2023,13,0
OTHH,2023-03-15 14:00:00,51.6084,25.2746,-3.72,78.8,64.4,61.36,120.0,6.0,0.0,29.8,4.97,FEW,4000.0,HZ,78.8,OTHH 151400Z 12006KT 8000 FEW040 26/18 Q1009 NOSIG,15,3,2023,14,0
OTHH,2023-03-15 15:00:00,51.6084,25.2746,-3.72,77.0,60.8,57.36,130.0,8.0,0.0,29.8,5.59,FEW,4000.0,HZ,77.0,OTHH 151500Z 13008KT 9000 FEW040 25/16 Q1009 NOSIG,15,3,2023,15,0
OTHH,2023-03-19 04:00:00,51.6084,25.2746,-3.72,73.4,42.8,33.29,300.0,5.0,0.0,29.83,6.21,FEW,4000.0,HZ,73.4,OTHH 190400Z 30005KT 260V320 9999 FEW040 23/06 Q1010 NOSIG,19,3,2023,4,0
OTHH,2023-03-19 05:00:00,51.6084,25.2746,-3.72,75.2,46.4,35.94,330.0,3.0,0.0,29.85,6.21,FEW,4000.0,HZ,75.2,OTHH 190500Z 33003KT 290V010 9999 FEW040 24/08 Q1011 NOSIG,19,3,2023,5,0
OTHH,2023-03-19 09:00:00,51.6084,25.2746,-3.72,84.2,42.8,23.33,110.0,7.0,0.0,29.83,6.21,FEW,4000.0,HZ,81.61,OTHH 190900Z 11007KT 9999 FEW040 29/06 Q1010 NOSIG,19,3,2023,9,0
OTHH,2023-03-19 11:00:00,51.6084,25.2746,-3.72,82.4,41.0,23.07,130.0,9.0,0.0,29.77,6.21,FEW,4000.0,HZ,80.29,OTHH 191100Z 13009KT 9999 FEW040 28/05 Q1008 NOSIG,19,3,2023,11,0
OTHH,2023-03-19 12:00:00,51.6084,25.2746,-3.72,84.2,42.8,23.33,120.0,8.0,0.0,29.74,6.21,FEW,4000.0,HZ,81.61,OTHH 191200Z 12008KT 9999 FEW040 29/06 Q1007 NOSIG,19,3,2023,12,0
OTHH,2023-03-20 03:00:00,51.6084,25.2746,-3.72,71.6,55.4,56.63,220.0,7.0,0.0,29.71,6.21,FEW,4000.0,HZ,71.6,OTHH 200300Z 22007KT 160V260 9999 FEW040 22/13 Q1006 NOSIG,20,3,2023,3,0
OTHH,2023-03-20 08:00:00,51.6084,25.2746,-3.72,86.0,50.0,28.9,130.0,6.0,0.0,29.74,6.21,FEW,4000.0,HZ,83.62,OTHH 200800Z 13006KT 060V170 9999 FEW040 30/10 Q1007 NOSIG,20,3,2023,8,0
OTHH,2023-03-20 09:00:00,51.6084,25.2746,-3.72,80.6,60.8,50.95,100.0,11.0,0.0,29.71,6.21,FEW,4000.0,HZ,81.46,OTHH 200900Z 10011KT 080V140 9999 FEW040 27/16 Q1006 NOSIG,20,3,2023,9,0
OTHH,2023-03-20 14:00:00,51.6084,25.2746,-3.72,78.8,64.4,61.36,100.0,8.0,0.0,29.62,6.21,FEW,4000.0,HZ,78.8,OTHH 201400Z 10008KT 9999 FEW040 26/18 Q1003 NOSIG,20,3,2023,14,0
OTHH,2023-03-21 02:00:00,51.6084,25.2746,-3.72,73.4,64.4,73.44,180.0,7.0,0.0,29.59,6.21,FEW,3000.0,HZ,73.4,OTHH 210200Z AUTO 18007KT 150V210 9999 FEW030 23/18 Q1002 NOSIG,21,3,2023,2,0
OTHH,2023-03-21 03:00:00,51.6084,25.2746,-3.72,73.4,62.6,68.94,240.0,4.0,0.0,29.62,6.21,FEW,4000.0,HZ,73.4,OTHH 210300Z 24004KT 190V280 9999 FEW040 23/17 Q1003 NOSIG,21,3,2023,3,0
OTHH,2023-03-21 10:00:00,51.6084,25.2746,-3.72,84.2,44.6,24.99,350.0,20.0,0.0,29.68,5.59,NSC,,HZ,81.73,OTHH 211000Z 35020KT 9000 NSC 29/07 Q1005 NOSIG,21,3,2023,10,0
OTHH,2023-03-22 08:00:00,51.6084,25.2746,-3.72,78.8,44.6,29.79,10.0,9.0,0.0,29.85,6.21,FEW,3000.0,HZ,78.8,OTHH 220800Z AUTO 01009KT 9999 FEW030 26/07 Q1011 NOSIG,22,3,2023,8,0
OTHH,2023-03-22 09:00:00,51.6084,25.2746,-3.72,80.6,44.6,28.08,300.0,12.0,0.0,29.83,6.21,FEW,3000.0,HZ,79.42,OTHH 220900Z AUTO 30012KT 260V330 9999 FEW030 27/07 Q1010 NOSIG,22,3,2023,9,0
OTHH,2023-03-22 10:00:00,51.6084,25.2746,-3.72,80.6,44.6,28.08,280.0,8.0,0.0,29.83,6.21,FEW,4000.0,HZ,79.42,OTHH 221000Z 28008KT 250V340 9999 FEW040 27/07 Q1010 NOSIG,22,3,2023,10,0
OTHH,2023-03-22 11:00:00,51.6084,25.2746,-3.72,82.4,39.2,21.51,300.0,9.0,0.0,29.8,6.21,FEW,4000.0,HZ,80.21,OTHH 221100Z 30009KT 260V340 9999 FEW040 28/04 Q1009 NOSIG,22,3,2023,11,0
OTHH,2023-03-22 12:00:00,51.6084,25.2746,-3.72,80.6,35.6,19.79,120.0,10.0,0.0,29.8,6.21,FEW,4000.0,HZ,78.94,OTHH 221200Z 12010KT 9999 FEW040 27/02 Q1009 NOSIG,22,3,2023,12,0
OTHH,2023-03-23 07:00:00,51.6084,25.2746,-3.72,75.2,46.4,35.94,320.0,8.0,0.0,29.94,6.21,FEW,3500.0,HZ,75.2,OTHH 230700Z 32008KT 260V360 9999 FEW035 24/08 Q1014 NOSIG,23,3,2023,7,0
OTHH,2023-03-23 08:00:00,51.6084,25.2746,-3.72,77.0,44.6,31.62,320.0,9.0,0.0,29.94,6.21,FEW,4000.0,HZ,77.0,OTHH 230800Z 32009KT 290V360 9999 FEW040 25/07 Q1014 NOSIG,23,3,2023,8,0
OTHH,2023-03-23 09:00:00,51.6084,25.2746,-3.72,78.8,44.6,29.79,310.0,8.0,0.0,29.91,6.21,FEW,4000.0,HZ,78.8,OTHH 230900Z 31008KT 270V340 9999 FEW040 26/07 Q1013 NOSIG,23,3,2023,9,0
OTHH,2023-03-23 10:00:00,51.6084,25.2746,-3.72,78.8,37.4,22.54,300.0,15.0,0.0,29.91,6.21,FEW,4000.0,HZ,78.8,OTHH 231000Z 30015KT 9999 FEW040 26/03 Q1013 NOSIG,23,3,2023,10,0
OTHH,2023-03-26 09:00:00,51.6084,25.2746,-3.72,77.0,68.0,73.78,110.0,12.0,0.0,29.83,6.21,FEW,4000.0,HZ,77.0,OTHH 260900Z 11012KT 9999 FEW040 25/20 Q1010 NOSIG,26,3,2023,9,0
OTHH,2023-03-26 13:00:00,51.6084,25.2746,-3.72,75.2,68.0,78.34,50.0,13.0,0.0,29.8,4.97,NSC,,HZ,75.2,OTHH 261300Z 05013KT 8000 NSC 24/20 Q1009 NOSIG,26,3,2023,13,0
OTHH,2023-03-26 14:00:00,51.6084,25.2746,-3.72,75.2,66.2,73.61,30.0,10.0,0.0,29.8,4.35,NSC,,HZ,75.2,OTHH 261400Z 03010KT 7000 NSC 24/19 Q1009 NOSIG,26,3,2023,14,0
OTHH,2023-03-26 15:00:00,51.6084,25.2746,-3.72,75.2,68.0,78.34,10.0,9.0,0.0,29.8,4.35,NSC,,HZ,75.2,OTHH 261500Z 01009KT 340V050 7000 NSC 24/20 Q1009 NOSIG,26,3,2023,15,0
OTHH,2023-03-26 19:00:00,51.6084,25.2746,-3.72,73.4,68.0,83.21,50.0,3.0,0.0,29.91,6.21,FEW,4000.0,-RA,73.4,OTHH 261900Z 05003KT 360V110 9999 -RA FEW040 OVC100 23/20 Q1013 NOSIG,26,3,2023,19,0
OTHH,2023-03-26 20:00:00,51.6084,25.2746,-3.72,73.4,68.0,83.21,340.0,4.0,0.0,29.88,6.21,FEW,4000.0,-RA,73.4,OTHH 262000Z 34004KT 9999 -RA FEW040 SCT090 BKN120 23/20 Q1012 NOSIG,26,3,2023,20,0
OTHH,2023-03-26 21:00:00,51.6084,25.2746,-3.72,73.4,68.0,83.21,80.0,14.0,0.0,29.77,6.21,FEW,4000.0,HZ,73.4,OTHH 262100Z 08014KT 9999 FEW040 SCT100 BKN140 23/20 Q1008 RERA NOSIG,26,3,2023,21,0
OTHH,2023-03-26 22:00:00,51.6084,25.2746,-3.72,73.4,68.0,83.21,140.0,12.0,0.0,29.8,6.21,FEW,4000.0,HZ,73.4,OTHH 262200Z 14012KT 9999 FEW040 SCT090 BKN120 23/20 Q1009 TEMPO -RA,26,3,2023,22,0
OTHH,2023-03-26 23:00:00,51.6084,25.2746,-3.72,73.4,64.4,73.44,150.0,18.0,0.0,29.74,6.21,FEW,4000.0,HZ,73.4,OTHH 262300Z 15018KT 9999 FEW040 BKN120 23/18 Q1007 RERA NOSIG,26,3,2023,23,0
OTHH,2023-03-27 12:00:00,51.6084,25.2746,-3.72,80.6,66.2,61.58,70.0,11.0,0.0,29.77,6.21,FEW,4000.0,HZ,82.75,OTHH 271200Z 07011KT 9999 FEW040 27/19 Q1008 NOSIG,27,3,2023,12,0
OTHH,2023-03-31 11:00:00,51.6084,25.2746,-3.72,84.2,46.4,26.76,140.0,10.0,0.0,29.74,6.21,FEW,4000.0,HZ,81.87,OTHH 311100Z 14010KT 9999 FEW040 29/08 Q1007 NOSIG,31,3,2023,11,0
OTHH,2023-03-31 14:00:00,51.6084,25.2746,-3.72,78.8,55.4,44.52,140.0,9.0,0.0,29.74,6.21,FEW,4000.0,HZ,78.8,OTHH 311400Z 14009KT 9999 FEW040 26/13 Q1007 NOSIG,31,3,2023,14,0
OTHH,2023-03-31 15:00:00,51.6084,25.2746,-3.72,77.0,62.6,61.13,160.0,9.0,0.0,29.74,6.21,FEW,4000.0,HZ,77.0,OTHH 311500Z 16009KT 9999 FEW040 25/17 Q1007 NOSIG,31,3,2023,15,0
OTHH,2023-04-01 05:00:00,51.6084,25.2746,-3.72,73.4,62.6,68.94,330.0,26.0,0.0,29.91,6.21,FEW,3000.0,HZ,73.4,OTHH 010500Z 33026KT 9999 FEW030 23/17 Q1013 NOSIG,1,4,2023,5,0
OTHH,2023-04-06 03:00:00,51.6084,25.2746,-3.72,68.0,55.4,64.04,240.0,6.0,0.0,29.85,6.21,FEW,4000.0,HZ,68.0,OTHH 060300Z 24006KT 210V350 9999 FEW040 20/13 Q1011 NOSIG,6,4,2023,3,0
OTHH,2023-04-10 08:00:00,51.6084,25.2746,-3.72,84.2,59.0,42.52,110.0,9.0,0.0,29.94,4.97,NSC,,HZ,83.92,OTHH 100800Z 11009KT 8000 NSC 29/15 Q1014 NOSIG,10,4,2023,8,0
OTHH,2023-04-10 09:00:00,51.6084,25.2746,-3.72,84.2,59.0,42.52,120.0,10.0,0.0,29.91,4.97,NSC,,HZ,83.92,OTHH 100900Z 12010KT 8000 NSC 29/15 Q1013 NOSIG,10,4,2023,9,0
OTHH,2023-04-11 03:00:00,51.6084,25.2746,-3.72,71.6,66.2,83.09,160.0,7.0,0.0,29.85,5.59,NSC,,HZ,71.6,OTHH 110300Z 16007KT 9000 NSC 22/19 Q1011 NOSIG,11,4,2023,3,0
OTHH,2023-04-11 09:00:00,51.6084,25.2746,-3.72,82.4,53.6,37.07,160.0,9.0,0.0,29.91,6.21,FEW,4000.0,HZ,81.46,OTHH 110900Z 16009KT 9999 FEW040 FEW045TCU 28/12 Q1013 NOSIG,11,4,2023,9,0
OTHH,2023-04-11 13:00:00,51.6084,25.2746,-3.72,84.2,60.8,45.34,100.0,8.0,0.0,29.83,6.21,FEW,4500.0,HZ,84.43,OTHH 111300Z 10008KT 9999 FEW045 29/16 Q1010 NOSIG,11,4,2023,13,0
OTHH,2023-04-11 14:00:00,51.6084,25.2746,-3.72,82.4,59.0,45.07,90.0,7.0,0.0,29.83,6.21,FEW,4500.0,HZ,82.46,OTHH 111400Z 09007KT 9999 FEW045 28/15 Q1010 NOSIG,11,4,2023,14,0
OTHH,2023-04-13 03:00:00,51.6084,25.2746,-3.72,75.2,64.4,69.14,340.0,27.0,0.0,29.94,5.59,NSC,,HZ,75.2,OTHH 130300Z 34027KT 9000 NSC 24/18 Q1014 NOSIG,13,4,2023,3,0
OTHH,2023-04-13 05:00:00,51.6084,25.2746,-3.72,77.0,64.4,65.12,10.0,17.0,0.0,29.97,6.21,FEW,4500.0,HZ,77.0,OTHH 130500Z 01017G34KT 9999 FEW045 25/18 Q1015 NOSIG,13,4,2023,5,0
OTHH,2023-04-13 07:00:00,51.6084,25.2746,-3.72,77.0,68.0,73.78,60.0,20.0,0.0,29.91,6.21,FEW,4500.0,HZ,77.0,OTHH 130700Z 06020KT 9999 FEW045 25/20 Q1013 NOSIG,13,4,2023,7,0
OTHH,2023-04-13 08:00:00,51.6084,25.2746,-3.72,80.6,66.2,61.58,60.0,17.0,0.0,29.88,6.21,FEW,4500.0,HZ,82.75,OTHH 130800Z 06017KT 9999 FEW045 27/19 Q1012 NOSIG,13,4,2023,8,0
OTHH,2023-04-13 23:00:00,51.6084,25.2746,-3.72,77.0,69.8,78.48,360.0,21.0,0.0,29.91,6.21,FEW,4000.0,HZ,77.0,OTHH 132300Z 36021KT 9999 FEW040 25/21 Q1013 NOSIG,13,4,2023,23,0
OTHH,2023-04-14 00:00:00,51.6084,25.2746,-3.72,75.2,69.8,83.32,350.0,20.0,0.0,29.91,6.21,FEW,1500.0,HZ,75.2,OTHH 140000Z 35020KT 9999 FEW015 SCT120 OVC220 24/21 Q1013 NOSIG,14,4,2023,0,0
OTHH,2023-04-14 01:00:00,51.6084,25.2746,-3.72,75.2,69.8,83.32,350.0,15.0,0.0,29.94,6.21,FEW,2000.0,HZ,75.2,OTHH 140100Z 35015KT 9999 FEW020 OVC220 24/21 Q1014 NOSIG,14,4,2023,1,0
OTHH,2023-04-14 02:00:00,51.6084,25.2746,-3.72,75.2,68.0,78.34,230.0,9.0,0.0,30.03,6.21,FEW,2000.0,HZ,75.2,OTHH 140200Z 23009KT 170V270 9999 FEW020 OVC220 24/20 Q1017 NOSIG,14,4,2023,2,0
OTHH,2023-04-14 03:00:00,51.6084,25.2746,-3.72,75.2,68.0,78.34,260.0,9.0,0.0,30.03,5.59,NSC,,HZ,75.2,OTHH 140300Z 26009G20KT 240V320 9000 NSC 24/20 Q1017 NOSIG,14,4,2023,3,0
OTHH,2023-04-14 04:00:00,51.6084,25.2746,-3.72,75.2,68.0,78.34,330.0,10.0,0.0,30.03,6.21,FEW,4000.0,HZ,75.2,OTHH 140400Z 33010KT 9999 FEW040 SCT100 BKN200 24/20 Q1017 TEMPO 6000 SHRA,14,4,2023,4,0
OTHH,2023-04-14 05:00:00,51.6084,25.2746,-3.72,77.0,66.2,69.33,330.0,16.0,0.0,30.03,6.21,FEW,4000.0,HZ,77.0,OTHH 140500Z 33016KT 9999 FEW040 SCT100 BKN200 25/19 Q1017 NOSIG,14,4,2023,5,0
OTHH,2023-04-15 13:00:00,51.6084,25.2746,-3.72,80.6,48.2,32.18,320.0,19.0,0.0,29.91,6.21,FEW,4500.0,HZ,79.71,OTHH 151300Z 32019KT 9999 FEW045 27/09 Q1013 NOSIG,15,4,2023,13,0
OTHH,2023-04-16 07:00:00,51.6084,25.2746,-3.72,80.6,51.8,36.79,340.0,13.0,0.0,29.88,6.21,FEW,3500.0,HZ,80.08,OTHH 160700Z 34013KT 9999 FEW035 27/11 Q1012 NOSIG,16,4,2023,7,0
OTHH,2023-04-16 08:00:00,51.6084,25.2746,-3.72,84.2,48.2,28.63,350.0,14.0,0.0,29.88,6.21,FEW,4000.0,HZ,82.04,OTHH 160800Z 35014KT 9999 FEW040 29/09 Q1012 NOSIG,16,4,2023,8,0
OTHH,2023-04-16 09:00:00,51.6084,25.2746,-3.72,82.4,50.0,32.46,350.0,14.0,0.0,29.88,6.21,FEW,4000.0,HZ,80.99,OTHH 160900Z 35014KT 9999 FEW040 28/10 Q1012 NOSIG,16,4,2023,9,0
OTHH,2023-04-17 02:00:00,51.6084,25.2746,-3.72,71.6,55.4,56.63,260.0,7.0,0.0,29.83,6.21,FEW,4500.0,HZ,71.6,OTHH 170200Z 26007KT 9999 FEW045 22/13 Q1010 NOSIG,17,4,2023,2,0
OTHH,2023-04-21 23:00:00,51.6084,25.2746,-3.72,73.4,64.4,73.44,170.0,3.0,0.0,29.71,4.97,NSC,,HZ,73.4,OTHH 212300Z 17003KT 140V200 8000 NSC 23/18 Q1006 NOSIG,21,4,2023,23,0
OTHH,2023-04-22 00:00:00,51.6084,25.2746,-3.72,73.4,66.2,78.19,130.0,4.0,0.0,29.71,4.97,NSC,,HZ,73.4,OTHH 220000Z 13004KT 8000 NSC 23/19 Q1006 NOSIG,22,4,2023,0,0
OTHH,2023-04-22 01:00:00,51.6084,25.2746,-3.72,73.4,66.2,78.19,150.0,4.0,0.0,29.71,4.97,NSC,,HZ,73.4,OTHH 220100Z 15004KT 8000 NSC 23/19 Q1006 NOSIG,22,4,2023,1,0
OTHH,2023-04-22 02:00:00,51.6084,25.2746,-3.72,71.6,66.2,83.09,120.0,3.0,0.0,29.74,4.35,NSC,,HZ,71.6,OTHH 220200Z 12003KT 7000 NSC 22/19 Q1007 NOSIG,22,4,2023,2,0
OTHH,2023-04-22 03:00:00,51.6084,25.2746,-3.72,71.6,66.2,83.09,140.0,4.0,0.0,29.74,5.59,NSC,,HZ,71.6,OTHH 220300Z 14004KT 110V180 9000 NSC 22/19 Q1007 NOSIG,22,4,2023,3,0
OTHH,2023-04-22 13:00:00,51.6084,25.2746,-3.72,87.8,57.2,35.53,90.0,7.0,0.0,29.74,5.59,NSC,,HZ,86.58,OTHH 221300Z 09007KT 9000 NSC 31/14 Q1007 NOSIG,22,4,2023,13,0
OTHH,2023-04-22 14:00:00,51.6084,25.2746,-3.72,84.2,60.8,45.34,60.0,6.0,0.0,29.74,4.97,NSC,,HZ,84.43,OTHH 221400Z 06006KT 8000 NSC 29/16 Q1007 NOSIG,22,4,2023,14,0
OTHH,2023-04-22 15:00:00,51.6084,25.2746,-3.72,82.4,62.6,51.21,60.0,7.0,0.0,29.74,5.59,NSC,,HZ,83.41,OTHH 221500Z 06007KT 9000 NSC 28/17 Q1007 NOSIG,22,4,2023,15,0
OTHH,2023-04-23 03:00:00,51.6084,25.2746,-3.72,77.0,51.8,41.42,170.0,4.0,0.0,29.77,5.59,NSC,,HZ,77.0,OTHH 230300Z 17004KT 140V210 9000 NSC 25/11 Q1008 NOSIG,23,4,2023,3,0
OTHH,2023-04-23 15:00:00,51.6084,25.2746,-3.72,84.2,59.0,42.52,120.0,6.0,0.0,29.74,6.21,FEW,4000.0,HZ,83.92,OTHH 231500Z 12006KT 090V150 9999 FEW040 29/15 Q1007 NOSIG,23,4,2023,15,0
OTHH,2023-04-24 10:00:00,51.6084,25.2746,-3.72,91.4,62.6,38.45,80.0,9.0,0.0,29.71,6.21,FEW,4500.0,HZ,92.23,OTHH 241000Z 08009KT 9999 FEW045 33/17 Q1006 NOSIG,24,4,2023,10,0
OTHH,2023-04-24 11:00:00,51.6084,25.2746,-3.72,87.8,68.0,51.98,100.0,13.0,0.0,29.71,6.21,FEW,4500.0,HZ,91.43,OTHH 241100Z 10013KT 9999 FEW045 31/20 Q1006 NOSIG,24,4,2023,11,0
OTHH,2023-04-24 12:00:00,51.6084,25.2746,-3.72,86.0,68.0,55.04,100.0,15.0,0.0,29.68,6.21,FEW,4000.0,HZ,89.41,OTHH 241200Z 10015KT 9999 FEW040 FEW045TCU 30/20 Q1005 NOSIG,24,4,2023,12,0
OTHH,2023-04-24 13:00:00,51.6084,25.2746,-3.72,86.0,66.2,51.72,100.0,10.0,0.0,29.68,6.21,FEW,4000.0,TS,88.39,OTHH 241300Z 10010KT 9999 TS FEW040 FEW045CB SCT100 30/19 Q1005 TEMPO -TSRA,24,4,2023,13,0
OTHH,2023-04-24 14:00:00,51.6084,25.2746,-3.72,86.0,64.4,48.58,90.0,6.0,0.0,29.68,6.21,FEW,4000.0,HZ,87.49,OTHH 241400Z 09006KT 9999 FEW040 30/18 Q1005 NOSIG,24,4,2023,14,0
OTHH,2023-04-24 15:00:00,51.6084,25.2746,-3.72,84.2,66.2,54.8,80.0,5.0,0.0,29.68,6.21,FEW,4000.0,HZ,86.5,OTHH 241500Z 08005KT 9999 FEW040 FEW045TCU 29/19 Q1005 NOSIG,24,4,2023,15,0
OTHH,2023-04-24 16:00:00,51.6084,25.2746,-3.72,84.2,64.4,51.47,180.0,11.0,0.0,29.74,6.21,FEW,4000.0,TS,85.71,OTHH 241600Z 18011KT 110V250 9999 TS FEW040 FEW045CB 29/18 Q1007 NOSIG,24,4,2023,16,0
OTHH,2023-04-24 17:00:00,51.6084,25.2746,-3.72,84.2,62.6,48.32,200.0,9.0,0.0,29.74,6.21,FEW,4000.0,HZ,85.03,OTHH 241700Z 20009KT 9999 FEW040 29/17 Q1007 NOSIG,24,4,2023,17,0
OTHH,2023-04-25 10:00:00,51.6084,25.2746,-3.72,87.8,66.2,48.84,50.0,12.0,0.0,29.74,6.21,FEW,4500.0,HZ,90.31,OTHH 251000Z 05012KT 040V130 9999 FEW045 31/19 Q1007 NOSIG,25,4,2023,10,0
OTHH,2023-04-26 09:00:00,51.6084,25.2746,-3.72,86.0,57.2,37.62,340.0,10.0,0.0,29.83,6.21,FEW,4000.0,HZ,84.97,OTHH 260900Z 34010KT 300V010 9999 FEW040 SCT090 BKN200 30/14 Q1010 NOSIG,26,4,2023,9,0
OTHH,2023-04-26 10:00:00,51.6084,25.2746,-3.72,80.6,59.0,47.79,330.0,15.0,0.0,29.8,6.21,FEW,3000.0,-TSRA,81.11,OTHH 261000Z 33015KT 9999 -TSRA FEW030 FEW040CB BKN120 27/15 Q1009 NOSIG,26,4,2023,10,0
OTHH,2023-04-26 11:00:00,51.6084,25.2746,-3.72,82.4,60.8,48.05,320.0,13.0,0.0,29.8,6.21,FEW,3500.0,HZ,82.9,OTHH 261100Z 32013KT 9999 FEW035 FEW040TCU BKN120 28/16 Q1009 RETS NOSIG,26,4,2023,11,0
OTHH,2023-04-26 12:00:00,51.6084,25.2746,-3.72,84.2,60.8,45.34,360.0,10.0,0.0,29.74,6.21,FEW,3500.0,HZ,84.43,OTHH 261200Z 36010KT 9999 FEW035 BKN100 29/16 Q1007 NOSIG,26,4,2023,12,0
OTHH,2023-04-26 13:00:00,51.6084,25.2746,-3.72,84.2,66.2,54.8,360.0,9.0,0.0,29.74,6.21,FEW,4500.0,HZ,86.5,OTHH 261300Z 36009KT 9999 FEW045 29/19 Q1007 NOSIG,26,4,2023,13,0
OTHH,2023-04-26 14:00:00,51.6084,25.2746,-3.72,82.4,66.2,58.08,360.0,11.0,0.0,29.74,6.21,FEW,4500.0,HZ,84.63,OTHH 261400Z 36011KT 9999 FEW045 28/19 Q1007 NOSIG,26,4,2023,14,0
OTHH,2023-04-28 22:00:00,51.6084,25.2746,-3.72,80.6,59.0,47.79,260.0,8.0,0.0,29.71,6.21,FEW,4500.0,HZ,81.11,OTHH 282200Z 26008KT 220V280 9999 FEW045 27/15 Q1006 NOSIG,28,4,2023,22,0
OTHH,2023-04-30 12:00:00,51.6084,25.2746,-3.72,98.6,42.8,14.87,130.0,11.0,0.0,29.62,6.21,FEW,4000.0,HZ,94.3,OTHH 301200Z 13011KT 9999 FEW040 37/06 Q1003 NOSIG,30,4,2023,12,0
OTHH,2023-04-30 13:00:00,51.6084,25.2746,-3.72,98.6,46.4,17.05,120.0,10.0,0.0,29.59,6.21,FEW,4000.0,HZ,94.84,OTHH 301300Z 12010KT 9999 FEW040 37/08 Q1002 NOSIG,30,4,2023,13,0
OTHH,2023-04-30 14:00:00,51.6084,25.2746,-3.72,91.4,62.6,38.45,110.0,11.0,0.0,29.59,6.21,FEW,4000.0,HZ,92.23,OTHH 301400Z 11011KT 9999 FEW040 33/17 Q1002 NOSIG,30,4,2023,14,0
OTHH,2023-04-30 15:00:00,51.6084,25.2746,-3.72,87.8,66.2,48.84,100.0,9.0,0.0,29.62,6.21,FEW,4000.0,HZ,90.31,OTHH 301500Z 10009KT 9999 FEW040 31/19 Q1003 NOSIG,30,4,2023,15,0
OTHH,2023-05-07 02:00:00,51.6084,25.2746,-3.72,68.0,59.0,72.92,,1.0,0.0,29.77,5.59,NSC,,HZ,68.0,OTHH 070200Z VRB01KT 9000 NSC 20/15 Q1008 NOSIG,7,5,2023,2,0
OTHH,2023-05-07 18:00:00,51.6084,25.2746,-3.72,80.6,71.6,74.11,,2.0,0.0,29.77,4.97,NSC,,HZ,84.57,OTHH 071800Z VRB02KT 8000 NSC 27/22 Q1008 NOSIG,7,5,2023,18,0
OTHH,2023-05-07 19:00:00,51.6084,25.2746,-3.72,78.8,71.6,78.62,,2.0,0.0,29.77,3.73,NSC,,HZ,78.8,OTHH 071900Z VRB02KT 6000 NSC 26/22 Q1008 TEMPO 5000 HZ,7,5,2023,19,0
OTHH,2023-05-07 20:00:00,51.6084,25.2746,-3.72,77.0,71.6,83.44,120.0,3.0,0.0,29.74,3.73,NSC,,HZ,77.0,OTHH 072000Z 12003KT 6000 NSC 25/22 Q1007 NOSIG,7,5,2023,20,0
OTHH,2023-05-07 21:00:00,51.6084,25.2746,-3.72,78.8,73.4,83.55,150.0,3.0,0.0,29.74,4.35,NSC,,HZ,78.8,OTHH 072100Z 15003KT 110V240 7000 NSC 26/23 Q1007 TEMPO 5000 HZ,7,5,2023,21,0
OTHH,2023-05-07 22:00:00,51.6084,25.2746,-3.72,78.8,73.4,83.55,140.0,3.0,0.0,29.71,4.97,NSC,,HZ,78.8,OTHH 072200Z 14003KT 8000 NSC 26/23 Q1006 TEMPO 5000 HZ,7,5,2023,22,0
OTHH,2023-05-07 23:00:00,51.6084,25.2746,-3.72,78.8,68.0,69.52,120.0,5.0,0.0,29.71,4.97,NSC,,HZ,78.8,OTHH 072300Z AUTO 12005KT 8000 NSC 26/20 Q1006 NOSIG,7,5,2023,23,0
OTHH,2023-05-08 00:00:00,51.6084,25.2746,-3.72,78.8,71.6,78.62,140.0,4.0,0.0,29.71,4.97,NSC,,HZ,78.8,OTHH 080000Z AUTO 14004KT 8000 NSC 26/22 Q1006 NOSIG,8,5,2023,0,0
OTHH,2023-05-08 01:00:00,51.6084,25.2746,-3.72,77.0,73.4,88.67,150.0,6.0,0.0,29.71,4.97,NSC,,HZ,77.0,OTHH 080100Z AUTO 15006KT 130V200 8000 NSC 25/23 Q1006 NOSIG,8,5,2023,1,0
OTHH,2023-05-08 02:00:00,51.6084,25.2746,-3.72,78.8,73.4,83.55,110.0,6.0,0.0,29.71,0.93,NSC,,BR,78.8,OTHH 080200Z 11006KT 1500 BR NSC 26/23 Q1006 TEMPO 1000 FG,8,5,2023,2,0
OTHH,2023-05-08 03:00:00,51.6084,25.2746,-3.72,78.8,73.4,83.55,120.0,7.0,0.0,29.74,1.86,NSC,,HZ,78.8,OTHH 080300Z 12007KT 3000 HZ NSC 26/23 Q1007 NOSIG,8,5,2023,3,0
OTHH,2023-05-14 11:00:00,51.6084,25.2746,-3.72,91.4,73.4,55.77,10.0,13.0,0.0,29.68,5.59,NSC,,HZ,100.52,OTHH 141100Z 01013KT 9000 NSC 33/23 Q1005 NOSIG,14,5,2023,11,0
OTHH,2023-05-14 12:00:00,51.6084,25.2746,-3.72,93.2,69.8,46.67,360.0,16.0,0.0,29.68,5.59,NSC,,HZ,99.17,OTHH 141200Z 36016KT 9000 NSC 34/21 Q1005 NOSIG,14,5,2023,12,0
OTHH,2023-05-18 04:00:00,51.6084,25.2746,-3.72,89.6,51.8,27.56,270.0,11.0,0.0,29.83,5.59,NSC,,HZ,87.0,OTHH 180400Z 27011G24KT 9000 NSC 32/11 Q1010 NOSIG,18,5,2023,4,0
OTHH,2023-05-18 06:00:00,51.6084,25.2746,-3.72,96.8,50.0,20.62,250.0,7.0,0.0,29.83,3.73,FEW,4500.0,HZ,93.71,OTHH 180600Z 25007KT 210V320 6000 FEW045 36/10 Q1010 NOSIG,18,5,2023,6,0
OTHH,2023-05-18 07:00:00,51.6084,25.2746,-3.72,96.8,51.8,22.04,360.0,4.0,0.0,29.83,3.11,FEW,4500.0,HZ,94.12,OTHH 180700Z 36004KT 300V020 5000 FEW045 36/11 Q1010 TEMPO 4500,18,5,2023,7,0
OTHH,2023-05-18 08:00:00,51.6084,25.2746,-3.72,96.8,62.6,32.54,100.0,6.0,0.0,29.8,4.35,FEW,4500.0,HZ,98.28,OTHH 180800Z 10006KT 7000 FEW045 36/17 Q1009 NOSIG,18,5,2023,8,0
OTHH,2023-05-18 09:00:00,51.6084,25.2746,-3.72,95.0,60.8,32.27,40.0,8.0,0.0,29.8,4.35,FEW,4500.0,HZ,95.3,OTHH 180900Z 04008KT 340V060 7000 FEW045 35/16 Q1009 NOSIG,18,5,2023,9,0
OTHH,2023-05-18 10:00:00,51.6084,25.2746,-3.72,91.4,64.4,40.96,50.0,12.0,0.0,29.77,6.21,FEW,4500.0,HZ,93.19,OTHH 181000Z 05012KT 9999 FEW045 33/18 Q1008 NOSIG,18,5,2023,10,0
OTHH,2023-05-19 04:00:00,51.6084,25.2746,-3.72,87.8,69.8,55.29,50.0,7.0,0.0,29.77,6.21,FEW,4000.0,HZ,92.71,OTHH 190400Z 05007KT 360V070 9999 FEW040 31/21 Q1008 NOSIG,19,5,2023,4,0
OTHH,2023-05-19 05:00:00,51.6084,25.2746,-3.72,89.6,64.4,43.34,290.0,13.0,0.0,29.8,6.21,FEW,4000.0,HZ,91.23,OTHH 190500Z 29013KT 9999 FEW040 32/18 Q1009 NOSIG,19,5,2023,5,0
OTHH,2023-05-19 06:00:00,51.6084,25.2746,-3.72,91.4,68.0,46.41,290.0,10.0,0.0,29.83,6.21,FEW,4000.0,HZ,95.55,OTHH 190600Z 29010KT 250V330 9999 FEW040 33/20 Q1010 NOSIG,19,5,2023,6,0
OTHH,2023-05-19 07:00:00,51.6084,25.2746,-3.72,91.4,68.0,46.41,360.0,11.0,0.0,29.8,6.21,FEW,4000.0,HZ,95.55,OTHH 190700Z 36011KT 9999 FEW040 33/20 Q1009 NOSIG,19,5,2023,7,0
OTHH,2023-05-19 08:00:00,51.6084,25.2746,-3.72,95.0,62.6,34.39,,3.0,0.0,29.8,6.21,FEW,4000.0,HZ,96.22,OTHH 190800Z VRB03KT 9999 FEW040 35/17 Q1009 NOSIG,19,5,2023,8,0
OTHH,2023-05-19 09:00:00,51.6084,25.2746,-3.72,98.6,59.0,27.1,320.0,3.0,0.0,29.8,6.21,FEW,4000.0,HZ,98.52,OTHH 190900Z 32003KT 260V020 9999 FEW040 37/15 Q1009 NOSIG,19,5,2023,9,0
OTHH,2023-05-20 02:00:00,51.6084,25.2746,-3.72,86.0,69.8,58.55,140.0,7.0,0.0,29.68,6.21,FEW,4500.0,HZ,90.58,OTHH 200200Z 14007KT 090V160 9999 FEW045 30/21 Q1005 NOSIG,20,5,2023,2,0
OTHH,2023-05-20 03:00:00,51.6084,25.2746,-3.72,84.2,71.6,65.95,240.0,10.0,0.0,29.71,6.21,FEW,4500.0,HZ,89.6,OTHH 200300Z 24010KT 9999 FEW045 29/22 Q1006 NOSIG,20,5,2023,3,0
OTHH,2023-05-20 04:00:00,51.6084,25.2746,-3.72,89.6,62.6,40.69,310.0,12.0,0.0,29.74,6.21,FEW,4500.0,HZ,90.32,OTHH 200400Z 31012KT 9999 FEW045 32/17 Q1007 NOSIG,20,5,2023,4,0
OTHH,2023-05-20 11:00:00,51.6084,25.2746,-3.72,91.4,66.2,43.61,50.0,10.0,0.0,29.68,5.59,FEW,4500.0,HZ,94.29,OTHH 201100Z 05010KT 9000 FEW045 33/19 Q1005 NOSIG,20,5,2023,11,0
OTHH,2023-05-20 12:00:00,51.6084,25.2746,-3.72,91.4,64.4,40.96,30.0,8.0,0.0,29.68,5.59,FEW,4000.0,HZ,93.19,OTHH 201200Z 03008KT 9000 FEW040 33/18 Q1005 NOSIG,20,5,2023,12,0
OTHH,2023-05-20 13:00:00,51.6084,25.2746,-3.72,89.6,66.2,46.14,260.0,6.0,0.0,29.74,6.21,FEW,3000.0,HZ,92.27,OTHH 201300Z 26006KT 190V340 9999 FEW030 FEW035CB 32/19 Q1007 RERA TEMPO -SHRA,20,5,2023,13,0
OTHH,2023-05-20 14:00:00,51.6084,25.2746,-3.72,93.2,55.4,28.1,220.0,13.0,0.0,29.71,6.21,FEW,3000.0,HZ,91.35,OTHH 201400Z 22013KT 9999 FEW030 FEW035CB 34/13 Q1006 TEMPO -TSRA,20,5,2023,14,0
OTHH,2023-05-20 15:00:00,51.6084,25.2746,-3.72,93.2,53.6,26.31,360.0,5.0,0.0,29.71,6.21,FEW,4000.0,HZ,90.86,OTHH 201500Z 36005KT 330V030 9999 FEW040 34/12 Q1006 NOSIG,20,5,2023,15,0
OTHH,2023-05-21 14:00:00,51.6084,25.2746,-3.72,89.6,75.2,62.68,90.0,10.0,0.0,29.71,6.21,FEW,4500.0,HZ,100.23,OTHH 211400Z 09010KT 9999 FEW045 32/24 Q1006 NOSIG,21,5,2023,14,0
OTHH,2023-05-21 15:00:00,51.6084,25.2746,-3.72,87.8,77.0,70.45,90.0,10.0,0.0,29.71,6.21,FEW,4500.0,HZ,99.92,OTHH 211500Z 09010KT 9999 FEW045 31/25 Q1006 NOSIG,21,5,2023,15,0
OTHH,2023-05-21 16:00:00,51.6084,25.2746,-3.72,87.8,77.0,70.45,90.0,9.0,0.0,29.71,6.21,FEW,4500.0,HZ,99.92,OTHH 211600Z 09009KT 9999 FEW045 31/25 Q1006 NOSIG,21,5,2023,16,0
OTHH,2023-05-21 17:00:00,51.6084,25.2746,-3.72,86.0,77.0,74.61,90.0,9.0,0.0,29.74,6.21,FEW,4000.0,HZ,97.15,OTHH 211700Z 09009KT 9999 FEW040 30/25 Q1007 NOSIG,21,5,2023,17,0
OTHH,2023-05-21 18:00:00,51.6084,25.2746,-3.72,86.0,77.0,74.61,110.0,10.0,0.0,29.74,6.21,FEW,4000.0,HZ,97.15,OTHH 211800Z 11010KT 9999 FEW040 30/25 Q1007 NOSIG,21,5,2023,18,0
OTHH,2023-05-21 23:00:00,51.6084,25.2746,-3.72,89.6,68.0,49.1,220.0,7.0,0.0,29.74,6.21,FEW,4000.0,-TSRA,93.47,OTHH 212300Z 22007KT 160V270 9999 -TSRA FEW040 FEW045CB BKN100 32/20 Q1007 NOSIG,21,5,2023,23,0
OTHH,2023-05-22 00:00:00,51.6084,25.2746,-3.72,89.6,68.0,49.1,300.0,12.0,0.0,29.71,6.21,FEW,4000.0,HZ,93.47,OTHH 220000Z 30012KT 220V330 9999 FEW040 BKN090 32/20 Q1006 NOSIG,22,5,2023,0,0
OTHH,2023-05-22 01:00:00,51.6084,25.2746,-3.72,91.4,59.0,33.84,190.0,13.0,0.0,29.71,6.21,FEW,4000.0,TS,90.68,OTHH 220100Z 19013KT 150V240 9999 TS FEW040 FEW045CB BKN090 33/15 Q1006 NOSIG,22,5,2023,1,0
OTHH,2023-05-22 02:00:00,51.6084,25.2746,-3.72,89.6,68.0,49.1,160.0,12.0,0.0,29.74,6.21,FEW,4000.0,HZ,93.47,OTHH 220200Z 16012KT 9999 FEW040 FEW045CB 32/20 Q1007 RETS NOSIG,22,5,2023,2,0
OTHH,2023-05-22 03:00:00,51.6084,25.2746,-3.72,91.4,57.2,31.72,130.0,21.0,0.0,29.77,6.21,FEW,4500.0,HZ,90.06,OTHH 220300Z 13021KT 9999 FEW045 33/14 Q1008 NOSIG,22,5,2023,3,0
OTHH,2023-05-22 04:00:00,51.6084,25.2746,-3.72,93.2,60.8,34.11,110.0,15.0,0.0,29.77,6.21,FEW,4500.0,HZ,93.32,OTHH 220400Z 11015KT 9999 FEW045 34/16 Q1008 NOSIG,22,5,2023,4,0
OTHH,2023-05-28 06:00:00,51.6084,25.2746,-3.72,100.4,50.0,18.48,330.0,13.0,0.0,29.74,5.59,NSC,,HZ,97.42,OTHH 280600Z 33013KT 9000 NSC 38/10 Q1007 NOSIG,28,5,2023,6,0
OTHH,2023-05-28 07:00:00,51.6084,25.2746,-3.72,102.2,51.8,18.72,350.0,10.0,0.0,29.71,5.59,NSC,,HZ,99.8,OTHH 280700Z 35010KT 9000 NSC 39/11 Q1006 NOSIG,28,5,2023,7,0
OTHH,2023-05-28 11:00:00,51.6084,25.2746,-3.72,102.2,62.6,27.63,30.0,11.0,0.0,29.65,5.59,NSC,,HZ,104.63,OTHH 281100Z 03011KT 9000 NSC 39/17 Q1004 NOSIG,28,5,2023,11,0
OTHH,2023-05-28 12:00:00,51.6084,25.2746,-3.72,100.4,68.0,35.2,20.0,13.0,0.0,29.65,5.59,NSC,,HZ,106.46,OTHH 281200Z 02013KT 9000 NSC 38/20 Q1004 NOSIG,28,5,2023,12,0
OTHH,2023-05-28 13:00:00,51.6084,25.2746,-3.72,98.6,69.8,39.54,20.0,10.0,0.0,29.65,5.59,NSC,,HZ,105.85,OTHH 281300Z 02010KT 9000 NSC 37/21 Q1004 NOSIG,28,5,2023,13,0
OTHH,2023-05-28 14:00:00,51.6084,25.2746,-3.72,98.6,71.6,42.04,10.0,9.0,0.0,29.65,5.59,NSC,,HZ,107.7,OTHH 281400Z 01009KT 9000 NSC 37/22 Q1004 NOSIG,28,5,2023,14,0
OTHH,2023-05-28 15:00:00,51.6084,25.2746,-3.72,100.4,50.0,18.48,10.0,9.0,0.0,29.68,5.59,NSC,,HZ,97.42,OTHH 281500Z 01009KT 9000 NSC 38/10 Q1005 NOSIG,28,5,2023,15,0
OTHH,2023-05-31 06:00:00,51.6084,25.2746,-3.72,98.6,64.4,32.81,330.0,19.0,0.0,29.77,3.73,NSC,,HZ,101.5,OTHH 310600Z 33019KT 6000 NSC 37/18 Q1008 NOSIG,31,5,2023,6,0
OTHH,2023-05-31 07:00:00,51.6084,25.2746,-3.72,100.4,64.4,31.07,350.0,11.0,0.0,29.74,4.35,NSC,,HZ,103.66,OTHH 310700Z 35011KT 7000 NSC 38/18 Q1007 TEMPO 4000 DU,31,5,2023,7,0
OTHH,2023-05-31 08:00:00,51.6084,25.2746,-3.72,100.4,69.8,37.44,10.0,10.0,0.0,29.74,4.35,NSC,,HZ,108.13,OTHH 310800Z 01010KT 7000 NSC 38/21 Q1007 TEMPO 4000 DU,31,5,2023,8,0
OTHH,2023-05-31 09:00:00,51.6084,25.2746,-3.72,100.4,71.6,39.81,20.0,9.0,0.0,29.71,3.73,NSC,,HZ,110.0,OTHH 310900Z 02009KT 6000 NSC 38/22 Q1006 TEMPO 5000 DU,31,5,2023,9,0
OTHH,2023-05-31 10:00:00,51.6084,25.2746,-3.72,98.6,71.6,42.04,30.0,9.0,0.0,29.71,4.35,NSC,,HZ,107.7,OTHH 311000Z 03009KT 7000 NSC 37/22 Q1006 NOSIG,31,5,2023,10,0
OTHH,2023-05-31 11:00:00,51.6084,25.2746,-3.72,96.8,71.6,44.41,10.0,11.0,0.0,29.68,4.35,NSC,,HZ,105.4,OTHH 311100Z 01011KT 7000 NSC 36/22 Q1005 NOSIG,31,5,2023,11,0
OTHH,2023-05-31 12:00:00,51.6084,25.2746,-3.72,98.6,71.6,42.04,10.0,14.0,0.0,29.68,4.35,NSC,,HZ,107.7,OTHH 311200Z 01014KT 7000 NSC 37/22 Q1005 NOSIG,31,5,2023,12,0
OTHH,2023-05-31 13:00:00,51.6084,25.2746,-3.72,98.6,73.4,44.67,350.0,14.0,0.0,29.68,2.67,NSC,,DU,109.77,OTHH 311300Z 35014KT 4300 DU NSC 37/23 Q1005 TEMPO 3000,31,5,2023,13,0
OTHH,2023-05-31 14:00:00,51.6084,25.2746,-3.72,98.6,68.0,37.17,360.0,10.0,0.0,29.68,3.11,NSC,,DU,104.22,OTHH 311400Z 36010KT 5000 DU NSC 37/20 Q1005 TEMPO 3000,31,5,2023,14,0
OTHH,2023-05-31 15:00:00,51.6084,25.2746,-3.72,96.8,71.6,44.41,360.0,8.0,0.0,29.68,5.59,NSC,,HZ,105.4,OTHH 311500Z 36008KT 9000 NSC 36/22 Q1005 NOSIG,31,5,2023,15,0
OTHH,2023-06-03 23:00:00,51.6084,25.2746,-3.72,89.6,60.8,38.18,290.0,8.0,0.0,29.62,4.97,NSC,,HZ,89.54,OTHH 032300Z 29008KT 8000 NSC 32/16 Q1003 NOSIG,3,6,2023,23,0
OTHH,2023-06-04 00:00:00,51.6084,25.2746,-3.72,87.8,62.6,43.07,300.0,10.0,0.0,29.62,4.97,NSC,,HZ,88.48,OTHH 040000Z AUTO 30010KT 270V330 8000 NSC 31/17 Q1003 NOSIG,4,6,2023,0,0
OTHH,2023-06-04 01:00:00,51.6084,25.2746,-3.72,87.8,60.8,40.41,280.0,6.0,0.0,29.65,4.97,NSC,,HZ,87.75,OTHH 040100Z 28006G16KT 250V310 8000 NSC 31/16 Q1004 NOSIG,4,6,2023,1,0
OTHH,2023-06-04 02:00:00,51.6084,25.2746,-3.72,87.8,62.6,43.07,290.0,9.0,0.0,29.65,3.73,NSC,,HZ,88.48,OTHH 040200Z 29009KT 6000 NSC 31/17 Q1004 NOSIG,4,6,2023,2,0
OTHH,2023-06-04 03:00:00,51.6084,25.2746,-3.72,89.6,66.2,46.14,300.0,14.0,0.0,29.68,4.35,NSC,,HZ,92.27,OTHH 040300Z 30014KT 7000 NSC 32/19 Q1005 NOSIG,4,6,2023,3,0
OTHH,2023-06-04 04:00:00,51.6084,25.2746,-3.72,91.4,66.2,43.61,310.0,14.0,0.0,29.68,4.35,NSC,,HZ,94.29,OTHH 040400Z 31014KT 7000 NSC 33/19 Q1005 NOSIG,4,6,2023,4,0
OTHH,2023-06-04 05:00:00,51.6084,25.2746,-3.72,95.0,62.6,34.39,310.0,13.0,0.0,29.68,4.35,NSC,,HZ,96.22,OTHH 040500Z 31013KT 7000 NSC 35/17 Q1005 NOSIG,4,6,2023,5,0
OTHH,2023-06-04 06:00:00,51.6084,25.2746,-3.72,96.8,60.8,30.53,330.0,15.0,0.0,29.68,3.73,NSC,,HZ,97.33,OTHH 040600Z 33015KT 6000 NSC 36/16 Q1005 NOSIG,4,6,2023,6,0
OTHH,2023-06-04 07:00:00,51.6084,25.2746,-3.72,98.6,64.4,32.81,360.0,10.0,0.0,29.68,3.73,NSC,,HZ,101.5,OTHH 040700Z 36010KT 6000 NSC 37/18 Q1005 NOSIG,4,6,2023,7,0
OTHH,2023-06-04 08:00:00,51.6084,25.2746,-3.72,98.6,64.4,32.81,10.0,6.0,0.0,29.65,3.73,NSC,,HZ,101.5,OTHH 040800Z 01006KT 6000 NSC 37/18 Q1004 NOSIG,4,6,2023,8,0
OTHH,2023-06-04 09:00:00,51.6084,25.2746,-3.72,98.6,62.6,30.8,40.0,10.0,0.0,29.65,3.73,NSC,,HZ,100.38,OTHH 040900Z 04010KT 6000 NSC 37/17 Q1004 NOSIG,4,6,2023,9,0
OTHH,2023-06-04 10:00:00,51.6084,25.2746,-3.72,96.8,69.8,41.77,40.0,11.0,0.0,29.65,3.11,NSC,,DU,103.6,OTHH 041000Z 04011KT 5000 DU NSC 36/21 Q1004 NOSIG,4,6,2023,10,0
OTHH,2023-06-04 11:00:00,51.6084,25.2746,-3.72,95.0,71.6,46.93,30.0,13.0,0.0,29.65,2.8,NSC,,DU,103.13,OTHH 041100Z 03013KT 4500 DU NSC 35/22 Q1004 TEMPO 4000,4,6,2023,11,0
OTHH,2023-06-04 12:00:00,51.6084,25.2746,-3.72,93.2,73.4,52.73,40.0,12.0,0.0,29.62,1.55,NSC,,DU,102.82,OTHH 041200Z 04012KT 2500 DU NSC 34/23 Q1003 TEMPO 2000,4,6,2023,12,0
OTHH,2023-06-04 13:00:00,51.6084,25.2746,-3.72,91.4,75.2,59.24,40.0,9.0,0.0,29.62,1.86,NSC,,DU,102.65,OTHH 041300Z 04009KT 3000 DU NSC 33/24 Q1003 NOSIG,4,6,2023,13,0
OTHH,2023-06-04 14:00:00,51.6084,25.2746,-3.72,89.6,77.0,66.55,30.0,7.0,0.0,29.62,2.49,NSC,,DU,102.54,OTHH 041400Z 03007KT 4000 DU NSC 32/25 Q1003 NOSIG,4,6,2023,14,0
OTHH,2023-06-04 15:00:00,51.6084,25.2746,-3.72,87.8,78.8,74.77,10.0,7.0,0.0,29.62,3.11,NSC,,DU,102.37,OTHH 041500Z 01007KT 5000 DU NSC 31/26 Q1003 NOSIG,4,6,2023,15,0
OTHH,2023-06-04 16:00:00,51.6084,25.2746,-3.72,86.0,78.8,79.18,350.0,6.0,0.0,29.62,3.73,NSC,,HZ,99.38,OTHH 041600Z 35006KT 6000 NSC 30/26 Q1003 NOSIG,4,6,2023,16,0
OTHH,2023-06-04 17:00:00,51.6084,25.2746,-3.72,86.0,78.8,79.18,350.0,2.0,0.0,29.62,3.73,NSC,,HZ,99.38,OTHH 041700Z 35002KT 6000 NSC 30/26 Q1003 NOSIG,4,6,2023,17,0
OTHH,2023-06-04 18:00:00,51.6084,25.2746,-3.72,87.8,78.8,74.77,360.0,3.0,0.0,29.65,3.73,NSC,,HZ,102.37,OTHH 041800Z 36003KT 6000 NSC 31/26 Q1004 NOSIG,4,6,2023,18,0
OTHH,2023-06-04 19:00:00,51.6084,25.2746,-3.72,86.0,77.0,74.61,10.0,4.0,0.0,29.65,3.11,NSC,,HZ,97.15,OTHH 041900Z 01004KT 340V040 5000 HZ NSC 30/25 Q1004 NOSIG,4,6,2023,19,0
OTHH,2023-06-04 20:00:00,51.6084,25.2746,-3.72,86.0,77.0,74.61,30.0,4.0,0.0,29.62,3.73,NSC,,HZ,97.15,OTHH 042000Z 03004KT 6000 NSC 30/25 Q1003 NOSIG,4,6,2023,20,0
OTHH,2023-06-04 21:00:00,51.6084,25.2746,-3.72,86.0,78.8,79.18,50.0,2.0,0.0,29.62,3.73,NSC,,HZ,99.38,OTHH 042100Z 05002KT 6000 NSC 30/26 Q1003 NOSIG,4,6,2023,21,0
OTHH,2023-06-04 22:00:00,51.6084,25.2746,-3.72,84.2,77.0,79.04,80.0,2.0,0.0,29.62,3.73,NSC,,HZ,94.16,OTHH 042200Z AUTO 08002KT 6000 NSC 29/25 Q1003 NOSIG,4,6,2023,22,0
OTHH,2023-06-04 23:00:00,51.6084,25.2746,-3.72,84.2,77.0,79.04,230.0,6.0,0.0,29.59,3.73,NSC,,HZ,94.16,OTHH 042300Z AUTO 23006KT 220V320 6000 NSC 29/25 Q1002 NOSIG,4,6,2023,23,0
OTHH,2023-06-05 00:00:00,51.6084,25.2746,-3.72,84.2,73.4,70.08,230.0,8.0,0.0,29.59,4.35,NSC,,HZ,90.94,OTHH 050000Z 23008KT 200V330 7000 NSC 29/23 Q1002 NOSIG,5,6,2023,0,0
OTHH,2023-06-05 01:00:00,51.6084,25.2746,-3.72,84.2,73.4,70.08,220.0,7.0,0.0,29.62,4.35,NSC,,HZ,90.94,OTHH 050100Z 22007KT 200V290 7000 NSC 29/23 Q1003 NOSIG,5,6,2023,1,0
OTHH,2023-06-05 02:00:00,51.6084,25.2746,-3.72,84.2,73.4,70.08,230.0,3.0,0.0,29.65,3.73,NSC,,HZ,90.94,OTHH 050200Z 23003KT 160V330 6000 NSC 29/23 Q1004 NOSIG,5,6,2023,2,0
OTHH,2023-06-05 03:00:00,51.6084,25.2746,-3.72,84.2,71.6,65.95,350.0,5.0,0.0,29.65,3.11,NSC,,HZ,89.6,OTHH 050300Z 35005KT 5000 HZ NSC 29/22 Q1004 TEMPO 4000,5,6,2023,3,0
OTHH,2023-06-05 04:00:00,51.6084,25.2746,-3.72,86.0,71.6,62.25,350.0,5.0,0.0,29.68,3.11,NSC,,HZ,91.92,OTHH 050400Z 35005KT 5000 HZ NSC 30/22 Q1005 TEMPO 4000,5,6,2023,4,0
OTHH,2023-06-05 05:00:00,51.6084,25.2746,-3.72,89.6,71.6,55.53,40.0,4.0,0.0,29.68,3.73,NSC,,HZ,96.41,OTHH 050500Z 04004KT 6000 NSC 32/22 Q1005 NOSIG,5,6,2023,5,0
OTHH,2023-06-05 06:00:00,51.6084,25.2746,-3.72,91.4,64.4,40.96,10.0,3.0,0.0,29.68,3.73,NSC,,HZ,93.19,OTHH 050600Z 01003KT 310V040 6000 NSC 33/18 Q1005 NOSIG,5,6,2023,6,0
OTHH,2023-06-05 07:00:00,51.6084,25.2746,-3.72,93.2,64.4,38.73,10.0,5.0,0.0,29.68,4.35,NSC,,HZ,95.2,OTHH 050700Z 01005KT 330V060 7000 NSC 34/18 Q1005 NOSIG,5,6,2023,7,0
OTHH,2023-06-05 08:00:00,51.6084,25.2746,-3.72,95.0,68.0,41.5,90.0,8.0,0.0,29.68,4.35,NSC,,HZ,99.82,OTHH 050800Z 09008G19KT 060V120 7000 NSC 35/20 Q1005 NOSIG,5,6,2023,8,0
OTHH,2023-06-05 09:00:00,51.6084,25.2746,-3.72,93.2,75.2,56.01,80.0,8.0,0.0,29.65,2.8,NSC,,HZ,105.02,OTHH 050900Z 08008G18KT 050V140 4500 HZ NSC 34/24 Q1004 TEMPO 4000,5,6,2023,9,0
OTHH,2023-06-05 10:00:00,51.6084,25.2746,-3.72,95.0,75.2,52.98,80.0,8.0,0.0,29.65,2.8,NSC,,HZ,107.39,OTHH 051000Z 08008KT 050V120 4500 HZ NSC 35/24 Q1004 TEMPO 4000,5,6,2023,10,0
OTHH,2023-06-05 11:00:00,51.6084,25.2746,-3.72,96.8,69.8,41.77,70.0,7.0,0.0,29.62,3.11,NSC,,HZ,103.6,OTHH 051100Z 07007KT 040V110 5000 HZ NSC 36/21 Q1003 NOSIG,5,6,2023,11,0
OTHH,2023-06-05 12:00:00,51.6084,25.2746,-3.72,96.8,68.0,39.27,50.0,6.0,0.0,29.62,3.11,NSC,,HZ,102.01,OTHH 051200Z 05006KT 360V080 5000 HZ NSC 36/20 Q1003 NOSIG,5,6,2023,12,0
OTHH,2023-06-05 13:00:00,51.6084,25.2746,-3.72,96.8,64.4,34.66,100.0,6.0,0.0,29.62,3.11,NSC,,HZ,99.37,OTHH 051300Z 10006KT 060V140 5000 HZ NSC 36/18 Q1003 NOSIG,5,6,2023,13,0
OTHH,2023-06-05 14:00:00,51.6084,25.2746,-3.72,93.2,75.2,56.01,70.0,7.0,0.0,29.59,3.11,NSC,,HZ,105.02,OTHH 051400Z 07007KT 030V090 5000 HZ NSC 34/24 Q1002 NOSIG,5,6,2023,14,0
OTHH,2023-06-05 15:00:00,51.6084,25.2746,-3.72,89.6,77.0,66.55,90.0,5.0,0.0,29.59,3.11,NSC,,HZ,102.54,OTHH 051500Z 09005G16KT 050V150 5000 HZ NSC 32/25 Q1002 NOSIG,5,6,2023,15,0
OTHH,2023-06-05 16:00:00,51.6084,25.2746,-3.72,87.8,77.0,70.45,80.0,4.0,0.0,29.62,3.73,NSC,,HZ,99.92,OTHH 051600Z 08004KT 6000 NSC 31/25 Q1003 NOSIG,5,6,2023,16,0
OTHH,2023-06-05 17:00:00,51.6084,25.2746,-3.72,87.8,78.8,74.77,90.0,6.0,0.0,29.62,4.35,NSC,,HZ,102.37,OTHH 051700Z 09006KT 7000 NSC 31/26 Q1003 NOSIG,5,6,2023,17,0
OTHH,2023-06-05 18:00:00,51.6084,25.2746,-3.72,86.0,78.8,79.18,80.0,4.0,0.0,29.65,4.35,NSC,,HZ,99.38,OTHH 051800Z 08004KT 060V170 7000 NSC 30/26 Q1004 NOSIG,5,6,2023,18,0
OTHH,2023-06-05 19:00:00,51.6084,25.2746,-3.72,86.0,78.8,79.18,80.0,3.0,0.0,29.65,4.97,NSC,,HZ,99.38,OTHH 051900Z 08003KT 8000 NSC 30/26 Q1004 NOSIG,5,6,2023,19,0
OTHH,2023-06-05 20:00:00,51.6084,25.2746,-3.72,86.0,80.6,83.99,90.0,4.0,0.0,29.65,4.97,NSC,,HZ,101.9,OTHH 052000Z 09004KT 8000 NSC 30/27 Q1004 NOSIG,5,6,2023,20,0
OTHH,2023-06-05 21:00:00,51.6084,25.2746,-3.72,84.2,78.8,83.88,90.0,5.0,0.0,29.62,4.97,NSC,,HZ,96.1,OTHH 052100Z 09005KT 8000 NSC 29/26 Q1003 NOSIG,5,6,2023,21,0
OTHH,2023-06-05 22:00:00,51.6084,25.2746,-3.72,86.0,78.8,79.18,100.0,3.0,0.0,29.62,5.59,NSC,,HZ,99.38,OTHH 052200Z 10003KT 9000 NSC 30/26 Q1003 NOSIG,5,6,2023,22,0
OTHH,2023-06-06 02:00:00,51.6084,25.2746,-3.72,80.6,75.2,83.66,240.0,3.0,0.0,29.65,4.97,NSC,,HZ,86.17,OTHH 060200Z 24003G13KT 210V310 8000 NSC 27/24 Q1004 NOSIG,6,6,2023,2,0
OTHH,2023-06-06 03:00:00,51.6084,25.2746,-3.72,82.4,75.2,78.9,260.0,3.0,0.0,29.68,4.97,NSC,,HZ,89.48,OTHH 060300Z 26003KT 190V310 8000 NSC 28/24 Q1005 NOSIG,6,6,2023,3,0
OTHH,2023-06-06 04:00:00,51.6084,25.2746,-3.72,87.8,73.4,62.47,,2.0,0.0,29.71,4.97,NSC,,HZ,95.86,OTHH 060400Z VRB02KT 8000 NSC 31/23 Q1006 NOSIG,6,6,2023,4,0
OTHH,2023-06-06 05:00:00,51.6084,25.2746,-3.72,89.6,73.4,59.01,360.0,6.0,0.0,29.71,4.97,NSC,,HZ,98.2,OTHH 060500Z 36006KT 8000 NSC 32/23 Q1006 NOSIG,6,6,2023,5,0
OTHH,2023-06-06 06:00:00,51.6084,25.2746,-3.72,93.2,73.4,52.73,40.0,6.0,0.0,29.71,4.97,NSC,,HZ,102.82,OTHH 060600Z 04006KT 8000 NSC 34/23 Q1006 NOSIG,6,6,2023,6,0
OTHH,2023-06-06 07:00:00,51.6084,25.2746,-3.72,93.2,73.4,52.73,30.0,7.0,0.0,29.71,4.97,NSC,,HZ,102.82,OTHH 060700Z 03007KT 8000 NSC 34/23 Q1006 NOSIG,6,6,2023,7,0
OTHH,2023-06-06 08:00:00,51.6084,25.2746,-3.72,95.0,71.6,46.93,50.0,8.0,0.0,29.68,4.97,NSC,,HZ,103.13,OTHH 060800Z 05008KT 8000 NSC 35/22 Q1005 NOSIG,6,6,2023,8,0
OTHH,2023-06-06 09:00:00,51.6084,25.2746,-3.72,95.0,71.6,46.93,40.0,9.0,0.0,29.68,4.97,NSC,,HZ,103.13,OTHH 060900Z 04009KT 8000 NSC 35/22 Q1005 NOSIG,6,6,2023,9,0
OTHH,2023-06-06 10:00:00,51.6084,25.2746,-3.72,98.6,62.6,30.8,40.0,8.0,0.0,29.65,4.97,NSC,,HZ,100.38,OTHH 061000Z 04008KT 8000 NSC 37/17 Q1004 NOSIG,6,6,2023,10,0
OTHH,2023-06-06 11:00:00,51.6084,25.2746,-3.72,98.6,53.6,22.29,40.0,9.0,0.0,29.65,4.97,NSC,,HZ,96.51,OTHH 061100Z 04009KT 8000 NSC 37/12 Q1004 NOSIG,6,6,2023,11,0
OTHH,2023-06-06 12:00:00,51.6084,25.2746,-3.72,96.8,68.0,39.27,40.0,12.0,0.0,29.62,4.97,NSC,,HZ,102.01,OTHH 061200Z 04012KT 8000 NSC 36/20 Q1003 NOSIG,6,6,2023,12,0
OTHH,2023-06-06 13:00:00,51.6084,25.2746,-3.72,91.4,71.6,52.48,50.0,12.0,0.0,29.62,4.35,NSC,,HZ,98.64,OTHH 061300Z 05012KT 7000 NSC 33/22 Q1003 NOSIG,6,6,2023,13,0
OTHH,2023-06-06 14:00:00,51.6084,25.2746,-3.72,89.6,78.8,70.63,60.0,9.0,0.0,29.62,3.73,NSC,,HZ,105.15,OTHH 061400Z 06009KT 6000 NSC 32/26 Q1003 NOSIG,6,6,2023,14,0
OTHH,2023-06-06 15:00:00,51.6084,25.2746,-3.72,89.6,77.0,66.55,40.0,7.0,0.0,29.62,3.11,NSC,,HZ,102.54,OTHH 061500Z 04007KT 5000 HZ NSC 32/25 Q1003 NOSIG,6,6,2023,15,0
OTHH,2023-06-06 16:00:00,51.6084,25.2746,-3.72,87.8,75.2,66.35,20.0,6.0,0.0,29.65,2.49,NSC,,HZ,97.76,OTHH 061600Z 02006KT 4000 HZ NSC 31/24 Q1004 TEMPO 3000,6,6,2023,16,0
OTHH,2023-06-06 17:00:00,51.6084,25.2746,-3.72,87.8,75.2,66.35,350.0,6.0,0.0,29.65,3.11,NSC,,HZ,97.76,OTHH 061700Z 35006KT 5000 HZ NSC 31/24 Q1004 NOSIG,6,6,2023,17,0
OTHH,2023-06-06 18:00:00,51.6084,25.2746,-3.72,87.8,73.4,62.47,360.0,6.0,0.0,29.65,3.73,NSC,,HZ,95.86,OTHH 061800Z 36006KT 6000 NSC 31/23 Q1004 NOSIG,6,6,2023,18,0
OTHH,2023-06-06 19:00:00,51.6084,25.2746,-3.72,87.8,73.4,62.47,350.0,6.0,0.0,29.68,4.97,NSC,,HZ,95.86,OTHH 061900Z 35006KT 8000 NSC 31/23 Q1005 NOSIG,6,6,2023,19,0
OTHH,2023-06-06 20:00:00,51.6084,25.2746,-3.72,86.0,77.0,74.61,330.0,6.0,0.0,29.65,3.73,NSC,,HZ,97.15,OTHH 062000Z 33006KT 6000 NSC 30/25 Q1004 NOSIG,6,6,2023,20,0
OTHH,2023-06-06 21:00:00,51.6084,25.2746,-3.72,86.0,78.8,79.18,330.0,6.0,0.0,29.65,2.86,NSC,,HZ,99.38,OTHH 062100Z 33006KT 4600 HZ NSC 30/26 Q1004 NOSIG,6,6,2023,21,0
OTHH,2023-06-06 22:00:00,51.6084,25.2746,-3.72,84.2,77.0,79.04,300.0,6.0,0.0,29.65,4.35,NSC,,HZ,94.16,OTHH 062200Z 30006KT 7000 NSC 29/25 Q1004 NOSIG,6,6,2023,22,0
OTHH,2023-06-06 23:00:00,51.6084,25.2746,-3.72,84.2,75.2,74.44,300.0,5.0,0.0,29.62,4.97,NSC,,HZ,92.45,OTHH 062300Z 30005KT 270V330 8000 NSC 29/24 Q1003 NOSIG,6,6,2023,23,0
OTHH,2023-06-07 00:00:00,51.6084,25.2746,-3.72,82.4,71.6,69.9,240.0,4.0,0.0,29.62,4.97,NSC,,HZ,87.18,OTHH 070000Z 24004KT 200V320 8000 NSC 28/22 Q1003 NOSIG,7,6,2023,0,0
OTHH,2023-06-07 01:00:00,51.6084,25.2746,-3.72,82.4,69.8,65.74,270.0,6.0,0.0,29.62,4.97,NSC,,HZ,86.22,OTHH 070100Z 27006KT 250V310 8000 NSC 28/21 Q1003 NOSIG,7,6,2023,1,0
OTHH,2023-06-07 02:00:00,51.6084,25.2746,-3.72,86.0,66.2,51.72,310.0,4.0,0.0,29.62,4.97,NSC,,HZ,88.39,OTHH 070200Z 31004KT 270V350 8000 NSC 30/19 Q1003 NOSIG,7,6,2023,2,0
OTHH,2023-06-07 03:00:00,51.6084,25.2746,-3.72,86.0,68.0,55.04,290.0,7.0,0.0,29.65,5.59,NSC,,HZ,89.41,OTHH 070300Z 29007KT 9000 NSC 30/20 Q1004 NOSIG,7,6,2023,3,0
OTHH,2023-06-07 04:00:00,51.6084,25.2746,-3.72,91.4,69.8,49.36,280.0,9.0,0.0,29.65,5.59,NSC,,HZ,96.99,OTHH 070400Z 28009KT 9000 NSC 33/21 Q1004 NOSIG,7,6,2023,4,0
OTHH,2023-06-13 02:00:00,51.6084,25.2746,-3.72,89.6,73.4,59.01,240.0,4.0,0.0,29.47,5.59,NSC,,HZ,98.2,OTHH 130200Z 24004KT 9000 NSC 32/23 Q0998 NOSIG,13,6,2023,2,0
OTHH,2023-06-14 05:00:00,51.6084,25.2746,-3.72,100.4,64.4,31.07,320.0,24.0,0.0,29.53,5.59,NSC,,HZ,103.66,OTHH 140500Z 32024KT 9000 NSC 38/18 Q1000 NOSIG,14,6,2023,5,0
OTHH,2023-06-14 06:00:00,51.6084,25.2746,-3.72,102.2,62.6,27.63,330.0,25.0,0.0,29.53,4.97,NSC,,HZ,104.63,OTHH 140600Z 33025KT 8000 NSC 39/17 Q1000 NOSIG,14,6,2023,6,0
OTHH,2023-06-14 07:00:00,51.6084,25.2746,-3.72,102.2,62.6,27.63,330.0,23.0,0.0,29.53,4.97,NSC,,HZ,104.63,OTHH 140700Z 33023KT 8000 NSC 39/17 Q1000 NOSIG,14,6,2023,7,0
OTHH,2023-06-14 08:00:00,51.6084,25.2746,-3.72,105.8,60.8,23.29,340.0,22.0,0.0,29.53,4.97,NSC,,HZ,107.75,OTHH 140800Z 34022KT 8000 NSC 41/16 Q1000 NOSIG,14,6,2023,8,0
OTHH,2023-06-14 09:00:00,51.6084,25.2746,-3.72,105.8,57.2,20.48,330.0,24.0,0.0,29.5,4.35,NSC,,HZ,105.8,OTHH 140900Z 33024KT 7000 NSC 41/14 Q0999 NOSIG,14,6,2023,9,0
OTHH,2023-06-14 10:00:00,51.6084,25.2746,-3.72,105.8,57.2,20.48,340.0,24.0,0.0,29.5,4.35,NSC,,HZ,105.8,OTHH 141000Z 34024KT 7000 NSC 41/14 Q0999 NOSIG,14,6,2023,10,0
OTHH,2023-06-14 11:00:00,51.6084,25.2746,-3.72,105.8,53.6,17.97,340.0,23.0,0.0,29.47,4.35,NSC,,HZ,104.23,OTHH 141100Z 34023KT 7000 NSC 41/12 Q0998 NOSIG,14,6,2023,11,0
OTHH,2023-06-15 06:00:00,51.6084,25.2746,-3.72,102.2,57.2,22.79,320.0,24.0,0.0,29.47,3.73,NSC,,BLDU,101.78,OTHH 150600Z 32024KT 6000 BLDU NSC 39/14 Q0998 TEMPO 5000,15,6,2023,6,0
OTHH,2023-06-15 07:00:00,51.6084,25.2746,-3.72,104.0,59.0,23.04,330.0,28.0,0.0,29.47,3.73,NSC,,HZ,104.68,OTHH 150700Z 33028KT 6000 NSC 40/15 Q0998 TEMPO 5000,15,6,2023,7,0
OTHH,2023-06-15 08:00:00,51.6084,25.2746,-3.72,105.8,53.6,17.97,330.0,28.0,0.0,29.47,3.11,NSC,,BLDU,104.23,OTHH 150800Z 33028KT 5000 BLDU NSC 41/12 Q0998 NOSIG,15,6,2023,8,0
OTHH,2023-06-15 09:00:00,51.6084,25.2746,-3.72,105.8,53.6,17.97,330.0,29.0,0.0,29.47,3.73,NSC,,HZ,104.23,OTHH 150900Z 33029KT 6000 NSC 41/12 Q0998 NOSIG,15,6,2023,9,0
OTHH,2023-06-15 10:00:00,51.6084,25.2746,-3.72,105.8,55.4,19.19,330.0,28.0,0.0,29.47,3.73,NSC,,HZ,104.97,OTHH 151000Z 33028KT 6000 NSC 41/13 Q0998 NOSIG,15,6,2023,10,0
OTHH,2023-06-15 11:00:00,51.6084,25.2746,-3.72,105.8,53.6,17.97,340.0,27.0,0.0,29.47,3.73,NSC,,HZ,104.23,OTHH 151100Z 34027KT 6000 NSC 41/12 Q0998 NOSIG,15,6,2023,11,0
OTHH,2023-06-15 12:00:00,51.6084,25.2746,-3.72,104.0,57.2,21.6,330.0,27.0,0.0,29.44,3.73,NSC,,HZ,103.79,OTHH 151200Z 33027KT 6000 NSC 40/14 Q0997 NOSIG,15,6,2023,12,0
OTHH,2023-06-15 13:00:00,51.6084,25.2746,-3.72,102.2,59.0,24.32,330.0,24.0,0.0,29.44,4.35,NSC,,HZ,102.62,OTHH 151300Z 33024KT 7000 NSC 39/15 Q0997 NOSIG,15,6,2023,13,0
OTHH,2023-06-15 14:00:00,51.6084,25.2746,-3.72,102.2,53.6,20.0,330.0,25.0,0.0,29.44,4.97,NSC,,HZ,100.38,OTHH 151400Z 33025KT 8000 NSC 39/12 Q0997 NOSIG,15,6,2023,14,0
OTHH,2023-06-15 15:00:00,51.6084,25.2746,-3.72,102.2,48.2,16.37,330.0,21.0,0.0,29.44,4.97,NSC,,HZ,98.83,OTHH 151500Z 33021KT 8000 NSC 39/09 Q0997 NOSIG,15,6,2023,15,0
OTHH,2023-06-15 16:00:00,51.6084,25.2746,-3.72,100.4,53.6,21.11,330.0,21.0,0.0,29.44,5.59,NSC,,HZ,98.44,OTHH 151600Z 33021KT 9000 NSC 38/12 Q0997 NOSIG,15,6,2023,16,0
OTHH,2023-06-19 04:00:00,51.6084,25.2746,-3.72,89.6,71.6,55.53,280.0,9.0,0.0,29.56,5.59,NSC,,HZ,96.41,OTHH 190400Z 28009KT 250V310 9000 NSC 32/22 Q1001 NOSIG,19,6,2023,4,0
OTHH,2023-06-19 13:00:00,51.6084,25.2746,-3.72,93.2,80.6,66.95,10.0,11.0,0.0,29.5,4.97,NSC,,HZ,113.52,OTHH 191300Z 01011KT 8000 NSC 34/27 Q0999 NOSIG,19,6,2023,13,0
OTHH,2023-06-19 14:00:00,51.6084,25.2746,-3.72,93.2,75.2,56.01,10.0,10.0,0.0,29.5,4.97,NSC,,HZ,105.02,OTHH 191400Z 01010KT 8000 NSC 34/24 Q0999 NOSIG,19,6,2023,14,0
OTHH,2023-06-19 15:00:00,51.6084,25.2746,-3.72,93.2,73.4,52.73,360.0,13.0,0.0,29.5,5.59,NSC,,HZ,102.82,OTHH 191500Z 36013KT 9000 NSC 34/23 Q0999 NOSIG,19,6,2023,15,0
OTHH,2023-06-26 00:00:00,51.6084,25.2746,-3.72,95.0,55.4,26.58,290.0,10.0,0.0,29.41,5.59,NSC,,HZ,93.22,OTHH 260000Z 29010KT 260V320 9000 NSC 35/13 Q0996 NOSIG,26,6,2023,0,0
OTHH,2023-06-26 01:00:00,51.6084,25.2746,-3.72,95.0,57.2,28.37,280.0,10.0,0.0,29.41,4.97,NSC,,HZ,93.82,OTHH 260100Z 28010KT 8000 NSC 35/14 Q0996 NOSIG,26,6,2023,1,0
OTHH,2023-06-26 02:00:00,51.6084,25.2746,-3.72,93.2,59.0,31.99,280.0,10.0,0.0,29.44,3.73,NSC,,HZ,92.57,OTHH 260200Z 28010KT 6000 NSC 34/15 Q0997 TEMPO 4000,26,6,2023,2,0
OTHH,2023-06-26 03:00:00,51.6084,25.2746,-3.72,93.2,57.2,29.99,280.0,11.0,0.0,29.44,3.73,NSC,,HZ,91.91,OTHH 260300Z 28011KT 250V310 6000 NSC 34/14 Q0997 NOSIG,26,6,2023,3,0
OTHH,2023-06-26 04:00:00,51.6084,25.2746,-3.72,96.8,55.4,25.15,280.0,14.0,0.0,29.44,3.73,NSC,,HZ,95.14,OTHH 260400Z 28014KT 6000 NSC 36/13 Q0997 NOSIG,26,6,2023,4,0
OTHH,2023-06-26 05:00:00,51.6084,25.2746,-3.72,98.6,50.0,19.52,290.0,13.0,0.0,29.44,3.73,NSC,,HZ,95.56,OTHH 260500Z 29013G24KT 6000 NSC 37/10 Q0997 NOSIG,26,6,2023,5,0
OTHH,2023-06-26 06:00:00,51.6084,25.2746,-3.72,102.2,50.0,17.51,310.0,14.0,0.0,29.44,4.35,NSC,,HZ,99.28,OTHH 260600Z 31014KT 270V330 7000 NSC 39/10 Q0997 NOSIG,26,6,2023,6,0
OTHH,2023-06-26 07:00:00,51.6084,25.2746,-3.72,105.8,50.0,15.73,310.0,14.0,0.0,29.44,5.59,NSC,,HZ,102.98,OTHH 260700Z 31014KT 9000 NSC 41/10 Q0997 NOSIG,26,6,2023,7,0
OTHH,2023-06-26 08:00:00,51.6084,25.2746,-3.72,102.2,64.4,29.43,360.0,8.0,0.0,29.44,5.59,NSC,,HZ,105.84,OTHH 260800Z 36008KT 9000 NSC 39/18 Q0997 NOSIG,26,6,2023,8,0
OTHH,2023-06-26 09:00:00,51.6084,25.2746,-3.72,100.4,64.4,31.07,30.0,10.0,0.0,29.41,4.97,NSC,,HZ,103.66,OTHH 260900Z 03010KT 8000 NSC 38/18 Q0996 NOSIG,26,6,2023,9,0
OTHH,2023-06-26 10:00:00,51.6084,25.2746,-3.72,98.6,69.8,39.54,20.0,18.0,0.0,29.41,4.97,NSC,,HZ,105.85,OTHH 261000Z 02018KT 8000 NSC 37/21 Q0996 NOSIG,26,6,2023,10,0
OTHH,2023-06-26 11:00:00,51.6084,25.2746,-3.72,98.6,71.6,42.04,20.0,18.0,0.0,29.41,4.97,NSC,,HZ,107.7,OTHH 261100Z 02018KT 8000 NSC 37/22 Q0996 NOSIG,26,6,2023,11,0
OTHH,2023-06-26 12:00:00,51.6084,25.2746,-3.72,96.8,73.4,47.19,10.0,16.0,0.0,29.41,4.97,NSC,,HZ,107.45,OTHH 261200Z 01016KT 8000 NSC 36/23 Q0996 NOSIG,26,6,2023,12,0
OTHH,2023-06-26 13:00:00,51.6084,25.2746,-3.72,95.0,75.2,52.98,10.0,16.0,0.0,29.38,4.97,NSC,,HZ,107.39,OTHH 261300Z 01016KT 8000 NSC 35/24 Q0995 NOSIG,26,6,2023,13,0
OTHH,2023-06-26 14:00:00,51.6084,25.2746,-3.72,93.2,77.0,59.47,360.0,15.0,0.0,29.38,4.97,NSC,,HZ,107.52,OTHH 261400Z 36015KT 8000 NSC 34/25 Q0995 NOSIG,26,6,2023,14,0
OTHH,2023-06-26 20:00:00,51.6084,25.2746,-3.72,87.8,80.6,79.31,10.0,7.0,0.0,29.41,5.59,NSC,,HZ,105.14,OTHH 262000Z 01007KT 350V050 9000 NSC 31/27 Q0996 NOSIG,26,6,2023,20,0
OTHH,2023-06-26 21:00:00,51.6084,25.2746,-3.72,86.0,78.8,79.18,360.0,4.0,0.0,29.41,5.59,NSC,,HZ,99.38,OTHH 262100Z 36004KT 300V070 9000 NSC 30/26 Q0996 NOSIG,26,6,2023,21,0
OTHH,2023-06-26 22:00:00,51.6084,25.2746,-3.72,86.0,78.8,79.18,160.0,3.0,0.0,29.41,5.59,NSC,,HZ,99.38,OTHH 262200Z 16003KT 140V200 9000 NSC 30/26 Q0996 NOSIG,26,6,2023,22,0
OTHH,2023-06-26 23:00:00,51.6084,25.2746,-3.72,86.0,78.8,79.18,180.0,3.0,0.0,29.41,5.59,NSC,,HZ,99.38,OTHH 262300Z 18003KT 9000 NSC 30/26 Q0996 NOSIG,26,6,2023,23,0
OTHH,2023-06-27 02:00:00,51.6084,25.2746,-3.72,86.0,69.8,58.55,340.0,4.0,0.0,29.44,5.59,NSC,,HZ,90.58,OTHH 270200Z 34004KT 320V030 9000 NSC 30/21 Q0997 NOSIG,27,6,2023,2,0
OTHH,2023-06-27 03:00:00,51.6084,25.2746,-3.72,87.8,80.6,79.31,60.0,5.0,0.0,29.44,4.35,NSC,,HZ,105.14,OTHH 270300Z 06005KT 020V090 7000 NSC 31/27 Q0997 NOSIG,27,6,2023,3,0
OTHH,2023-06-27 04:00:00,51.6084,25.2746,-3.72,87.8,80.6,79.31,60.0,4.0,0.0,29.47,3.73,NSC,,HZ,105.14,OTHH 270400Z 06004KT 040V120 6000 NSC 31/27 Q0998 NOSIG,27,6,2023,4,0
OTHH,2023-06-27 05:00:00,51.6084,25.2746,-3.72,91.4,78.8,66.75,110.0,5.0,0.0,29.47,3.73,NSC,,HZ,107.79,OTHH 270500Z 11005KT 080V140 6000 NSC 33/26 Q0998 NOSIG,27,6,2023,5,0
OTHH,2023-06-27 09:00:00,51.6084,25.2746,-3.72,93.2,80.6,66.95,90.0,9.0,0.0,29.47,5.59,NSC,,HZ,113.52,OTHH 270900Z 09009KT 050V110 9000 NSC 34/27 Q0998 NOSIG,27,6,2023,9,0
OTHH,2023-06-27 10:00:00,51.6084,25.2746,-3.72,93.2,80.6,66.95,60.0,8.0,0.0,29.47,5.59,NSC,,HZ,113.52,OTHH 271000Z 06008KT 360V130 9000 NSC 34/27 Q0998 NOSIG,27,6,2023,10,0
OTHH,2023-06-27 11:00:00,51.6084,25.2746,-3.72,93.2,80.6,66.95,60.0,10.0,0.0,29.44,4.97,NSC,,HZ,113.52,OTHH 271100Z 06010KT 020V090 8000 NSC 34/27 Q0997 NOSIG,27,6,2023,11,0
OTHH,2023-06-27 12:00:00,51.6084,25.2746,-3.72,93.2,82.4,70.99,40.0,10.0,0.0,29.44,3.73,NSC,,HZ,117.1,OTHH 271200Z 04010KT 360V070 6000 NSC 34/28 Q0997 NOSIG,27,6,2023,12,0
OTHH,2023-06-27 13:00:00,51.6084,25.2746,-3.72,91.4,82.4,75.08,30.0,9.0,0.0,29.44,4.97,NSC,,HZ,114.36,OTHH 271300Z 03009KT 8000 NSC 33/28 Q0997 NOSIG,27,6,2023,13,0
OTHH,2023-06-27 14:00:00,51.6084,25.2746,-3.72,91.4,82.4,75.08,20.0,10.0,0.0,29.44,4.97,NSC,,HZ,114.36,OTHH 271400Z 02010KT 350V050 8000 NSC 33/28 Q0997 NOSIG,27,6,2023,14,0
OTHH,2023-06-27 15:00:00,51.6084,25.2746,-3.72,89.6,84.2,84.2,10.0,9.0,0.0,29.44,5.59,NSC,,HZ,115.19,OTHH 271500Z 01009KT 9000 NSC 32/29 Q0997 NOSIG,27,6,2023,15,0
OTHH,2023-06-27 16:00:00,51.6084,25.2746,-3.72,89.6,84.2,84.2,360.0,8.0,0.0,29.44,4.97,NSC,,HZ,115.19,OTHH 271600Z 36008KT 330V040 8000 NSC 32/29 Q0997 NOSIG,27,6,2023,16,0
OTHH,2023-06-27 17:00:00,51.6084,25.2746,-3.72,89.6,84.2,84.2,360.0,9.0,0.0,29.47,5.59,NSC,,HZ,115.19,OTHH 271700Z 36009KT 340V040 9000 NSC 32/29 Q0998 NOSIG,27,6,2023,17,0
OTHH,2023-06-27 18:00:00,51.6084,25.2746,-3.72,89.6,84.2,84.2,10.0,8.0,0.0,29.47,5.59,NSC,,HZ,115.19,OTHH 271800Z 01008KT 9000 NSC 32/29 Q0998 NOSIG,27,6,2023,18,0
OTHH,2023-06-27 19:00:00,51.6084,25.2746,-3.72,89.6,84.2,84.2,10.0,7.0,0.0,29.5,5.59,NSC,,HZ,115.19,OTHH 271900Z 01007KT 9000 NSC 32/29 Q0999 NOSIG,27,6,2023,19,0
OTHH,2023-06-27 21:00:00,51.6084,25.2746,-3.72,89.6,84.2,84.2,20.0,5.0,0.0,29.47,6.21,FEW,600.0,HZ,115.19,OTHH 272100Z 02005KT 9999 FEW006 32/29 Q0998 NOSIG,27,6,2023,21,0
OTHH,2023-06-27 22:00:00,51.6084,25.2746,-3.72,87.8,84.2,89.13,30.0,5.0,0.0,29.47,5.59,FEW,500.0,HZ,111.79,OTHH 272200Z 03005KT 9000 FEW005 31/29 Q0998 NOSIG,27,6,2023,22,0
OTHH,2023-06-27 23:00:00,51.6084,25.2746,-3.72,87.8,84.2,89.13,10.0,5.0,0.0,29.47,4.35,FEW,600.0,HZ,111.79,OTHH 272300Z 01005KT 340V060 7000 FEW006 31/29 Q0998 TEMPO 5000 HZ,27,6,2023,23,0
OTHH,2023-06-28 00:00:00,51.6084,25.2746,-3.72,87.8,84.2,89.13,,2.0,0.0,29.47,4.97,SCT,700.0,HZ,111.79,OTHH 280000Z VRB02KT 8000 SCT007 31/29 Q0998 TEMPO 5000 HZ,28,6,2023,0,0
OTHH,2023-06-28 01:00:00,51.6084,25.2746,-3.72,87.8,82.4,84.1,330.0,5.0,0.0,29.47,4.97,SCT,800.0,HZ,108.27,OTHH 280100Z 33005KT 8000 SCT008 31/28 Q0998 NOSIG,28,6,2023,1,0
OTHH,2023-06-28 02:00:00,51.6084,25.2746,-3.72,87.8,82.4,84.1,350.0,5.0,0.0,29.5,3.11,FEW,900.0,HZ,108.27,OTHH 280200Z 35005KT 310V040 5000 HZ FEW009 31/28 Q0999 TEMPO 4500,28,6,2023,2,0
OTHH,2023-06-28 03:00:00,51.6084,25.2746,-3.72,87.8,82.4,84.1,360.0,3.0,0.0,29.53,4.35,NSC,,HZ,108.27,OTHH 280300Z 36003KT 330V050 7000 NSC 31/28 Q1000 NOSIG,28,6,2023,3,0
OTHH,2023-06-28 04:00:00,51.6084,25.2746,-3.72,87.8,82.4,84.1,10.0,3.0,0.0,29.56,4.35,NSC,,HZ,108.27,OTHH 280400Z 01003KT 330V050 7000 NSC 31/28 Q1001 NOSIG,28,6,2023,4,0
OTHH,2023-06-28 05:00:00,51.6084,25.2746,-3.72,89.6,82.4,79.45,20.0,4.0,0.0,29.56,4.35,NSC,,HZ,111.44,OTHH 280500Z 02004KT 330V070 7000 NSC 32/28 Q1001 NOSIG,28,6,2023,5,0
OTHH,2023-06-28 06:00:00,51.6084,25.2746,-3.72,89.6,80.6,74.93,350.0,6.0,0.0,29.56,4.35,NSC,,HZ,108.11,OTHH 280600Z 35006KT 310V040 7000 NSC 32/27 Q1001 NOSIG,28,6,2023,6,0
OTHH,2023-06-28 07:00:00,51.6084,25.2746,-3.72,93.2,78.8,63.11,320.0,6.0,0.0,29.56,5.59,NSC,,HZ,110.34,OTHH 280700Z 32006KT 290V350 9000 NSC 34/26 Q1001 NOSIG,28,6,2023,7,0
OTHH,2023-07-07 13:00:00,51.6084,25.2746,-3.72,98.6,78.8,53.47,80.0,10.0,0.0,29.41,5.59,NSC,,HZ,117.71,OTHH 071300Z 08010KT 9000 NSC 37/26 Q0996 NOSIG,7,7,2023,13,0
OTHH,2023-07-08 02:00:00,51.6084,25.2746,-3.72,91.4,75.2,59.24,10.0,7.0,0.0,29.44,5.59,NSC,,HZ,102.65,OTHH 080200Z 01007KT 9000 NSC 33/24 Q0997 NOSIG,8,7,2023,2,0
OTHH,2023-07-08 03:00:00,51.6084,25.2746,-3.72,91.4,77.0,62.9,30.0,6.0,0.0,29.47,5.59,NSC,,HZ,105.06,OTHH 080300Z 03006KT 340V060 9000 NSC 33/25 Q0998 NOSIG,8,7,2023,3,0
OTHH,2023-07-08 04:00:00,51.6084,25.2746,-3.72,91.4,84.2,79.58,90.0,6.0,0.0,29.5,4.35,NSC,,HZ,118.28,OTHH 080400Z 09006KT 7000 NSC 33/29 Q0999 NOSIG,8,7,2023,4,0
OTHH,2023-07-08 05:00:00,51.6084,25.2746,-3.72,93.2,77.0,59.47,120.0,6.0,0.0,29.5,5.59,NSC,,HZ,107.52,OTHH 080500Z 12006KT 9000 NSC 34/25 Q0999 NOSIG,8,7,2023,5,0
OTHH,2023-07-08 14:00:00,51.6084,25.2746,-3.72,98.6,73.4,44.67,60.0,11.0,0.0,29.41,5.59,NSC,,HZ,109.77,OTHH 081400Z 06011KT 9000 NSC 37/23 Q0996 NOSIG,8,7,2023,14,0
OTHH,2023-07-08 15:00:00,51.6084,25.2746,-3.72,95.0,78.8,59.69,80.0,7.0,0.0,29.41,4.35,NSC,,HZ,112.83,OTHH 081500Z 08007G17KT 020V110 7000 NSC 35/26 Q0996 NOSIG,8,7,2023,15,0
OTHH,2023-07-08 16:00:00,51.6084,25.2746,-3.72,93.2,80.6,66.95,70.0,3.0,0.0,29.44,3.73,NSC,,HZ,113.52,OTHH 081600Z 07003KT 6000 NSC 34/27 Q0997 NOSIG,8,7,2023,16,0
OTHH,2023-07-08 17:00:00,51.6084,25.2746,-3.72,93.2,80.6,66.95,,1.0,0.0,29.44,4.35,NSC,,HZ,113.52,OTHH 081700Z VRB01KT 7000 NSC 34/27 Q0997 NOSIG,8,7,2023,17,0
OTHH,2023-07-08 18:00:00,51.6084,25.2746,-3.72,91.4,80.6,70.81,,2.0,0.0,29.47,4.35,NSC,,HZ,110.88,OTHH 081800Z VRB02KT 7000 NSC 33/27 Q0998 NOSIG,8,7,2023,18,0
OTHH,2023-07-08 19:00:00,51.6084,25.2746,-3.72,93.2,80.6,66.95,120.0,3.0,0.0,29.44,4.97,NSC,,HZ,113.52,OTHH 081900Z 12003KT 8000 NSC 34/27 Q0997 NOSIG,8,7,2023,19,0
OTHH,2023-07-08 20:00:00,51.6084,25.2746,-3.72,91.4,77.0,62.9,,2.0,0.0,29.44,4.97,NSC,,HZ,105.06,OTHH 082000Z VRB02KT 8000 NSC 33/25 Q0997 NOSIG,8,7,2023,20,0
OTHH,2023-07-08 21:00:00,51.6084,25.2746,-3.72,91.4,78.8,66.75,220.0,4.0,0.0,29.44,5.59,NSC,,HZ,107.79,OTHH 082100Z 22004KT 190V260 9000 NSC 33/26 Q0997 NOSIG,8,7,2023,21,0
OTHH,2023-07-08 23:00:00,51.6084,25.2746,-3.72,89.6,75.2,62.68,200.0,4.0,0.0,29.41,5.59,NSC,,HZ,100.23,OTHH 082300Z 20004KT 170V300 9000 NSC 32/24 Q0996 NOSIG,8,7,2023,23,0
OTHH,2023-07-09 02:00:00,51.6084,25.2746,-3.72,91.4,69.8,49.36,,2.0,0.0,29.44,4.97,NSC,,HZ,96.99,OTHH 090200Z VRB02KT 8000 NSC 33/21 Q0997 NOSIG,9,7,2023,2,0
OTHH,2023-07-09 03:00:00,51.6084,25.2746,-3.72,93.2,77.0,59.47,70.0,3.0,0.0,29.44,4.35,NSC,,HZ,107.52,OTHH 090300Z 07003KT 7000 NSC 34/25 Q0997 NOSIG,9,7,2023,3,0
OTHH,2023-07-09 04:00:00,51.6084,25.2746,-3.72,95.0,77.0,56.25,,2.0,0.0,29.47,4.35,NSC,,HZ,109.94,OTHH 090400Z VRB02KT 7000 NSC 35/25 Q0998 NOSIG,9,7,2023,4,0
OTHH,2023-07-09 05:00:00,51.6084,25.2746,-3.72,98.6,68.0,37.17,60.0,4.0,0.0,29.47,4.35,NSC,,HZ,104.22,OTHH 090500Z 06004KT 7000 NSC 37/20 Q0998 NOSIG,9,7,2023,5,0
OTHH,2023-07-09 06:00:00,51.6084,25.2746,-3.72,98.6,77.0,50.38,90.0,6.0,0.0,29.47,4.97,NSC,,HZ,114.75,OTHH 090600Z 09006KT 8000 NSC 37/25 Q0998 NOSIG,9,7,2023,6,0
OTHH,2023-07-09 07:00:00,51.6084,25.2746,-3.72,100.4,69.8,37.44,110.0,6.0,0.0,29.47,4.97,NSC,,HZ,108.13,OTHH 090700Z 11006KT 8000 NSC 38/21 Q0998 NOSIG,9,7,2023,7,0
OTHH,2023-07-09 08:00:00,51.6084,25.2746,-3.72,102.2,69.8,35.47,100.0,5.0,0.0,29.47,5.59,NSC,,HZ,110.41,OTHH 090800Z 10005KT 9000 NSC 39/21 Q0998 NOSIG,9,7,2023,8,0
OTHH,2023-07-09 09:00:00,51.6084,25.2746,-3.72,98.6,78.8,53.47,90.0,8.0,0.0,29.47,3.73,NSC,,HZ,117.71,OTHH 090900Z 09008KT 6000 NSC 37/26 Q0998 NOSIG,9,7,2023,9,0
OTHH,2023-07-09 10:00:00,51.6084,25.2746,-3.72,102.2,71.6,37.71,100.0,6.0,0.0,29.44,3.73,NSC,,HZ,112.32,OTHH 091000Z 10006KT 6000 NSC 39/22 Q0997 NOSIG,9,7,2023,10,0
OTHH,2023-07-09 11:00:00,51.6084,25.2746,-3.72,104.0,69.8,33.61,110.0,5.0,0.0,29.44,4.35,NSC,,HZ,112.7,OTHH 091100Z 11005KT 7000 NSC 40/21 Q0997 NOSIG,9,7,2023,11,0
OTHH,2023-07-09 12:00:00,51.6084,25.2746,-3.72,104.0,66.2,29.7,100.0,5.0,0.0,29.41,4.35,NSC,,HZ,109.4,OTHH 091200Z 10005KT 7000 NSC 40/19 Q0996 NOSIG,9,7,2023,12,0
OTHH,2023-07-09 13:00:00,51.6084,25.2746,-3.72,100.4,71.6,39.81,90.0,5.0,0.0,29.41,3.73,NSC,,HZ,110.0,OTHH 091300Z 09005KT 6000 NSC 38/22 Q0996 NOSIG,9,7,2023,13,0
OTHH,2023-07-09 14:00:00,51.6084,25.2746,-3.72,98.6,69.8,39.54,90.0,5.0,0.0,29.41,4.35,NSC,,HZ,105.85,OTHH 091400Z 09005KT 7000 NSC 37/21 Q0996 NOSIG,9,7,2023,14,0
OTHH,2023-07-09 15:00:00,51.6084,25.2746,-3.72,96.8,69.8,41.77,80.0,6.0,0.0,29.41,4.97,NSC,,HZ,103.6,OTHH 091500Z 08006KT 8000 NSC 36/21 Q0996 NOSIG,9,7,2023,15,0
OTHH,2023-07-09 16:00:00,51.6084,25.2746,-3.72,95.0,77.0,56.25,70.0,5.0,0.0,29.41,4.97,NSC,,HZ,109.94,OTHH 091600Z 07005KT 8000 NSC 35/25 Q0996 NOSIG,9,7,2023,16,0
OTHH,2023-07-09 17:00:00,51.6084,25.2746,-3.72,93.2,77.0,59.47,50.0,4.0,0.0,29.44,4.97,NSC,,HZ,107.52,OTHH 091700Z 05004KT 8000 NSC 34/25 Q0997 NOSIG,9,7,2023,17,0
OTHH,2023-07-09 18:00:00,51.6084,25.2746,-3.72,93.2,80.6,66.95,10.0,5.0,0.0,29.44,4.97,NSC,,HZ,113.52,OTHH 091800Z 01005KT 8000 NSC 34/27 Q0997 NOSIG,9,7,2023,18,0
OTHH,2023-07-09 19:00:00,51.6084,25.2746,-3.72,91.4,78.8,66.75,360.0,4.0,0.0,29.47,4.97,NSC,,HZ,107.79,OTHH 091900Z 36004KT 8000 NSC 33/26 Q0998 NOSIG,9,7,2023,19,0
OTHH,2023-07-09 20:00:00,51.6084,25.2746,-3.72,91.4,78.8,66.75,10.0,4.0,0.0,29.44,5.59,NSC,,HZ,107.79,OTHH 092000Z 01004KT 9000 NSC 33/26 Q0997 NOSIG,9,7,2023,20,0
OTHH,2023-07-09 21:00:00,51.6084,25.2746,-3.72,91.4,78.8,66.75,360.0,4.0,0.0,29.44,5.59,NSC,,HZ,107.79,OTHH 092100Z 36004KT 9000 NSC 33/26 Q0997 NOSIG,9,7,2023,21,0
OTHH,2023-07-09 22:00:00,51.6084,25.2746,-3.72,87.8,78.8,74.77,350.0,3.0,0.0,29.44,5.59,NSC,,HZ,102.37,OTHH 092200Z 35003KT 9000 NSC 31/26 Q0997 NOSIG,9,7,2023,22,0
OTHH,2023-07-09 23:00:00,51.6084,25.2746,-3.72,89.6,78.8,70.63,360.0,4.0,0.0,29.41,5.59,NSC,,HZ,105.15,OTHH 092300Z 36004KT 9000 NSC 32/26 Q0996 NOSIG,9,7,2023,23,0
OTHH,2023-07-10 00:00:00,51.6084,25.2746,-3.72,87.8,78.8,74.77,360.0,4.0,0.0,29.41,5.59,NSC,,HZ,102.37,OTHH 100000Z 36004KT 9000 NSC 31/26 Q0996 NOSIG,10,7,2023,0,0
OTHH,2023-07-10 01:00:00,51.6084,25.2746,-3.72,86.0,78.8,79.18,,3.0,0.0,29.41,5.59,NSC,,HZ,99.38,OTHH 100100Z VRB03KT 9000 NSC 30/26 Q0996 NOSIG,10,7,2023,1,0
OTHH,2023-07-10 02:00:00,51.6084,25.2746,-3.72,87.8,77.0,70.45,190.0,4.0,0.0,29.44,3.73,NSC,,HZ,99.92,OTHH 100200Z 19004KT 170V240 6000 NSC 31/25 Q0997 NOSIG,10,7,2023,2,0
OTHH,2023-07-10 03:00:00,51.6084,25.2746,-3.72,87.8,73.4,62.47,190.0,3.0,0.0,29.44,3.11,NSC,,HZ,95.86,OTHH 100300Z 19003KT 160V250 5000 HZ NSC 31/23 Q0997 NOSIG,10,7,2023,3,0
OTHH,2023-07-10 04:00:00,51.6084,25.2746,-3.72,93.2,80.6,66.95,80.0,3.0,0.0,29.47,3.11,NSC,,HZ,113.52,OTHH 100400Z 08003KT 5000 HZ NSC 34/27 Q0998 NOSIG,10,7,2023,4,0
OTHH,2023-07-10 05:00:00,51.6084,25.2746,-3.72,93.2,78.8,63.11,120.0,5.0,0.0,29.47,3.11,NSC,,HZ,110.34,OTHH 100500Z 12005KT 5000 HZ NSC 34/26 Q0998 NOSIG,10,7,2023,5,0
OTHH,2023-07-10 06:00:00,51.6084,25.2746,-3.72,95.0,77.0,56.25,120.0,6.0,0.0,29.47,3.11,NSC,,HZ,109.94,OTHH 100600Z 12006KT 5000 HZ NSC 35/25 Q0998 NOSIG,10,7,2023,6,0
OTHH,2023-07-10 07:00:00,51.6084,25.2746,-3.72,96.8,71.6,44.41,120.0,5.0,0.0,29.47,3.73,NSC,,HZ,105.4,OTHH 100700Z 12005KT 6000 NSC 36/22 Q0998 NOSIG,10,7,2023,7,0
OTHH,2023-07-10 08:00:00,51.6084,25.2746,-3.72,98.6,77.0,50.38,120.0,7.0,0.0,29.5,4.35,NSC,,HZ,114.75,OTHH 100800Z 12007KT 7000 NSC 37/25 Q0999 NOSIG,10,7,2023,8,0
OTHH,2023-07-10 09:00:00,51.6084,25.2746,-3.72,98.6,75.2,47.45,90.0,6.0,0.0,29.47,3.73,NSC,,HZ,112.12,OTHH 100900Z 09006KT 6000 NSC 37/24 Q0998 NOSIG,10,7,2023,9,0
OTHH,2023-07-10 10:00:00,51.6084,25.2746,-3.72,98.6,73.4,44.67,90.0,6.0,0.0,29.47,3.73,NSC,,HZ,109.77,OTHH 101000Z 09006KT 6000 NSC 37/23 Q0998 NOSIG,10,7,2023,10,0
OTHH,2023-07-10 11:00:00,51.6084,25.2746,-3.72,98.6,73.4,44.67,70.0,8.0,0.0,29.44,3.73,NSC,,HZ,109.77,OTHH 101100Z 07008KT 6000 NSC 37/23 Q0997 NOSIG,10,7,2023,11,0
OTHH,2023-07-10 12:00:00,51.6084,25.2746,-3.72,98.6,75.2,47.45,80.0,6.0,0.0,29.44,3.73,NSC,,HZ,112.12,OTHH 101200Z 08006KT 6000 NSC 37/24 Q0997 NOSIG,10,7,2023,12,0
OTHH,2023-07-10 13:00:00,51.6084,25.2746,-3.72,98.6,75.2,47.45,60.0,7.0,0.0,29.44,3.73,NSC,,HZ,112.12,OTHH 101300Z 06007KT 6000 NSC 37/24 Q0997 NOSIG,10,7,2023,13,0
OTHH,2023-07-10 14:00:00,51.6084,25.2746,-3.72,96.8,73.4,47.19,50.0,6.0,0.0,29.44,3.73,NSC,,HZ,107.45,OTHH 101400Z 05006KT 6000 NSC 36/23 Q0997 NOSIG,10,7,2023,14,0
OTHH,2023-07-10 15:00:00,51.6084,25.2746,-3.72,95.0,78.8,59.69,60.0,6.0,0.0,29.44,2.8,NSC,,HZ,112.83,OTHH 101500Z 06006KT 4500 HZ NSC 35/26 Q0997 NOSIG,10,7,2023,15,0
OTHH,2023-07-10 16:00:00,51.6084,25.2746,-3.72,93.2,78.8,63.11,50.0,6.0,0.0,29.44,3.11,NSC,,HZ,110.34,OTHH 101600Z 05006KT 5000 HZ NSC 34/26 Q0997 NOSIG,10,7,2023,16,0
OTHH,2023-07-10 17:00:00,51.6084,25.2746,-3.72,91.4,80.6,70.81,40.0,6.0,0.0,29.47,3.11,NSC,,HZ,110.88,OTHH 101700Z 04006KT 5000 HZ NSC 33/27 Q0998 NOSIG,10,7,2023,17,0
OTHH,2023-07-10 18:00:00,51.6084,25.2746,-3.72,91.4,82.4,75.08,30.0,6.0,0.0,29.47,3.11,NSC,,HZ,114.36,OTHH 101800Z 03006KT 5000 HZ NSC 33/28 Q0998 NOSIG,10,7,2023,18,0
OTHH,2023-07-10 19:00:00,51.6084,25.2746,-3.72,91.4,82.4,75.08,30.0,5.0,0.0,29.47,4.35,NSC,,HZ,114.36,OTHH 101900Z 03005KT 7000 NSC 33/28 Q0998 NOSIG,10,7,2023,19,0
OTHH,2023-07-10 20:00:00,51.6084,25.2746,-3.72,91.4,82.4,75.08,20.0,5.0,0.0,29.47,5.59,NSC,,HZ,114.36,OTHH 102000Z 02005KT 9000 NSC 33/28 Q0998 NOSIG,10,7,2023,20,0
OTHH,2023-07-10 21:00:00,51.6084,25.2746,-3.72,91.4,80.6,70.81,30.0,3.0,0.0,29.47,5.59,NSC,,HZ,110.88,OTHH 102100Z 03003KT 9000 NSC 33/27 Q0998 NOSIG,10,7,2023,21,0
OTHH,2023-07-10 22:00:00,51.6084,25.2746,-3.72,87.8,78.8,74.77,360.0,4.0,0.0,29.44,5.59,NSC,,HZ,102.37,OTHH 102200Z 36004KT 9000 NSC 31/26 Q0997 NOSIG,10,7,2023,22,0
OTHH,2023-07-10 23:00:00,51.6084,25.2746,-3.72,87.8,78.8,74.77,340.0,2.0,0.0,29.44,5.59,NSC,,HZ,102.37,OTHH 102300Z 34002KT 9000 NSC 31/26 Q0997 NOSIG,10,7,2023,23,0
OTHH,2023-07-11 00:00:00,51.6084,25.2746,-3.72,87.8,78.8,74.77,30.0,4.0,0.0,29.44,5.59,NSC,,HZ,102.37,OTHH 110000Z 03004KT 350V090 9000 NSC 31/26 Q0997 NOSIG,11,7,2023,0,0
OTHH,2023-07-11 01:00:00,51.6084,25.2746,-3.72,87.8,78.8,74.77,160.0,4.0,0.0,29.47,5.59,NSC,,HZ,102.37,OTHH 110100Z 16004KT 140V250 9000 NSC 31/26 Q0998 NOSIG,11,7,2023,1,0
OTHH,2023-07-11 02:00:00,51.6084,25.2746,-3.72,87.8,75.2,66.35,240.0,3.0,0.0,29.47,3.73,NSC,,HZ,97.76,OTHH 110200Z 24003KT 210V310 6000 NSC 31/24 Q0998 NOSIG,11,7,2023,2,0
OTHH,2023-07-11 03:00:00,51.6084,25.2746,-3.72,91.4,77.0,62.9,150.0,8.0,0.0,29.5,4.35,NSC,,HZ,105.06,OTHH 110300Z 15008KT 120V190 7000 NSC 33/25 Q0999 NOSIG,11,7,2023,3,0
OTHH,2023-07-11 04:00:00,51.6084,25.2746,-3.72,93.2,82.4,70.99,150.0,10.0,0.0,29.5,4.35,NSC,,HZ,117.1,OTHH 110400Z 15010KT 7000 NSC 34/28 Q0999 NOSIG,11,7,2023,4,0
OTHH,2023-07-11 05:00:00,51.6084,25.2746,-3.72,95.0,80.6,63.32,140.0,9.0,0.0,29.53,4.35,NSC,,HZ,116.07,OTHH 110500Z 14009KT 7000 NSC 35/27 Q1000 NOSIG,11,7,2023,5,0
OTHH,2023-07-11 06:00:00,51.6084,25.2746,-3.72,96.8,73.4,47.19,140.0,10.0,0.0,29.53,4.97,NSC,,HZ,107.45,OTHH 110600Z 14010KT 8000 NSC 36/23 Q1000 NOSIG,11,7,2023,6,0
OTHH,2023-07-11 07:00:00,51.6084,25.2746,-3.72,104.0,66.2,29.7,90.0,5.0,0.0,29.53,5.59,NSC,,HZ,109.4,OTHH 110700Z 09005KT 050V120 9000 NSC 40/19 Q1000 NOSIG,11,7,2023,7,0
OTHH,2023-07-11 14:00:00,51.6084,25.2746,-3.72,100.4,75.2,44.94,70.0,4.0,0.0,29.5,4.35,NSC,,HZ,114.49,OTHH 111400Z 07004KT 7000 NSC 38/24 Q0999 NOSIG,11,7,2023,14,0
OTHH,2023-07-11 15:00:00,51.6084,25.2746,-3.72,98.6,73.4,44.67,40.0,3.0,0.0,29.5,4.35,NSC,,HZ,109.77,OTHH 111500Z 04003KT 7000 NSC 37/23 Q0999 NOSIG,11,7,2023,15,0
OTHH,2023-07-13 03:00:00,51.6084,25.2746,-3.72,95.0,68.0,41.5,310.0,18.0,0.0,29.5,4.35,NSC,,HZ,99.82,OTHH 130300Z 31018KT 7000 NSC 35/20 Q0999 NOSIG,13,7,2023,3,0
OTHH,2023-07-13 04:00:00,51.6084,25.2746,-3.72,98.6,66.2,34.93,320.0,20.0,0.0,29.5,3.73,NSC,,HZ,102.78,OTHH 130400Z 32020KT 6000 NSC 37/19 Q0999 NOSIG,13,7,2023,4,0
OTHH,2023-07-13 05:00:00,51.6084,25.2746,-3.72,102.2,57.2,22.79,340.0,18.0,0.0,29.5,4.35,NSC,,HZ,101.78,OTHH 130500Z 34018KT 7000 NSC 39/14 Q0999 NOSIG,13,7,2023,5,0
OTHH,2023-07-13 06:00:00,51.6084,25.2746,-3.72,102.2,60.8,25.93,330.0,25.0,0.0,29.5,4.35,NSC,,HZ,103.57,OTHH 130600Z 33025KT 7000 NSC 39/16 Q0999 NOSIG,13,7,2023,6,0
OTHH,2023-07-13 07:00:00,51.6084,25.2746,-3.72,104.0,62.6,26.18,340.0,18.0,0.0,29.5,4.97,NSC,,HZ,106.77,OTHH 130700Z 34018KT 8000 NSC 40/17 Q0999 NOSIG,13,7,2023,7,0
OTHH,2023-07-13 08:00:00,51.6084,25.2746,-3.72,102.2,75.2,42.57,350.0,16.0,0.0,29.5,5.59,NSC,,HZ,116.86,OTHH 130800Z 35016KT 9000 NSC 39/24 Q0999 NOSIG,13,7,2023,8,0
OTHH,2023-07-14 13:00:00,51.6084,25.2746,-3.72,96.8,80.6,59.92,100.0,13.0,0.0,29.41,4.97,NSC,,HZ,118.57,OTHH 141300Z 10013KT 8000 NSC 36/27 Q0996 NOSIG,14,7,2023,13,0
OTHH,2023-07-14 14:00:00,51.6084,25.2746,-3.72,95.0,84.2,71.16,100.0,11.0,0.0,29.41,3.73,NSC,,HZ,123.83,OTHH 141400Z 10011KT 6000 NSC 35/29 Q0996 NOSIG,14,7,2023,14,0
OTHH,2023-07-14 15:00:00,51.6084,25.2746,-3.72,93.2,84.2,75.24,90.0,10.0,0.0,29.41,3.11,NSC,,HZ,121.14,OTHH 141500Z 09010KT 5000 HZ NSC 34/29 Q0996 TEMPO 4000,14,7,2023,15,0
OTHH,2023-07-14 16:00:00,51.6084,25.2746,-3.72,91.4,84.2,79.58,100.0,9.0,0.0,29.44,1.86,NSC,,HZ,118.28,OTHH 141600Z 10009KT 3000 HZ NSC 33/29 Q0997 NOSIG,14,7,2023,16,0
OTHH,2023-07-14 17:00:00,51.6084,25.2746,-3.72,91.4,86.0,84.31,110.0,7.0,0.0,29.44,1.86,NSC,,HZ,122.69,OTHH 141700Z 11007KT 3000 HZ NSC 33/30 Q0997 NOSIG,14,7,2023,17,0
OTHH,2023-07-14 18:00:00,51.6084,25.2746,-3.72,91.4,86.0,84.31,100.0,5.0,0.0,29.47,1.86,FEW,1500.0,HZ,122.69,OTHH 141800Z 10005KT 3000 HZ FEW015 33/30 Q0998 NOSIG,14,7,2023,18,0
OTHH,2023-07-14 19:00:00,51.6084,25.2746,-3.72,91.4,84.2,79.58,130.0,6.0,0.0,29.47,1.86,NSC,,HZ,118.28,OTHH 141900Z 13006KT 3000 HZ NSC 33/29 Q0998 NOSIG,14,7,2023,19,0
OTHH,2023-07-14 20:00:00,51.6084,25.2746,-3.72,91.4,86.0,84.31,150.0,7.0,0.0,29.47,1.86,NSC,,HZ,122.69,OTHH 142000Z AUTO 15007KT 3000 HZ NSC 33/30 Q0998 NOSIG,14,7,2023,20,0
OTHH,2023-07-14 21:00:00,51.6084,25.2746,-3.72,89.6,86.0,89.21,120.0,2.0,0.0,29.47,1.86,NSC,,HZ,119.42,OTHH 142100Z AUTO 12002KT 3000 HZ NSC 32/30 Q0998 NOSIG,14,7,2023,21,0
OTHH,2023-07-14 22:00:00,51.6084,25.2746,-3.72,89.6,86.0,89.21,100.0,3.0,0.0,29.47,1.86,NSC,,HZ,119.42,OTHH 142200Z 10003KT 060V130 3000 HZ NSC 32/30 Q0998 NOSIG,14,7,2023,22,0
OTHH,2023-07-14 23:00:00,51.6084,25.2746,-3.72,89.6,86.0,89.21,140.0,4.0,0.0,29.44,1.86,NSC,,HZ,119.42,OTHH 142300Z 14004KT 3000 HZ NSC 32/30 Q0997 NOSIG,14,7,2023,23,0
OTHH,2023-07-15 00:00:00,51.6084,25.2746,-3.72,89.6,84.2,84.2,120.0,3.0,0.0,29.44,1.86,NSC,,HZ,115.19,OTHH 150000Z 12003KT 090V200 3000 HZ NSC 32/29 Q0997 NOSIG,15,7,2023,0,0
OTHH,2023-07-15 01:00:00,51.6084,25.2746,-3.72,89.6,84.2,84.2,60.0,5.0,0.0,29.47,1.86,NSC,,HZ,115.19,OTHH 150100Z 06005KT 3000 HZ NSC 32/29 Q0998 NOSIG,15,7,2023,1,0
OTHH,2023-07-15 02:00:00,51.6084,25.2746,-3.72,89.6,84.2,84.2,30.0,9.0,0.0,29.5,1.86,NSC,,HZ,115.19,OTHH 150200Z 03009KT 3000 HZ NSC 32/29 Q0999 NOSIG,15,7,2023,2,0
OTHH,2023-07-15 03:00:00,51.6084,25.2746,-3.72,89.6,82.4,79.45,50.0,9.0,0.0,29.5,1.86,FEW,3000.0,HZ,111.44,OTHH 150300Z 05009KT 3000 HZ FEW030 32/28 Q0999 NOSIG,15,7,2023,3,0
OTHH,2023-07-15 04:00:00,51.6084,25.2746,-3.72,91.4,80.6,70.81,140.0,6.0,0.0,29.5,2.17,NSC,,HZ,110.88,OTHH 150400Z 14006KT 3500 HZ NSC 33/27 Q0999 NOSIG,15,7,2023,4,0
OTHH,2023-07-15 05:00:00,51.6084,25.2746,-3.72,93.2,80.6,66.95,140.0,8.0,0.0,29.5,2.8,NSC,,HZ,113.52,OTHH 150500Z 14008KT 4500 HZ NSC 34/27 Q0999 NOSIG,15,7,2023,5,0
OTHH,2023-07-15 06:00:00,51.6084,25.2746,-3.72,95.0,82.4,67.14,140.0,10.0,0.0,29.5,2.49,NSC,,HZ,119.73,OTHH 150600Z 14010KT 4000 HZ NSC 35/28 Q0999 NOSIG,15,7,2023,6,0
OTHH,2023-07-15 07:00:00,51.6084,25.2746,-3.72,100.4,78.8,50.63,170.0,9.0,0.0,29.5,4.35,NSC,,HZ,120.13,OTHH 150700Z 17009KT 150V220 7000 NSC 38/26 Q0999 NOSIG,15,7,2023,7,0
OTHH,2023-07-15 08:00:00,51.6084,25.2746,-3.72,96.8,82.4,63.53,80.0,8.0,0.0,29.5,2.49,NSC,,HZ,122.27,OTHH 150800Z 08008KT 4000 HZ NSC 36/28 Q0999 NOSIG,15,7,2023,8,0
OTHH,2023-07-15 09:00:00,51.6084,25.2746,-3.72,98.6,84.2,63.74,90.0,8.0,0.0,29.47,2.49,NSC,,HZ,128.92,OTHH 150900Z 09008KT 4000 HZ NSC 37/29 Q0998 NOSIG,15,7,2023,9,0
OTHH,2023-07-15 10:00:00,51.6084,25.2746,-3.72,105.8,68.0,29.96,110.0,6.0,0.0,29.47,4.35,NSC,,HZ,113.2,OTHH 151000Z 11006KT 7000 NSC 41/20 Q0998 NOSIG,15,7,2023,10,0
OTHH,2023-07-15 11:00:00,51.6084,25.2746,-3.72,105.8,60.8,23.29,80.0,4.0,0.0,29.44,4.97,NSC,,HZ,107.75,OTHH 151100Z 08004KT 8000 NSC 41/16 Q0997 NOSIG,15,7,2023,11,0
OTHH,2023-07-15 12:00:00,51.6084,25.2746,-3.72,104.0,64.4,27.89,80.0,6.0,0.0,29.44,4.35,NSC,,HZ,108.01,OTHH 151200Z 08006KT 7000 NSC 40/18 Q0997 NOSIG,15,7,2023,12,0
OTHH,2023-07-15 13:00:00,51.6084,25.2746,-3.72,100.4,77.0,47.71,80.0,7.0,0.0,29.41,3.73,NSC,,HZ,117.15,OTHH 151300Z 08007KT 6000 NSC 38/25 Q0996 NOSIG,15,7,2023,13,0
OTHH,2023-07-15 14:00:00,51.6084,25.2746,-3.72,96.8,84.2,67.34,100.0,9.0,0.0,29.41,2.3,NSC,,HZ,126.41,OTHH 151400Z 10009KT 3700 HZ NSC 36/29 Q0996 TEMPO 3500,15,7,2023,14,0
OTHH,2023-07-15 15:00:00,51.6084,25.2746,-3.72,95.0,86.0,75.39,90.0,8.0,0.0,29.41,1.68,NSC,,HZ,128.43,OTHH 151500Z 09008KT 2700 HZ NSC 35/30 Q0996 TEMPO 2000,15,7,2023,15,0
OTHH,2023-07-15 16:00:00,51.6084,25.2746,-3.72,93.2,86.0,79.71,50.0,6.0,0.0,29.44,2.17,NSC,,HZ,125.66,OTHH 151600Z 05006KT 3500 HZ NSC 34/30 Q0997 NOSIG,15,7,2023,16,0
OTHH,2023-07-15 17:00:00,51.6084,25.2746,-3.72,93.2,84.2,75.24,10.0,7.0,0.0,29.47,2.8,NSC,,HZ,121.14,OTHH 151700Z 01007KT 340V040 4500 HZ NSC 34/29 Q0998 NOSIG,15,7,2023,17,0
OTHH,2023-07-15 18:00:00,51.6084,25.2746,-3.72,93.2,86.0,79.71,10.0,7.0,0.0,29.47,3.11,NSC,,HZ,125.66,OTHH 151800Z 01007KT 330V030 5000 HZ NSC 34/30 Q0998 NOSIG,15,7,2023,18,0
OTHH,2023-07-15 19:00:00,51.6084,25.2746,-3.72,93.2,87.8,84.41,360.0,7.0,0.0,29.47,2.8,NSC,,HZ,130.74,OTHH 151900Z 36007KT 330V040 4500 HZ NSC 34/31 Q0998 NOSIG,15,7,2023,19,0
OTHH,2023-07-15 20:00:00,51.6084,25.2746,-3.72,91.4,87.8,89.28,40.0,5.0,0.0,29.47,2.49,NSC,,HZ,127.63,OTHH 152000Z 04005KT 4000 HZ NSC 33/31 Q0998 NOSIG,15,7,2023,20,0
OTHH,2023-07-15 21:00:00,51.6084,25.2746,-3.72,91.4,86.0,84.31,30.0,3.0,0.0,29.47,2.49,NSC,,HZ,122.69,OTHH 152100Z 03003KT 4000 HZ NSC 33/30 Q0998 NOSIG,15,7,2023,21,0
OTHH,2023-07-15 22:00:00,51.6084,25.2746,-3.72,93.2,84.2,75.24,,2.0,0.0,29.44,2.49,NSC,,HZ,121.14,OTHH 152200Z VRB02KT 4000 HZ NSC 34/29 Q0997 NOSIG,15,7,2023,22,0
OTHH,2023-07-15 23:00:00,51.6084,25.2746,-3.72,89.6,82.4,79.45,10.0,4.0,0.0,29.44,2.8,NSC,,HZ,111.44,OTHH 152300Z 01004KT 4500 HZ NSC 32/28 Q0997 NOSIG,15,7,2023,23,0
OTHH,2023-07-16 00:00:00,51.6084,25.2746,-3.72,93.2,77.0,59.47,,2.0,0.0,29.44,3.11,NSC,,HZ,107.52,OTHH 160000Z VRB02KT 5000 HZ NSC 34/25 Q0997 NOSIG,16,7,2023,0,0
OTHH,2023-07-16 01:00:00,51.6084,25.2746,-3.72,93.2,82.4,70.99,150.0,3.0,0.0,29.44,4.35,NSC,,HZ,117.1,OTHH 160100Z 15003KT 7000 NSC 34/28 Q0997 NOSIG,16,7,2023,1,0
OTHH,2023-07-16 02:00:00,51.6084,25.2746,-3.72,91.4,82.4,75.08,180.0,5.0,0.0,29.47,3.11,NSC,,HZ,114.36,OTHH 160200Z 18005KT 160V230 5000 HZ NSC 33/28 Q0998 NOSIG,16,7,2023,2,0
OTHH,2023-07-16 03:00:00,51.6084,25.2746,-3.72,93.2,82.4,70.99,180.0,6.0,0.0,29.47,3.73,NSC,,HZ,117.1,OTHH 160300Z 18006KT 150V220 6000 NSC 34/28 Q0998 NOSIG,16,7,2023,3,0
OTHH,2023-07-16 04:00:00,51.6084,25.2746,-3.72,95.0,80.6,63.32,230.0,4.0,0.0,29.5,4.35,NSC,,HZ,116.07,OTHH 160400Z 23004KT 190V310 7000 NSC 35/27 Q0999 NOSIG,16,7,2023,4,0
OTHH,2023-07-16 05:00:00,51.6084,25.2746,-3.72,96.8,78.8,56.48,,4.0,0.0,29.5,4.35,NSC,,HZ,115.28,OTHH 160500Z VRB04KT 7000 NSC 36/26 Q0999 NOSIG,16,7,2023,5,0
OTHH,2023-07-16 06:00:00,51.6084,25.2746,-3.72,102.2,75.2,42.57,220.0,5.0,0.0,29.5,4.97,NSC,,HZ,116.86,OTHH 160600Z 22005KT 160V300 8000 NSC 39/24 Q0999 NOSIG,16,7,2023,6,0
OTHH,2023-07-16 07:00:00,51.6084,25.2746,-3.72,102.2,77.0,45.2,20.0,12.0,0.0,29.5,3.73,NSC,,HZ,119.55,OTHH 160700Z 02012KT 6000 NSC 39/25 Q0999 TEMPO 5000 HZ,16,7,2023,7,0
OTHH,2023-07-16 08:00:00,51.6084,25.2746,-3.72,100.4,77.0,47.71,60.0,10.0,0.0,29.5,3.11,NSC,,HZ,117.15,OTHH 160800Z 06010KT 5000 HZ NSC 38/25 Q0999 NOSIG,16,7,2023,8,0
OTHH,2023-07-16 09:00:00,51.6084,25.2746,-3.72,100.4,80.6,53.71,90.0,10.0,0.0,29.47,3.11,NSC,,HZ,123.47,OTHH 160900Z 09010KT 5000 HZ NSC 38/27 Q0998 TEMPO 4500,16,7,2023,9,0
OTHH,2023-07-16 10:00:00,51.6084,25.2746,-3.72,102.2,80.6,50.88,90.0,8.0,0.0,29.47,3.11,NSC,,HZ,125.9,OTHH 161000Z 09008KT 5000 HZ NSC 39/27 Q0998 TEMPO 4500,16,7,2023,10,0
OTHH,2023-07-16 11:00:00,51.6084,25.2746,-3.72,98.6,80.6,56.72,70.0,9.0,0.0,29.44,3.11,NSC,,HZ,121.03,OTHH 161100Z 07009KT 5000 HZ NSC 37/27 Q0997 TEMPO 4500,16,7,2023,11,0
OTHH,2023-07-16 12:00:00,51.6084,25.2746,-3.72,98.6,82.4,60.14,70.0,9.0,0.0,29.44,3.11,NSC,,HZ,124.75,OTHH 161200Z 07009KT 5000 HZ NSC 37/28 Q0997 TEMPO 4500,16,7,2023,12,0
OTHH,2023-07-16 13:00:00,51.6084,25.2746,-3.72,96.8,78.8,56.48,60.0,8.0,0.0,29.44,3.11,NSC,,HZ,115.28,OTHH 161300Z 06008KT 5000 HZ NSC 36/26 Q0997 TEMPO 4500,16,7,2023,13,0
OTHH,2023-07-16 14:00:00,51.6084,25.2746,-3.72,98.6,78.8,53.47,20.0,7.0,0.0,29.44,3.11,NSC,,HZ,117.71,OTHH 161400Z 02007KT 5000 HZ NSC 37/26 Q0997 TEMPO 4500,16,7,2023,14,0
OTHH,2023-07-16 15:00:00,51.6084,25.2746,-3.72,98.6,71.6,42.04,10.0,8.0,0.0,29.44,4.35,NSC,,HZ,107.7,OTHH 161500Z 01008KT 7000 NSC 37/22 Q0997 NOSIG,16,7,2023,15,0
OTHH,2023-07-16 22:00:00,51.6084,25.2746,-3.72,93.2,77.0,59.47,360.0,3.0,0.0,29.44,4.97,NSC,,HZ,107.52,OTHH 162200Z 36003KT 8000 NSC 34/25 Q0997 NOSIG,16,7,2023,22,0
OTHH,2023-07-16 23:00:00,51.6084,25.2746,-3.72,89.6,73.4,59.01,270.0,5.0,0.0,29.44,4.97,NSC,,HZ,98.2,OTHH 162300Z 27005KT 240V320 8000 NSC 32/23 Q0997 NOSIG,16,7,2023,23,0
OTHH,2023-07-17 00:00:00,51.6084,25.2746,-3.72,91.4,78.8,66.75,310.0,5.0,0.0,29.44,4.97,NSC,,HZ,107.79,OTHH 170000Z 31005KT 240V340 8000 NSC 33/26 Q0997 NOSIG,17,7,2023,0,0
OTHH,2023-07-17 01:00:00,51.6084,25.2746,-3.72,91.4,77.0,62.9,240.0,3.0,0.0,29.44,4.97,NSC,,HZ,105.06,OTHH 170100Z 24003KT 180V320 8000 NSC 33/25 Q0997 NOSIG,17,7,2023,1,0
OTHH,2023-07-17 02:00:00,51.6084,25.2746,-3.72,87.8,75.2,66.35,280.0,3.0,0.0,29.44,3.11,NSC,,HZ,97.76,OTHH 170200Z 28003KT 250V310 5000 HZ NSC 31/24 Q0997 NOSIG,17,7,2023,2,0
OTHH,2023-07-17 03:00:00,51.6084,25.2746,-3.72,91.4,71.6,52.48,250.0,5.0,0.0,29.47,4.97,NSC,,HZ,98.64,OTHH 170300Z 25005KT 210V280 8000 NSC 33/22 Q0998 NOSIG,17,7,2023,3,0
OTHH,2023-07-17 04:00:00,51.6084,25.2746,-3.72,93.2,75.2,56.01,270.0,7.0,0.0,29.5,4.97,NSC,,HZ,105.02,OTHH 170400Z 27007KT 8000 NSC 34/24 Q0999 NOSIG,17,7,2023,4,0
OTHH,2023-07-17 05:00:00,51.6084,25.2746,-3.72,98.6,69.8,39.54,260.0,7.0,0.0,29.5,5.59,NSC,,HZ,105.85,OTHH 170500Z 26007KT 230V310 9000 NSC 37/21 Q0999 NOSIG,17,7,2023,5,0
OTHH,2023-07-22 02:00:00,51.6084,25.2746,-3.72,91.4,86.0,84.31,30.0,4.0,0.0,29.47,4.97,NSC,,HZ,122.69,OTHH 220200Z 03004KT 8000 NSC 33/30 Q0998 NOSIG,22,7,2023,2,0
OTHH,2023-07-22 03:00:00,51.6084,25.2746,-3.72,91.4,86.0,84.31,360.0,6.0,0.0,29.5,4.35,NSC,,HZ,122.69,OTHH 220300Z 36006KT 7000 NSC 33/30 Q0999 NOSIG,22,7,2023,3,0
OTHH,2023-07-22 04:00:00,51.6084,25.2746,-3.72,91.4,86.0,84.31,340.0,6.0,0.0,29.5,3.73,NSC,,HZ,122.69,OTHH 220400Z 34006KT 6000 NSC 33/30 Q0999 NOSIG,22,7,2023,4,0
OTHH,2023-07-22 05:00:00,51.6084,25.2746,-3.72,91.4,86.0,84.31,360.0,4.0,0.0,29.53,3.73,NSC,,HZ,122.69,OTHH 220500Z 36004KT 6000 NSC 33/30 Q1000 NOSIG,22,7,2023,5,0
OTHH,2023-07-22 06:00:00,51.6084,25.2746,-3.72,96.8,82.4,63.53,360.0,4.0,0.0,29.53,3.73,NSC,,HZ,122.27,OTHH 220600Z 36004KT 6000 NSC 36/28 Q1000 NOSIG,22,7,2023,6,0
OTHH,2023-07-22 13:00:00,51.6084,25.2746,-3.72,102.2,69.8,35.47,40.0,9.0,0.0,29.44,4.97,NSC,,HZ,110.41,OTHH 221300Z 04009KT 8000 NSC 39/21 Q0997 NOSIG,22,7,2023,13,0
OTHH,2023-07-22 14:00:00,51.6084,25.2746,-3.72,98.6,77.0,50.38,30.0,7.0,0.0,29.44,4.35,NSC,,HZ,114.75,OTHH 221400Z 03007KT 7000 NSC 37/25 Q0997 NOSIG,22,7,2023,14,0
OTHH,2023-07-22 15:00:00,51.6084,25.2746,-3.72,96.8,84.2,67.34,20.0,8.0,0.0,29.44,4.35,NSC,,HZ,126.41,OTHH 221500Z 02008KT 7000 NSC 36/29 Q0997 NOSIG,22,7,2023,15,0
OTHH,2023-07-23 05:00:00,51.6084,25.2746,-3.72,100.4,69.8,37.44,340.0,10.0,0.0,29.5,5.59,NSC,,HZ,108.13,OTHH 230500Z 34010KT 9000 NSC 38/21 Q0999 NOSIG,23,7,2023,5,0
OTHH,2023-07-23 06:00:00,51.6084,25.2746,-3.72,100.4,71.6,39.81,350.0,8.0,0.0,29.5,5.59,NSC,,HZ,110.0,OTHH 230600Z 35008KT 9000 NSC 38/22 Q0999 NOSIG,23,7,2023,6,0
OTHH,2023-07-23 07:00:00,51.6084,25.2746,-3.72,100.4,73.4,42.3,350.0,8.0,0.0,29.5,5.59,NSC,,HZ,112.12,OTHH 230700Z 35008KT 9000 NSC 38/23 Q0999 NOSIG,23,7,2023,7,0
OTHH,2023-07-23 08:00:00,51.6084,25.2746,-3.72,100.4,73.4,42.3,10.0,7.0,0.0,29.5,5.59,NSC,,HZ,112.12,OTHH 230800Z 01007KT 9000 NSC 38/23 Q0999 NOSIG,23,7,2023,8,0
OTHH,2023-07-23 09:00:00,51.6084,25.2746,-3.72,100.4,77.0,47.71,30.0,8.0,0.0,29.5,5.59,NSC,,HZ,117.15,OTHH 230900Z 03008KT 9000 NSC 38/25 Q0999 NOSIG,23,7,2023,9,0
OTHH,2023-07-23 22:00:00,51.6084,25.2746,-3.72,91.4,86.0,84.31,50.0,4.0,0.0,29.44,4.97,NSC,,HZ,122.69,OTHH 232200Z 05004KT 8000 NSC 33/30 Q0997 NOSIG,23,7,2023,22,0
OTHH,2023-07-23 23:00:00,51.6084,25.2746,-3.72,91.4,86.0,84.31,350.0,3.0,0.0,29.44,4.97,NSC,,HZ,122.69,OTHH 232300Z 35003KT 8000 NSC 33/30 Q0997 NOSIG,23,7,2023,23,0
OTHH,2023-07-24 00:00:00,51.6084,25.2746,-3.72,89.6,84.2,84.2,330.0,6.0,0.0,29.44,5.59,FEW,1000.0,HZ,115.19,OTHH 240000Z 33006KT 9000 FEW010 32/29 Q0997 NOSIG,24,7,2023,0,0
OTHH,2023-07-24 01:00:00,51.6084,25.2746,-3.72,87.8,84.2,89.13,,2.0,0.0,29.44,5.59,FEW,1000.0,HZ,111.79,OTHH 240100Z VRB02KT 9000 FEW010 31/29 Q0997 NOSIG,24,7,2023,1,0
OTHH,2023-07-24 02:00:00,51.6084,25.2746,-3.72,89.6,82.4,79.45,20.0,4.0,0.0,29.44,5.59,NSC,,HZ,111.44,OTHH 240200Z 02004KT 9000 NSC 32/28 Q0997 NOSIG,24,7,2023,2,0
OTHH,2023-07-24 03:00:00,51.6084,25.2746,-3.72,89.6,82.4,79.45,50.0,3.0,0.0,29.44,5.59,NSC,,HZ,111.44,OTHH 240300Z 05003KT 9000 NSC 32/28 Q0997 NOSIG,24,7,2023,3,0
OTHH,2023-07-24 04:00:00,51.6084,25.2746,-3.72,91.4,82.4,75.08,310.0,5.0,0.0,29.47,5.59,NSC,,HZ,114.36,OTHH 240400Z 31005KT 260V330 9000 NSC 33/28 Q0998 NOSIG,24,7,2023,4,0
OTHH,2023-07-24 19:00:00,51.6084,25.2746,-3.72,93.2,80.6,66.95,150.0,3.0,0.0,29.41,4.35,NSC,,HZ,113.52,OTHH 241900Z 15003KT 130V220 7000 NSC 34/27 Q0996 NOSIG,24,7,2023,19,0
OTHH,2023-07-25 11:00:00,51.6084,25.2746,-3.72,96.8,82.4,63.53,70.0,8.0,0.0,29.41,3.73,NSC,,HZ,122.27,OTHH 251100Z 07008KT 6000 NSC 36/28 Q0996 NOSIG,25,7,2023,11,0
OTHH,2023-07-25 12:00:00,51.6084,25.2746,-3.72,96.8,82.4,63.53,80.0,8.0,0.0,29.41,3.11,NSC,,HZ,122.27,OTHH 251200Z 08008KT 5000 HZ NSC 36/28 Q0996 NOSIG,25,7,2023,12,0
OTHH,2023-07-25 13:00:00,51.6084,25.2746,-3.72,96.8,75.2,50.13,80.0,5.0,0.0,29.38,3.11,NSC,,HZ,109.75,OTHH 251300Z 08005KT 5000 HZ NSC 36/24 Q0995 TEMPO 4500,25,7,2023,13,0
OTHH,2023-07-25 14:00:00,51.6084,25.2746,-3.72,96.8,78.8,56.48,70.0,6.0,0.0,29.38,3.73,NSC,,HZ,115.28,OTHH 251400Z 07006KT 6000 NSC 36/26 Q0995 NOSIG,25,7,2023,14,0
OTHH,2023-07-25 15:00:00,51.6084,25.2746,-3.72,95.0,78.8,59.69,80.0,8.0,0.0,29.38,4.97,NSC,,HZ,112.83,OTHH 251500Z 08008KT 8000 NSC 35/26 Q0995 NOSIG,25,7,2023,15,0
OTHH,2023-07-25 16:00:00,51.6084,25.2746,-3.72,93.2,82.4,70.99,70.0,4.0,0.0,29.41,4.97,NSC,,HZ,117.1,OTHH 251600Z 07004KT 8000 NSC 34/28 Q0996 NOSIG,25,7,2023,16,0
OTHH,2023-07-25 17:00:00,51.6084,25.2746,-3.72,93.2,82.4,70.99,,1.0,0.0,29.41,4.97,NSC,,HZ,117.1,OTHH 251700Z VRB01KT 8000 NSC 34/28 Q0996 NOSIG,25,7,2023,17,0
OTHH,2023-07-25 18:00:00,51.6084,25.2746,-3.72,91.4,82.4,75.08,340.0,4.0,0.0,29.44,4.97,NSC,,HZ,114.36,OTHH 251800Z 34004KT 8000 NSC 33/28 Q0997 NOSIG,25,7,2023,18,0
OTHH,2023-07-25 19:00:00,51.6084,25.2746,-3.72,89.6,82.4,79.45,20.0,6.0,0.0,29.44,4.97,NSC,,HZ,111.44,OTHH 251900Z 02006KT 340V040 8000 NSC 32/28 Q0997 NOSIG,25,7,2023,19,0
OTHH,2023-07-25 20:00:00,51.6084,25.2746,-3.72,91.4,84.2,79.58,20.0,5.0,0.0,29.41,4.97,NSC,,HZ,118.28,OTHH 252000Z 02005KT 8000 NSC 33/29 Q0996 NOSIG,25,7,2023,20,0
OTHH,2023-07-25 21:00:00,51.6084,25.2746,-3.72,91.4,84.2,79.58,60.0,6.0,0.0,29.41,4.97,NSC,,HZ,118.28,OTHH 252100Z 06006KT 8000 NSC 33/29 Q0996 NOSIG,25,7,2023,21,0
OTHH,2023-07-25 22:00:00,51.6084,25.2746,-3.72,91.4,84.2,79.58,90.0,7.0,0.0,29.41,4.97,NSC,,HZ,118.28,OTHH 252200Z 09007KT 8000 NSC 33/29 Q0996 NOSIG,25,7,2023,22,0
OTHH,2023-07-25 23:00:00,51.6084,25.2746,-3.72,91.4,84.2,79.58,,2.0,0.0,29.41,5.59,NSC,,HZ,118.28,OTHH 252300Z VRB02KT 9000 NSC 33/29 Q0996 NOSIG,25,7,2023,23,0
OTHH,2023-07-26 00:00:00,51.6084,25.2746,-3.72,89.6,82.4,79.45,80.0,2.0,0.0,29.44,5.59,NSC,,HZ,111.44,OTHH 260000Z 08002KT 9000 NSC 32/28 Q0997 NOSIG,26,7,2023,0,0
OTHH,2023-07-26 01:00:00,51.6084,25.2746,-3.72,91.4,84.2,79.58,60.0,4.0,0.0,29.44,5.59,NSC,,HZ,118.28,OTHH 260100Z AUTO 06004KT 9000 NSC 33/29 Q0997 NOSIG,26,7,2023,1,0
OTHH,2023-07-26 02:00:00,51.6084,25.2746,-3.72,91.4,84.2,79.58,30.0,7.0,0.0,29.44,4.35,FEW,1600.0,HZ,118.28,OTHH 260200Z 03007KT 7000 FEW016 33/29 Q0997 NOSIG,26,7,2023,2,0
OTHH,2023-07-26 03:00:00,51.6084,25.2746,-3.72,93.2,86.0,79.71,40.0,6.0,0.0,29.47,3.73,FEW,1600.0,HZ,125.66,OTHH 260300Z 04006KT 6000 FEW016 34/30 Q0998 NOSIG,26,7,2023,3,0
OTHH,2023-07-26 04:00:00,51.6084,25.2746,-3.72,93.2,84.2,75.24,50.0,6.0,0.0,29.47,3.11,FEW,2000.0,HZ,121.14,OTHH 260400Z 05006KT 5000 HZ FEW020 34/29 Q0998 NOSIG,26,7,2023,4,0
OTHH,2023-07-26 05:00:00,51.6084,25.2746,-3.72,95.0,86.0,75.39,50.0,7.0,0.0,29.47,3.11,NSC,,HZ,128.43,OTHH 260500Z 05007KT 5000 HZ NSC 35/30 Q0998 NOSIG,26,7,2023,5,0
OTHH,2023-07-26 06:00:00,51.6084,25.2746,-3.72,95.0,86.0,75.39,30.0,6.0,0.0,29.5,3.11,FEW,3000.0,HZ,128.43,OTHH 260600Z 03006KT 5000 HZ FEW030 35/30 Q0999 NOSIG,26,7,2023,6,0
OTHH,2023-07-26 07:00:00,51.6084,25.2746,-3.72,96.8,86.0,71.34,30.0,7.0,0.0,29.5,3.11,FEW,1700.0,HZ,131.06,OTHH 260700Z 03007KT 5000 HZ FEW017 36/30 Q0999 NOSIG,26,7,2023,7,0
OTHH,2023-07-26 08:00:00,51.6084,25.2746,-3.72,96.8,86.0,71.34,30.0,8.0,0.0,29.5,3.73,FEW,1500.0,HZ,131.06,OTHH 260800Z 03008KT 6000 FEW015 36/30 Q0999 NOSIG,26,7,2023,8,0
OTHH,2023-07-26 09:00:00,51.6084,25.2746,-3.72,96.8,84.2,67.34,30.0,9.0,0.0,29.5,5.59,NSC,,HZ,126.41,OTHH 260900Z 03009KT 9000 NSC 36/29 Q0999 NOSIG,26,7,2023,9,0
OTHH,2023-07-26 10:00:00,51.6084,25.2746,-3.72,98.6,86.0,67.53,20.0,11.0,0.0,29.47,5.59,NSC,,HZ,133.59,OTHH 261000Z 02011KT 9000 NSC 37/30 Q0998 NOSIG,26,7,2023,10,0
OTHH,2023-07-26 11:00:00,51.6084,25.2746,-3.72,98.6,86.0,67.53,20.0,10.0,0.0,29.47,5.59,NSC,,HZ,133.59,OTHH 261100Z 02010KT 9000 NSC 37/30 Q0998 NOSIG,26,7,2023,11,0
OTHH,2023-07-26 12:00:00,51.6084,25.2746,-3.72,98.6,80.6,56.72,30.0,10.0,0.0,29.47,5.59,NSC,,HZ,121.03,OTHH 261200Z 03010KT 9000 NSC 37/27 Q0998 NOSIG,26,7,2023,12,0
OTHH,2023-07-26 13:00:00,51.6084,25.2746,-3.72,98.6,82.4,60.14,30.0,10.0,0.0,29.44,5.59,NSC,,HZ,124.75,OTHH 261300Z 03010KT 9000 NSC 37/28 Q0997 NOSIG,26,7,2023,13,0
OTHH,2023-07-26 14:00:00,51.6084,25.2746,-3.72,96.8,84.2,67.34,50.0,9.0,0.0,29.47,5.59,NSC,,HZ,126.41,OTHH 261400Z 05009KT 9000 NSC 36/29 Q0998 NOSIG,26,7,2023,14,0
OTHH,2023-07-26 15:00:00,51.6084,25.2746,-3.72,96.8,82.4,63.53,40.0,8.0,0.0,29.47,5.59,NSC,,HZ,122.27,OTHH 261500Z 04008KT 9000 NSC 36/28 Q0998 NOSIG,26,7,2023,15,0
OTHH,2023-07-26 16:00:00,51.6084,25.2746,-3.72,95.0,82.4,67.14,60.0,6.0,0.0,29.47,5.59,NSC,,HZ,119.73,OTHH 261600Z 06006KT 9000 NSC 35/28 Q0998 NOSIG,26,7,2023,16,0
OTHH,2023-07-26 17:00:00,51.6084,25.2746,-3.72,95.0,82.4,67.14,70.0,5.0,0.0,29.47,5.59,NSC,,HZ,119.73,OTHH 261700Z 07005KT 9000 NSC 35/28 Q0998 NOSIG,26,7,2023,17,0
OTHH,2023-07-26 18:00:00,51.6084,25.2746,-3.72,95.0,84.2,71.16,50.0,4.0,0.0,29.5,5.59,NSC,,HZ,123.83,OTHH 261800Z 05004KT 9000 NSC 35/29 Q0999 NOSIG,26,7,2023,18,0
OTHH,2023-07-26 19:00:00,51.6084,25.2746,-3.72,93.2,86.0,79.71,360.0,3.0,0.0,29.5,5.59,NSC,,HZ,125.66,OTHH 261900Z 36003KT 9000 NSC 34/30 Q0999 NOSIG,26,7,2023,19,0
OTHH,2023-07-26 20:00:00,51.6084,25.2746,-3.72,93.2,86.0,79.71,20.0,5.0,0.0,29.5,5.59,NSC,,HZ,125.66,OTHH 262000Z AUTO 02005KT 9000 NSC 34/30 Q0999 NOSIG,26,7,2023,20,0
OTHH,2023-07-26 21:00:00,51.6084,25.2746,-3.72,93.2,86.0,79.71,10.0,8.0,0.0,29.5,5.59,NSC,,HZ,125.66,OTHH 262100Z AUTO 01008KT 9000 NSC 34/30 Q0999 NOSIG,26,7,2023,21,0
OTHH,2023-07-26 22:00:00,51.6084,25.2746,-3.72,93.2,86.0,79.71,30.0,4.0,0.0,29.5,5.59,NSC,,HZ,125.66,OTHH 262200Z AUTO 03004KT 9000 NSC 34/30 Q0999 NOSIG,26,7,2023,22,0
OTHH,2023-07-26 23:00:00,51.6084,25.2746,-3.72,91.4,84.2,79.58,350.0,4.0,0.0,29.47,5.59,NSC,,HZ,118.28,OTHH 262300Z AUTO 35004KT 9000 NSC 33/29 Q0998 NOSIG,26,7,2023,23,0
OTHH,2023-07-27 00:00:00,51.6084,25.2746,-3.72,91.4,84.2,79.58,30.0,4.0,0.0,29.47,5.59,NSC,,HZ,118.28,OTHH 270000Z AUTO 03004KT 9000 NSC 33/29 Q0998 NOSIG,27,7,2023,0,0
OTHH,2023-07-27 01:00:00,51.6084,25.2746,-3.72,91.4,84.2,79.58,70.0,2.0,0.0,29.47,5.59,NSC,,HZ,118.28,OTHH 270100Z AUTO 07002KT 9000 NSC 33/29 Q0998 NOSIG,27,7,2023,1,0
OTHH,2023-07-27 02:00:00,51.6084,25.2746,-3.72,91.4,82.4,75.08,60.0,3.0,0.0,29.5,5.59,FEW,1600.0,HZ,114.36,OTHH 270200Z 06003KT 030V100 9000 FEW016 33/28 Q0999 NOSIG,27,7,2023,2,0
OTHH,2023-07-27 03:00:00,51.6084,25.2746,-3.72,93.2,82.4,70.99,70.0,4.0,0.0,29.5,5.59,FEW,1600.0,HZ,117.1,OTHH 270300Z 07004KT 9000 FEW016 34/28 Q0999 NOSIG,27,7,2023,3,0
OTHH,2023-07-28 02:00:00,51.6084,25.2746,-3.72,89.6,80.6,74.93,300.0,4.0,0.0,29.47,4.97,NSC,,HZ,108.11,OTHH 280200Z 30004KT 260V330 8000 NSC 32/27 Q0998 NOSIG,28,7,2023,2,0
OTHH,2023-07-28 03:00:00,51.6084,25.2746,-3.72,91.4,84.2,79.58,360.0,3.0,0.0,29.5,5.59,NSC,,HZ,118.28,OTHH 280300Z 36003KT 9000 NSC 33/29 Q0999 NOSIG,28,7,2023,3,0
OTHH,2023-07-28 23:00:00,51.6084,25.2746,-3.72,91.4,80.6,70.81,210.0,6.0,0.0,29.41,5.59,NSC,,HZ,110.88,OTHH 282300Z 21006KT 180V280 9000 NSC 33/27 Q0996 NOSIG,28,7,2023,23,0
OTHH,2023-07-29 00:00:00,51.6084,25.2746,-3.72,89.6,82.4,79.45,230.0,6.0,0.0,29.41,5.59,NSC,,HZ,111.44,OTHH 290000Z 23006KT 200V300 9000 NSC 32/28 Q0996 NOSIG,29,7,2023,0,0
OTHH,2023-07-29 01:00:00,51.6084,25.2746,-3.72,89.6,82.4,79.45,,4.0,0.0,29.41,5.59,NSC,,HZ,111.44,OTHH 290100Z VRB04KT 9000 NSC 32/28 Q0996 NOSIG,29,7,2023,1,0
OTHH,2023-07-29 02:00:00,51.6084,25.2746,-3.72,89.6,82.4,79.45,200.0,5.0,0.0,29.44,3.73,NSC,,HZ,111.44,OTHH 290200Z 20005KT 150V250 6000 NSC 32/28 Q0997 NOSIG,29,7,2023,2,0
OTHH,2023-07-29 03:00:00,51.6084,25.2746,-3.72,87.8,80.6,79.31,240.0,3.0,0.0,29.44,4.97,NSC,,HZ,105.14,OTHH 290300Z 24003KT 190V290 8000 NSC 31/27 Q0997 NOSIG,29,7,2023,3,0
OTHH,2023-07-29 04:00:00,51.6084,25.2746,-3.72,91.4,82.4,75.08,,1.0,0.0,29.44,4.97,NSC,,HZ,114.36,OTHH 290400Z VRB01KT 8000 NSC 33/28 Q0997 TEMPO 30004KT,29,7,2023,4,0
OTHH,2023-07-29 05:00:00,51.6084,25.2746,-3.72,95.0,75.2,52.98,60.0,4.0,0.0,29.47,5.59,NSC,,HZ,107.39,OTHH 290500Z 06004KT 9000 NSC 35/24 Q0998 NOSIG,29,7,2023,5,0
OTHH,2023-07-29 06:00:00,51.6084,25.2746,-3.72,100.4,77.0,47.71,,3.0,0.0,29.47,5.59,NSC,,HZ,117.15,OTHH 290600Z VRB03KT 9000 NSC 38/25 Q0998 NOSIG,29,7,2023,6,0
OTHH,2023-07-29 07:00:00,51.6084,25.2746,-3.72,102.2,69.8,35.47,90.0,4.0,0.0,29.5,5.59,NSC,,HZ,110.41,OTHH 290700Z 09004KT 9000 NSC 39/21 Q0999 NOSIG,29,7,2023,7,0
OTHH,2023-07-29 10:00:00,51.6084,25.2746,-3.72,104.0,77.0,42.83,120.0,9.0,0.0,29.44,5.59,NSC,,HZ,121.94,OTHH 291000Z 12009KT 9000 NSC 40/25 Q0997 NOSIG,29,7,2023,10,0
OTHH,2023-07-29 11:00:00,51.6084,25.2746,-3.72,104.0,77.0,42.83,130.0,9.0,0.0,29.44,4.97,NSC,,HZ,121.94,OTHH 291100Z 13009KT 8000 NSC 40/25 Q0997 NOSIG,29,7,2023,11,0
OTHH,2023-07-29 12:00:00,51.6084,25.2746,-3.72,104.0,78.8,45.46,130.0,8.0,0.0,29.44,4.97,NSC,,HZ,124.96,OTHH 291200Z 13008KT 8000 NSC 40/26 Q0997 NOSIG,29,7,2023,12,0
OTHH,2023-07-29 13:00:00,51.6084,25.2746,-3.72,105.8,69.8,31.87,130.0,6.0,0.0,29.44,4.97,NSC,,HZ,114.98,OTHH 291300Z 13006KT 8000 NSC 41/21 Q0997 NOSIG,29,7,2023,13,0
OTHH,2023-08-03 02:00:00,51.6084,25.2746,-3.72,93.2,80.6,66.95,130.0,2.0,0.0,29.41,5.59,NSC,,HZ,113.52,OTHH 030200Z 13002KT 9000 NSC 34/27 Q0996 NOSIG,3,8,2023,2,0
OTHH,2023-08-03 08:00:00,51.6084,25.2746,-3.72,102.2,77.0,45.2,30.0,9.0,0.0,29.44,5.59,NSC,,HZ,119.55,OTHH 030800Z 03009KT 9000 NSC 39/25 Q0997 NOSIG,3,8,2023,8,0
OTHH,2023-08-03 09:00:00,51.6084,25.2746,-3.72,102.2,78.8,47.97,60.0,9.0,0.0,29.41,5.59,NSC,,HZ,122.55,OTHH 030900Z AUTO 06009KT 9000 NSC 39/26 Q0996 NOSIG,3,8,2023,9,0
OTHH,2023-08-03 10:00:00,51.6084,25.2746,-3.72,104.0,75.2,40.34,80.0,9.0,0.0,29.41,5.59,NSC,,HZ,119.24,OTHH 031000Z AUTO 08009KT 9000 NSC 40/24 Q0996 NOSIG,3,8,2023,10,0
OTHH,2023-08-03 11:00:00,51.6084,25.2746,-3.72,100.4,84.2,60.36,80.0,10.0,0.0,29.38,5.59,NSC,,HZ,131.38,OTHH 031100Z AUTO 08010KT 9000 NSC 38/29 Q0995 NOSIG,3,8,2023,11,0
OTHH,2023-08-04 03:00:00,51.6084,25.2746,-3.72,98.6,73.4,44.67,320.0,20.0,0.0,29.44,5.59,NSC,,HZ,109.77,OTHH 040300Z 32020KT 9000 NSC 37/23 Q0997 NOSIG,4,8,2023,3,0
OTHH,2023-08-04 04:00:00,51.6084,25.2746,-3.72,100.4,73.4,42.3,330.0,19.0,0.0,29.44,5.59,NSC,,HZ,112.12,OTHH 040400Z 33019KT 9000 NSC 38/23 Q0997 NOSIG,4,8,2023,4,0
OTHH,2023-08-05 21:00:00,51.6084,25.2746,-3.72,93.2,84.2,75.24,60.0,8.0,0.0,29.5,4.35,NSC,,HZ,121.14,OTHH 052100Z 06008KT 7000 NSC 34/29 Q0999 NOSIG,5,8,2023,21,0
OTHH,2023-08-05 22:00:00,51.6084,25.2746,-3.72,93.2,84.2,75.24,70.0,6.0,0.0,29.5,3.73,FEW,1800.0,HZ,121.14,OTHH 052200Z 07006KT 020V110 6000 FEW018 34/29 Q0999 NOSIG,5,8,2023,22,0
OTHH,2023-08-05 23:00:00,51.6084,25.2746,-3.72,93.2,84.2,75.24,100.0,5.0,0.0,29.47,3.73,NSC,,HZ,121.14,OTHH 052300Z 10005KT 6000 NSC 34/29 Q0998 NOSIG,5,8,2023,23,0
OTHH,2023-08-06 00:00:00,51.6084,25.2746,-3.72,93.2,86.0,79.71,120.0,6.0,0.0,29.47,3.73,NSC,,HZ,125.66,OTHH 060000Z 12006KT 6000 NSC 34/30 Q0998 NOSIG,6,8,2023,0,0
OTHH,2023-08-06 01:00:00,51.6084,25.2746,-3.72,93.2,84.2,75.24,100.0,4.0,0.0,29.5,4.35,NSC,,HZ,121.14,OTHH 060100Z 10004KT 070V140 7000 NSC 34/29 Q0999 NOSIG,6,8,2023,1,0
OTHH,2023-08-06 02:00:00,51.6084,25.2746,-3.72,91.4,84.2,79.58,30.0,3.0,0.0,29.5,3.73,NSC,,HZ,118.28,OTHH 060200Z 03003KT 330V110 6000 NSC 33/29 Q0999 TEMPO 5000,6,8,2023,2,0
OTHH,2023-08-06 03:00:00,51.6084,25.2746,-3.72,93.2,84.2,75.24,360.0,4.0,0.0,29.53,3.73,NSC,,HZ,121.14,OTHH 060300Z 36004KT 330V130 6000 NSC 34/29 Q1000 NOSIG,6,8,2023,3,0
OTHH,2023-08-06 04:00:00,51.6084,25.2746,-3.72,95.0,86.0,75.39,360.0,4.0,0.0,29.53,3.73,NSC,,HZ,128.43,OTHH 060400Z 36004KT 330V050 6000 NSC 35/30 Q1000 NOSIG,6,8,2023,4,0
OTHH,2023-08-06 05:00:00,51.6084,25.2746,-3.72,95.0,86.0,75.39,360.0,9.0,0.0,29.56,2.49,NSC,,HZ,128.43,OTHH 060500Z 36009KT 330V030 4000 HZ NSC 35/30 Q1001 NOSIG,6,8,2023,5,0
OTHH,2023-08-06 06:00:00,51.6084,25.2746,-3.72,96.8,84.2,67.34,20.0,6.0,0.0,29.56,3.11,NSC,,HZ,126.41,OTHH 060600Z 02006KT 310V080 5000 HZ NSC 36/29 Q1001 NOSIG,6,8,2023,6,0
OTHH,2023-08-06 07:00:00,51.6084,25.2746,-3.72,98.6,84.2,63.74,,3.0,0.0,29.53,3.11,NSC,,HZ,128.92,OTHH 060700Z VRB03KT 5000 HZ NSC 37/29 Q1000 NOSIG,6,8,2023,7,0
OTHH,2023-08-06 08:00:00,51.6084,25.2746,-3.72,98.6,84.2,63.74,10.0,7.0,0.0,29.53,3.73,NSC,,HZ,128.92,OTHH 060800Z 01007KT 330V070 6000 NSC 37/29 Q1000 NOSIG,6,8,2023,8,0
OTHH,2023-08-06 09:00:00,51.6084,25.2746,-3.72,98.6,82.4,60.14,30.0,9.0,0.0,29.53,4.97,NSC,,HZ,124.75,OTHH 060900Z 03009KT 360V060 8000 NSC 37/28 Q1000 NOSIG,6,8,2023,9,0
OTHH,2023-08-06 10:00:00,51.6084,25.2746,-3.72,100.4,84.2,60.36,40.0,10.0,0.0,29.5,4.97,NSC,,HZ,131.38,OTHH 061000Z 04010KT 360V060 8000 NSC 38/29 Q0999 NOSIG,6,8,2023,10,0
OTHH,2023-08-06 11:00:00,51.6084,25.2746,-3.72,100.4,84.2,60.36,40.0,10.0,0.0,29.5,4.97,NSC,,HZ,131.38,OTHH 061100Z 04010KT 8000 NSC 38/29 Q0999 NOSIG,6,8,2023,11,0
OTHH,2023-08-06 12:00:00,51.6084,25.2746,-3.72,100.4,84.2,60.36,40.0,9.0,0.0,29.47,4.35,NSC,,HZ,131.38,OTHH 061200Z 04009KT 010V070 7000 NSC 38/29 Q0998 NOSIG,6,8,2023,12,0
OTHH,2023-08-06 13:00:00,51.6084,25.2746,-3.72,100.4,86.0,63.95,30.0,12.0,0.0,29.47,4.35,NSC,,HZ,136.05,OTHH 061300Z 03012KT 7000 NSC 38/30 Q0998 NOSIG,6,8,2023,13,0
OTHH,2023-08-06 14:00:00,51.6084,25.2746,-3.72,98.6,87.8,71.51,20.0,14.0,0.0,29.47,4.35,NSC,,HZ,138.8,OTHH 061400Z 02014KT 7000 NSC 37/31 Q0998 NOSIG,6,8,2023,14,0
OTHH,2023-08-06 15:00:00,51.6084,25.2746,-3.72,96.8,87.8,75.55,10.0,17.0,0.0,29.5,3.73,FEW,2000.0,HZ,136.26,OTHH 061500Z 01017KT 6000 FEW020 36/31 Q0999 NOSIG,6,8,2023,15,0
OTHH,2023-08-06 16:00:00,51.6084,25.2746,-3.72,96.8,87.8,75.55,10.0,15.0,0.0,29.5,3.73,FEW,1500.0,HZ,136.26,OTHH 061600Z 01015KT 6000 FEW015 36/31 Q0999 NOSIG,6,8,2023,16,0
OTHH,2023-08-06 17:00:00,51.6084,25.2746,-3.72,96.8,86.0,71.34,10.0,13.0,0.0,29.5,4.97,NSC,,HZ,131.06,OTHH 061700Z 01013KT 8000 NSC 36/30 Q0999 NOSIG,6,8,2023,17,0
OTHH,2023-08-06 18:00:00,51.6084,25.2746,-3.72,96.8,84.2,67.34,10.0,14.0,0.0,29.5,4.97,NSC,,HZ,126.41,OTHH 061800Z 01014KT 8000 NSC 36/29 Q0999 NOSIG,6,8,2023,18,0
OTHH,2023-08-06 19:00:00,51.6084,25.2746,-3.72,96.8,86.0,71.34,10.0,12.0,0.0,29.5,4.97,NSC,,HZ,131.06,OTHH 061900Z 01012KT 8000 NSC 36/30 Q0999 NOSIG,6,8,2023,19,0
OTHH,2023-08-06 20:00:00,51.6084,25.2746,-3.72,96.8,84.2,67.34,360.0,7.0,0.0,29.5,4.97,NSC,,HZ,126.41,OTHH 062000Z AUTO 36007KT 8000 NSC 36/29 Q0999 NOSIG,6,8,2023,20,0
OTHH,2023-08-06 21:00:00,51.6084,25.2746,-3.72,95.0,84.2,71.16,350.0,8.0,0.0,29.47,4.97,NSC,,HZ,123.83,OTHH 062100Z AUTO 35008KT 8000 NSC 35/29 Q0998 NOSIG,6,8,2023,21,0
OTHH,2023-08-06 22:00:00,51.6084,25.2746,-3.72,95.0,84.2,71.16,350.0,10.0,0.0,29.47,4.97,NSC,,HZ,123.83,OTHH 062200Z AUTO 35010KT 8000 NSC 35/29 Q0998 NOSIG,6,8,2023,22,0
OTHH,2023-08-06 23:00:00,51.6084,25.2746,-3.72,93.2,80.6,66.95,330.0,8.0,0.0,29.47,4.97,NSC,,HZ,113.52,OTHH 062300Z AUTO 33008KT 8000 NSC 34/27 Q0998 NOSIG,6,8,2023,23,0
OTHH,2023-08-07 00:00:00,51.6084,25.2746,-3.72,95.0,78.8,59.69,340.0,7.0,0.0,29.44,4.97,NSC,,HZ,112.83,OTHH 070000Z AUTO 34007KT 8000 NSC 35/26 Q0997 NOSIG,7,8,2023,0,0
OTHH,2023-08-07 01:00:00,51.6084,25.2746,-3.72,95.0,77.0,56.25,,2.0,0.0,29.47,4.97,NSC,,HZ,109.94,OTHH 070100Z AUTO VRB02KT 8000 NSC 35/25 Q0998 NOSIG,7,8,2023,1,0
OTHH,2023-08-07 02:00:00,51.6084,25.2746,-3.72,91.4,75.2,59.24,280.0,4.0,0.0,29.47,4.97,NSC,,HZ,102.65,OTHH 070200Z AUTO 28004KT 250V310 8000 NSC 33/24 Q0998 NOSIG,7,8,2023,2,0
OTHH,2023-08-07 03:00:00,51.6084,25.2746,-3.72,93.2,77.0,59.47,270.0,3.0,0.0,29.47,4.35,NSC,,HZ,107.52,OTHH 070300Z 27003KT 200V330 7000 NSC 34/25 Q0998 NOSIG,7,8,2023,3,0
OTHH,2023-08-07 04:00:00,51.6084,25.2746,-3.72,96.8,75.2,50.13,220.0,3.0,0.0,29.5,4.97,NSC,,HZ,109.75,OTHH 070400Z 22003KT 180V280 8000 NSC 36/24 Q0999 NOSIG,7,8,2023,4,0
OTHH,2023-08-07 05:00:00,51.6084,25.2746,-3.72,98.6,78.8,53.47,290.0,6.0,0.0,29.5,5.59,NSC,,HZ,117.71,OTHH 070500Z 29006KT 250V340 9000 NSC 37/26 Q0999 NOSIG,7,8,2023,5,0
OTHH,2023-08-10 01:00:00,51.6084,25.2746,-3.72,93.2,86.0,79.71,130.0,6.0,0.0,29.53,5.59,NSC,,HZ,125.66,OTHH 100100Z 13006KT 9000 NSC 34/30 Q1000 NOSIG,10,8,2023,1,0
OTHH,2023-08-10 02:00:00,51.6084,25.2746,-3.72,93.2,84.2,75.24,150.0,4.0,0.0,29.53,4.97,NSC,,HZ,121.14,OTHH 100200Z 15004KT 120V190 8000 NSC 34/29 Q1000 NOSIG,10,8,2023,2,0
OTHH,2023-08-10 03:00:00,51.6084,25.2746,-3.72,93.2,84.2,75.24,190.0,5.0,0.0,29.56,4.97,NSC,,HZ,121.14,OTHH 100300Z 19005KT 160V230 8000 NSC 34/29 Q1001 NOSIG,10,8,2023,3,0
OTHH,2023-08-10 04:00:00,51.6084,25.2746,-3.72,95.0,82.4,67.14,200.0,3.0,0.0,29.56,5.59,NSC,,HZ,119.73,OTHH 100400Z 20003KT 160V260 9000 NSC 35/28 Q1001 NOSIG,10,8,2023,4,0
OTHH,2023-08-10 08:00:00,51.6084,25.2746,-3.72,102.2,78.8,47.97,90.0,9.0,0.0,29.56,4.97,NSC,,HZ,122.55,OTHH 100800Z 09009KT 8000 NSC 39/26 Q1001 NOSIG,10,8,2023,8,0
OTHH,2023-08-10 10:00:00,51.6084,25.2746,-3.72,100.4,82.4,56.95,60.0,10.0,0.0,29.56,5.59,NSC,,HZ,127.21,OTHH 101000Z 06010KT 9000 NSC 38/28 Q1001 NOSIG,10,8,2023,10,0
OTHH,2023-08-10 11:00:00,51.6084,25.2746,-3.72,100.4,82.4,56.95,70.0,10.0,0.0,29.53,4.97,NSC,,HZ,127.21,OTHH 101100Z 07010KT 8000 NSC 38/28 Q1000 NOSIG,10,8,2023,11,0
OTHH,2023-08-10 12:00:00,51.6084,25.2746,-3.72,100.4,82.4,56.95,70.0,12.0,0.0,29.53,4.35,NSC,,HZ,127.21,OTHH 101200Z 07012KT 7000 NSC 38/28 Q1000 NOSIG,10,8,2023,12,0
OTHH,2023-08-10 13:00:00,51.6084,25.2746,-3.72,98.6,82.4,60.14,60.0,12.0,0.0,29.53,4.35,NSC,,HZ,124.75,OTHH 101300Z 06012KT 7000 NSC 37/28 Q1000 NOSIG,10,8,2023,13,0
OTHH,2023-08-10 14:00:00,51.6084,25.2746,-3.72,98.6,82.4,60.14,70.0,10.0,0.0,29.53,4.97,NSC,,HZ,124.75,OTHH 101400Z 07010KT 8000 NSC 37/28 Q1000 NOSIG,10,8,2023,14,0
OTHH,2023-08-10 15:00:00,51.6084,25.2746,-3.72,96.8,82.4,63.53,80.0,8.0,0.0,29.53,5.59,NSC,,HZ,122.27,OTHH 101500Z 08008KT 9000 NSC 36/28 Q1000 NOSIG,10,8,2023,15,0
OTHH,2023-08-10 18:00:00,51.6084,25.2746,-3.72,95.0,82.4,67.14,90.0,4.0,0.0,29.59,5.59,NSC,,HZ,119.73,OTHH 101800Z 09004KT 9000 NSC 35/28 Q1002 NOSIG,10,8,2023,18,0
OTHH,2023-08-10 19:00:00,51.6084,25.2746,-3.72,95.0,84.2,71.16,70.0,6.0,0.0,29.59,4.97,NSC,,HZ,123.83,OTHH 101900Z 07006KT 8000 NSC 35/29 Q1002 NOSIG,10,8,2023,19,0
OTHH,2023-08-10 20:00:00,51.6084,25.2746,-3.72,95.0,84.2,71.16,40.0,7.0,0.0,29.59,5.59,NSC,,HZ,123.83,OTHH 102000Z 04007KT 9000 NSC 35/29 Q1002 NOSIG,10,8,2023,20,0
OTHH,2023-08-10 23:00:00,51.6084,25.2746,-3.72,93.2,84.2,75.24,110.0,9.0,0.0,29.53,5.59,NSC,,HZ,121.14,OTHH 102300Z 11009KT 9000 NSC 34/29 Q1000 NOSIG,10,8,2023,23,0
OTHH,2023-08-11 00:00:00,51.6084,25.2746,-3.72,95.0,80.6,63.32,130.0,7.0,0.0,29.53,5.59,NSC,,HZ,116.07,OTHH 110000Z 13007KT 9000 NSC 35/27 Q1000 NOSIG,11,8,2023,0,0
OTHH,2023-08-11 01:00:00,51.6084,25.2746,-3.72,95.0,82.4,67.14,100.0,11.0,0.0,29.56,4.97,NSC,,HZ,119.73,OTHH 110100Z 10011KT 8000 NSC 35/28 Q1001 NOSIG,11,8,2023,1,0
OTHH,2023-08-11 02:00:00,51.6084,25.2746,-3.72,95.0,84.2,71.16,130.0,4.0,0.0,29.56,3.11,NSC,,HZ,123.83,OTHH 110200Z 13004KT 080V210 5000 HZ NSC 35/29 Q1001 TEMPO 4000,11,8,2023,2,0
OTHH,2023-08-11 03:00:00,51.6084,25.2746,-3.72,95.0,84.2,71.16,80.0,7.0,0.0,29.56,3.11,NSC,,HZ,123.83,OTHH 110300Z 08007KT 5000 HZ NSC 35/29 Q1001 TEMPO 4000,11,8,2023,3,0
OTHH,2023-08-11 04:00:00,51.6084,25.2746,-3.72,95.0,86.0,75.39,110.0,6.0,0.0,29.56,3.73,NSC,,HZ,128.43,OTHH 110400Z 11006KT 6000 NSC 35/30 Q1001 NOSIG,11,8,2023,4,0
OTHH,2023-08-11 05:00:00,51.6084,25.2746,-3.72,96.8,86.0,71.34,110.0,7.0,0.0,29.59,3.73,NSC,,HZ,131.06,OTHH 110500Z 11007KT 6000 NSC 36/30 Q1002 NOSIG,11,8,2023,5,0
OTHH,2023-08-11 06:00:00,51.6084,25.2746,-3.72,98.6,86.0,67.53,120.0,8.0,0.0,29.59,3.73,NSC,,HZ,133.59,OTHH 110600Z 12008KT 6000 NSC 37/30 Q1002 NOSIG,11,8,2023,6,0
OTHH,2023-08-11 07:00:00,51.6084,25.2746,-3.72,100.4,84.2,60.36,80.0,6.0,0.0,29.59,3.73,NSC,,HZ,131.38,OTHH 110700Z 08006KT 6000 NSC 38/29 Q1002 NOSIG,11,8,2023,7,0
OTHH,2023-08-11 08:00:00,51.6084,25.2746,-3.72,100.4,84.2,60.36,50.0,8.0,0.0,29.59,3.73,NSC,,HZ,131.38,OTHH 110800Z 05008KT 6000 NSC 38/29 Q1002 NOSIG,11,8,2023,8,0
OTHH,2023-08-11 09:00:00,51.6084,25.2746,-3.72,100.4,86.0,63.95,70.0,10.0,0.0,29.59,3.73,NSC,,HZ,136.05,OTHH 110900Z 07010KT 030V090 6000 NSC 38/30 Q1002 NOSIG,11,8,2023,9,0
OTHH,2023-08-11 10:00:00,51.6084,25.2746,-3.72,100.4,87.8,67.72,60.0,11.0,0.0,29.56,3.73,NSC,,HZ,141.25,OTHH 111000Z 06011KT 030V100 6000 NSC 38/31 Q1001 NOSIG,11,8,2023,10,0
OTHH,2023-08-11 11:00:00,51.6084,25.2746,-3.72,102.2,87.8,64.15,80.0,11.0,0.0,29.53,3.73,FEW,4500.0,HZ,143.64,OTHH 111100Z 08011KT 6000 FEW045 39/31 Q1000 NOSIG,11,8,2023,11,0
OTHH,2023-08-11 12:00:00,51.6084,25.2746,-3.72,100.4,87.8,67.72,80.0,11.0,0.0,29.53,3.73,FEW,4500.0,HZ,141.25,OTHH 111200Z 08011KT 6000 FEW045TCU 38/31 Q1000 NOSIG,11,8,2023,12,0
OTHH,2023-08-11 13:00:00,51.6084,25.2746,-3.72,98.6,87.8,71.51,40.0,13.0,0.0,29.53,3.11,FEW,4500.0,HZ,138.8,OTHH 111300Z 04013KT 5000 HZ FEW045 37/31 Q1000 NOSIG,11,8,2023,13,0
OTHH,2023-08-11 14:00:00,51.6084,25.2746,-3.72,96.8,86.0,71.34,10.0,7.0,0.0,29.56,3.11,NSC,,HZ,131.06,OTHH 111400Z 01007KT 330V050 5000 HZ NSC 36/30 Q1001 NOSIG,11,8,2023,14,0
OTHH,2023-08-11 15:00:00,51.6084,25.2746,-3.72,96.8,86.0,71.34,360.0,9.0,0.0,29.53,3.11,NSC,,HZ,131.06,OTHH 111500Z 36009KT 330V030 5000 HZ NSC 36/30 Q1000 TEMPO 4000,11,8,2023,15,0
OTHH,2023-08-11 16:00:00,51.6084,25.2746,-3.72,96.8,86.0,71.34,20.0,7.0,0.0,29.59,4.35,NSC,,HZ,131.06,OTHH 111600Z 02007KT 350V050 7000 NSC 36/30 Q1002 NOSIG,11,8,2023,16,0
OTHH,2023-08-11 17:00:00,51.6084,25.2746,-3.72,96.8,86.0,71.34,330.0,4.0,0.0,29.59,4.97,NSC,,HZ,131.06,OTHH 111700Z 33004KT 230V030 8000 NSC 36/30 Q1002 NOSIG,11,8,2023,17,0
OTHH,2023-08-11 18:00:00,51.6084,25.2746,-3.72,96.8,86.0,71.34,,2.0,0.0,29.59,3.73,NSC,,HZ,131.06,OTHH 111800Z VRB02KT 6000 NSC 36/30 Q1002 NOSIG,11,8,2023,18,0
OTHH,2023-08-11 19:00:00,51.6084,25.2746,-3.72,98.6,80.6,56.72,90.0,3.0,0.0,29.59,3.73,NSC,,HZ,121.03,OTHH 111900Z 09003KT 020V150 6000 NSC 37/27 Q1002 NOSIG,11,8,2023,19,0
OTHH,2023-08-11 20:00:00,51.6084,25.2746,-3.72,95.0,87.8,79.84,90.0,2.0,0.0,29.56,3.73,NSC,,HZ,133.59,OTHH 112000Z 09002KT 6000 NSC 35/31 Q1001 NOSIG,11,8,2023,20,0
OTHH,2023-08-11 21:00:00,51.6084,25.2746,-3.72,96.8,84.2,67.34,100.0,3.0,0.0,29.56,3.11,NSC,,HZ,126.41,OTHH 112100Z 10003KT 070V140 5000 HZ NSC 36/29 Q1001 TEMPO 4500,11,8,2023,21,0
OTHH,2023-08-11 22:00:00,51.6084,25.2746,-3.72,95.0,86.0,75.39,,2.0,0.0,29.56,3.11,NSC,,HZ,128.43,OTHH 112200Z VRB02KT 5000 HZ NSC 35/30 Q1001 TEMPO 4500,11,8,2023,22,0
OTHH,2023-08-11 23:00:00,51.6084,25.2746,-3.72,93.2,86.0,79.71,,2.0,0.0,29.53,3.11,NSC,,HZ,125.66,OTHH 112300Z VRB02KT 5000 HZ NSC 34/30 Q1000 TEMPO 4500,11,8,2023,23,0
OTHH,2023-08-12 00:00:00,51.6084,25.2746,-3.72,95.0,86.0,75.39,,4.0,0.0,29.56,3.11,NSC,,HZ,128.43,OTHH 120000Z VRB04KT 5000 HZ NSC 35/30 Q1001 TEMPO 4500,12,8,2023,0,0
OTHH,2023-08-12 01:00:00,51.6084,25.2746,-3.72,95.0,84.2,71.16,,3.0,0.0,29.56,2.8,NSC,,HZ,123.83,OTHH 120100Z VRB03KT 4500 HZ NSC 35/29 Q1001 TEMPO 4000,12,8,2023,1,0
OTHH,2023-08-12 02:00:00,51.6084,25.2746,-3.72,95.0,86.0,75.39,20.0,6.0,0.0,29.56,2.49,NSC,,HZ,128.43,OTHH 120200Z 02006KT 4000 HZ NSC 35/30 Q1001 TEMPO 5000,12,8,2023,2,0
OTHH,2023-08-12 03:00:00,51.6084,25.2746,-3.72,95.0,86.0,75.39,40.0,8.0,0.0,29.59,2.49,NSC,,HZ,128.43,OTHH 120300Z 04008KT 4000 HZ NSC 35/30 Q1002 TEMPO 5000,12,8,2023,3,0
OTHH,2023-08-12 04:00:00,51.6084,25.2746,-3.72,95.0,86.0,75.39,70.0,9.0,0.0,29.62,3.11,NSC,,HZ,128.43,OTHH 120400Z 07009KT 5000 HZ NSC 35/30 Q1003 NOSIG,12,8,2023,4,0
OTHH,2023-08-12 05:00:00,51.6084,25.2746,-3.72,98.6,80.6,56.72,80.0,6.0,0.0,29.62,3.11,NSC,,HZ,121.03,OTHH 120500Z 08006KT 5000 HZ NSC 37/27 Q1003 NOSIG,12,8,2023,5,0
OTHH,2023-08-12 06:00:00,51.6084,25.2746,-3.72,100.4,78.8,50.63,80.0,9.0,0.0,29.62,3.11,NSC,,HZ,120.13,OTHH 120600Z 08009KT 5000 HZ NSC 38/26 Q1003 NOSIG,12,8,2023,6,0
OTHH,2023-08-12 07:00:00,51.6084,25.2746,-3.72,102.2,75.2,42.57,90.0,6.0,0.0,29.62,3.11,NSC,,HZ,116.86,OTHH 120700Z 09006KT 5000 HZ NSC 39/24 Q1003 NOSIG,12,8,2023,7,0
OTHH,2023-08-12 08:00:00,51.6084,25.2746,-3.72,104.0,80.6,48.22,120.0,8.0,0.0,29.62,2.8,NSC,,HZ,128.32,OTHH 120800Z 12008KT 4500 HZ NSC 40/27 Q1003 TEMPO 4000,12,8,2023,8,0
OTHH,2023-08-12 09:00:00,51.6084,25.2746,-3.72,104.0,80.6,48.22,100.0,8.0,0.0,29.59,2.73,NSC,,HZ,128.32,OTHH 120900Z 10008KT 4400 HZ NSC 40/27 Q1002 TEMPO 4000,12,8,2023,9,0
OTHH,2023-08-12 10:00:00,51.6084,25.2746,-3.72,104.0,80.6,48.22,100.0,7.0,0.0,29.59,2.98,NSC,,HZ,128.32,OTHH 121000Z 10007KT 4800 HZ NSC 40/27 Q1002 TEMPO 4000,12,8,2023,10,0
OTHH,2023-08-12 11:00:00,51.6084,25.2746,-3.72,104.0,80.6,48.22,90.0,6.0,0.0,29.56,3.11,NSC,,HZ,128.32,OTHH 121100Z 09006KT 5000 HZ NSC 40/27 Q1001 NOSIG,12,8,2023,11,0
OTHH,2023-08-12 12:00:00,51.6084,25.2746,-3.72,102.2,80.6,50.88,80.0,6.0,0.0,29.56,3.11,NSC,,HZ,125.9,OTHH 121200Z 08006KT 5000 HZ NSC 39/27 Q1001 NOSIG,12,8,2023,12,0
OTHH,2023-08-12 13:00:00,51.6084,25.2746,-3.72,102.2,80.6,50.88,70.0,7.0,0.0,29.56,3.11,NSC,,HZ,125.9,OTHH 121300Z 07007KT 5000 HZ NSC 39/27 Q1001 NOSIG,12,8,2023,13,0
OTHH,2023-08-12 14:00:00,51.6084,25.2746,-3.72,100.4,84.2,60.36,70.0,6.0,0.0,29.56,3.11,NSC,,HZ,131.38,OTHH 121400Z 07006KT 5000 HZ NSC 38/29 Q1001 NOSIG,12,8,2023,14,0
OTHH,2023-08-12 15:00:00,51.6084,25.2746,-3.72,98.6,82.4,60.14,80.0,6.0,0.0,29.56,3.11,NSC,,HZ,124.75,OTHH 121500Z 08006KT 5000 HZ NSC 37/28 Q1001 NOSIG,12,8,2023,15,0
OTHH,2023-08-12 16:00:00,51.6084,25.2746,-3.72,98.6,84.2,63.74,100.0,6.0,0.0,29.56,3.73,NSC,,HZ,128.92,OTHH 121600Z 10006KT 6000 HZ NSC 37/29 Q1001 NOSIG,12,8,2023,16,0
OTHH,2023-08-12 17:00:00,51.6084,25.2746,-3.72,100.4,77.0,47.71,110.0,5.0,0.0,29.59,4.35,NSC,,HZ,117.15,OTHH 121700Z 11005KT 7000 NSC 38/25 Q1002 NOSIG,12,8,2023,17,0
OTHH,2023-08-12 18:00:00,51.6084,25.2746,-3.72,98.6,80.6,56.72,140.0,6.0,0.0,29.59,4.97,NSC,,HZ,121.03,OTHH 121800Z 14006KT 8000 NSC 37/27 Q1002 NOSIG,12,8,2023,18,0
OTHH,2023-08-12 19:00:00,51.6084,25.2746,-3.72,98.6,82.4,60.14,150.0,6.0,0.0,29.59,4.97,NSC,,HZ,124.75,OTHH 121900Z 15006KT 8000 NSC 37/28 Q1002 NOSIG,12,8,2023,19,0
OTHH,2023-08-12 20:00:00,51.6084,25.2746,-3.72,98.6,78.8,53.47,220.0,7.0,0.0,29.59,5.59,NSC,,HZ,117.71,OTHH 122000Z 22007KT 180V260 9000 NSC 37/26 Q1002 NOSIG,12,8,2023,20,0
OTHH,2023-08-12 21:00:00,51.6084,25.2746,-3.72,98.6,75.2,47.45,230.0,7.0,0.0,29.56,5.59,NSC,,HZ,112.12,OTHH 122100Z 23007KT 130V250 9000 NSC 37/24 Q1001 NOSIG,12,8,2023,21,0
OTHH,2023-08-12 22:00:00,51.6084,25.2746,-3.72,98.6,64.4,32.81,,4.0,0.0,29.56,3.73,NSC,,HZ,101.5,OTHH 122200Z VRB04KT 6000 NSC 37/18 Q1001 TEMPO 5000 DU,12,8,2023,22,0
OTHH,2023-08-12 23:00:00,51.6084,25.2746,-3.72,98.6,60.8,28.9,200.0,5.0,0.0,29.56,3.11,NSC,,DU,99.39,OTHH 122300Z 20005KT 5000 DU NSC 37/16 Q1001 NOSIG,12,8,2023,23,0
OTHH,2023-08-13 00:00:00,51.6084,25.2746,-3.72,95.0,62.6,34.39,200.0,5.0,0.0,29.56,3.11,NSC,,DU,96.22,OTHH 130000Z 20005KT 100V240 5000 DU NSC 35/17 Q1001 NOSIG,13,8,2023,0,0
OTHH,2023-08-13 01:00:00,51.6084,25.2746,-3.72,93.2,64.4,38.73,,2.0,0.0,29.56,3.11,NSC,,DU,95.2,OTHH 130100Z VRB02KT 5000 DU NSC 34/18 Q1001 NOSIG,13,8,2023,1,0
OTHH,2023-08-13 02:00:00,51.6084,25.2746,-3.72,95.0,68.0,41.5,140.0,7.0,0.0,29.56,2.8,NSC,,HZ,99.82,OTHH 130200Z 14007KT 4500 HZ NSC 35/20 Q1001 TEMPO 4000,13,8,2023,2,0
OTHH,2023-08-13 03:00:00,51.6084,25.2746,-3.72,96.8,78.8,56.48,130.0,7.0,0.0,29.59,3.11,NSC,,HZ,115.28,OTHH 130300Z 13007KT 5000 HZ NSC 36/26 Q1002 NOSIG,13,8,2023,3,0
OTHH,2023-08-13 04:00:00,51.6084,25.2746,-3.72,98.6,77.0,50.38,100.0,5.0,0.0,29.59,3.73,NSC,,HZ,114.75,OTHH 130400Z 10005KT 6000 NSC 37/25 Q1002 NOSIG,13,8,2023,4,0
OTHH,2023-08-13 05:00:00,51.6084,25.2746,-3.72,100.4,77.0,47.71,30.0,4.0,0.0,29.62,4.35,NSC,,HZ,117.15,OTHH 130500Z 03004KT 7000 NSC 38/25 Q1003 NOSIG,13,8,2023,5,0
OTHH,2023-08-13 06:00:00,51.6084,25.2746,-3.72,102.2,75.2,42.57,40.0,5.0,0.0,29.62,4.97,NSC,,HZ,116.86,OTHH 130600Z 04005KT 8000 NSC 39/24 Q1003 NOSIG,13,8,2023,6,0
OTHH,2023-08-13 07:00:00,51.6084,25.2746,-3.72,102.2,77.0,45.2,30.0,5.0,0.0,29.62,5.59,NSC,,HZ,119.55,OTHH 130700Z 03005KT 9000 NSC 39/25 Q1003 NOSIG,13,8,2023,7,0
OTHH,2023-08-13 08:00:00,51.6084,25.2746,-3.72,104.0,75.2,40.34,50.0,7.0,0.0,29.59,4.35,NSC,,HZ,119.24,OTHH 130800Z 05007KT 7000 NSC 40/24 Q1002 NOSIG,13,8,2023,8,0
OTHH,2023-08-13 09:00:00,51.6084,25.2746,-3.72,105.8,75.2,38.25,100.0,7.0,0.0,29.56,4.35,NSC,,HZ,121.61,OTHH 130900Z 10007KT 7000 NSC 41/24 Q1001 NOSIG,13,8,2023,9,0
OTHH,2023-08-13 10:00:00,51.6084,25.2746,-3.72,105.8,75.2,38.25,110.0,9.0,0.0,29.56,5.59,NSC,,HZ,121.61,OTHH 131000Z 11009KT 9000 NSC 41/24 Q1001 NOSIG,13,8,2023,10,0
OTHH,2023-08-13 11:00:00,51.6084,25.2746,-3.72,104.0,75.2,40.34,140.0,11.0,0.0,29.53,4.35,NSC,,HZ,119.24,OTHH 131100Z 14011KT 7000 NSC 40/24 Q1000 NOSIG,13,8,2023,11,0
OTHH,2023-08-13 12:00:00,51.6084,25.2746,-3.72,104.0,71.6,35.74,130.0,10.0,0.0,29.5,4.97,NSC,,HZ,114.64,OTHH 131200Z 13010KT 8000 NSC 40/22 Q0999 NOSIG,13,8,2023,12,0
OTHH,2023-08-13 13:00:00,51.6084,25.2746,-3.72,104.0,73.4,37.98,120.0,7.0,0.0,29.5,4.97,NSC,,HZ,116.81,OTHH 131300Z 12007KT 8000 NSC 40/23 Q0999 NOSIG,13,8,2023,13,0
OTHH,2023-08-13 14:00:00,51.6084,25.2746,-3.72,104.0,71.6,35.74,120.0,6.0,0.0,29.5,4.97,NSC,,HZ,114.64,OTHH 131400Z 12006KT 8000 NSC 40/22 Q0999 NOSIG,13,8,2023,14,0
OTHH,2023-08-13 15:00:00,51.6084,25.2746,-3.72,102.2,71.6,37.71,120.0,6.0,0.0,29.5,5.59,NSC,,HZ,112.32,OTHH 131500Z 12006KT 9000 NSC 39/22 Q0999 NOSIG,13,8,2023,15,0
OTHH,2023-08-14 02:00:00,51.6084,25.2746,-3.72,91.4,77.0,62.9,,4.0,0.0,29.53,5.59,NSC,,HZ,105.06,OTHH 140200Z VRB04KT 9000 NSC 33/25 Q1000 NOSIG,14,8,2023,2,0
OTHH,2023-08-14 03:00:00,51.6084,25.2746,-3.72,95.0,77.0,56.25,310.0,3.0,0.0,29.56,5.59,NSC,,HZ,109.94,OTHH 140300Z 31003KT 240V360 9000 NSC 35/25 Q1001 NOSIG,14,8,2023,3,0
OTHH,2023-08-14 04:00:00,51.6084,25.2746,-3.72,96.8,78.8,56.48,,1.0,0.0,29.56,4.97,NSC,,HZ,115.28,OTHH 140400Z VRB01KT 8000 NSC 36/26 Q1001 NOSIG,14,8,2023,4,0
OTHH,2023-08-14 05:00:00,51.6084,25.2746,-3.72,98.6,78.8,53.47,70.0,3.0,0.0,29.59,4.97,NSC,,HZ,117.71,OTHH 140500Z 07003KT 8000 NSC 37/26 Q1002 NOSIG,14,8,2023,5,0
OTHH,2023-08-14 06:00:00,51.6084,25.2746,-3.72,104.0,68.0,31.6,,6.0,0.0,29.59,5.59,NSC,,HZ,110.96,OTHH 140600Z VRB06KT 9000 NSC 40/20 Q1002 NOSIG,14,8,2023,6,0
OTHH,2023-08-14 07:00:00,51.6084,25.2746,-3.72,104.0,75.2,40.34,130.0,10.0,0.0,29.59,5.59,NSC,,HZ,119.24,OTHH 140700Z 13010KT 9000 NSC 40/24 Q1002 NOSIG,14,8,2023,7,0
OTHH,2023-08-14 08:00:00,51.6084,25.2746,-3.72,104.0,77.0,42.83,130.0,10.0,0.0,29.56,5.59,NSC,,HZ,121.94,OTHH 140800Z 13010KT 9000 NSC 40/25 Q1001 NOSIG,14,8,2023,8,0
OTHH,2023-08-14 09:00:00,51.6084,25.2746,-3.72,105.8,80.6,45.72,120.0,9.0,0.0,29.56,5.59,NSC,,HZ,130.73,OTHH 140900Z 12009KT 9000 NSC 41/27 Q1001 NOSIG,14,8,2023,9,0
OTHH,2023-08-14 10:00:00,51.6084,25.2746,-3.72,104.0,75.2,40.34,120.0,10.0,0.0,29.53,5.59,NSC,,HZ,119.24,OTHH 141000Z 12010KT 9000 NSC 40/24 Q1000 NOSIG,14,8,2023,10,0
OTHH,2023-08-14 11:00:00,51.6084,25.2746,-3.72,105.8,73.4,36.01,120.0,10.0,0.0,29.53,4.97,NSC,,HZ,119.16,OTHH 141100Z 12010KT 8000 NSC 41/23 Q1000 NOSIG,14,8,2023,11,0
OTHH,2023-08-14 12:00:00,51.6084,25.2746,-3.72,102.2,78.8,47.97,90.0,10.0,0.0,29.53,4.97,NSC,,HZ,122.55,OTHH 141200Z 09010KT 8000 NSC 39/26 Q1000 NOSIG,14,8,2023,12,0
OTHH,2023-08-14 13:00:00,51.6084,25.2746,-3.72,100.4,82.4,56.95,70.0,8.0,0.0,29.5,4.97,NSC,,HZ,127.21,OTHH 141300Z 07008KT 8000 NSC 38/28 Q0999 NOSIG,14,8,2023,13,0
OTHH,2023-08-14 14:00:00,51.6084,25.2746,-3.72,100.4,78.8,50.63,70.0,8.0,0.0,29.5,5.59,NSC,,HZ,120.13,OTHH 141400Z 07008KT 9000 NSC 38/26 Q0999 NOSIG,14,8,2023,14,0
OTHH,2023-08-14 15:00:00,51.6084,25.2746,-3.72,98.6,78.8,53.47,90.0,5.0,0.0,29.5,5.59,NSC,,HZ,117.71,OTHH 141500Z 09005KT 9000 NSC 37/26 Q0999 NOSIG,14,8,2023,15,0
OTHH,2023-08-14 18:00:00,51.6084,25.2746,-3.72,96.8,82.4,63.53,70.0,6.0,0.0,29.53,4.97,NSC,,HZ,122.27,OTHH 141800Z 07006KT 8000 NSC 36/28 Q1000 NOSIG,14,8,2023,18,0
OTHH,2023-08-14 19:00:00,51.6084,25.2746,-3.72,96.8,82.4,63.53,60.0,6.0,0.0,29.53,5.59,NSC,,HZ,122.27,OTHH 141900Z 06006KT 9000 NSC 36/28 Q1000 NOSIG,14,8,2023,19,0
OTHH,2023-08-14 20:00:00,51.6084,25.2746,-3.72,96.8,80.6,59.92,100.0,5.0,0.0,29.53,5.59,NSC,,HZ,118.57,OTHH 142000Z 10005KT 9000 NSC 36/27 Q1000 NOSIG,14,8,2023,20,0
OTHH,2023-08-14 22:00:00,51.6084,25.2746,-3.72,93.2,80.6,66.95,,2.0,0.0,29.5,5.59,NSC,,HZ,113.52,OTHH 142200Z VRB02KT 9000 NSC 34/27 Q0999 NOSIG,14,8,2023,22,0
OTHH,2023-08-14 23:00:00,51.6084,25.2746,-3.72,93.2,82.4,70.99,200.0,4.0,0.0,29.5,5.59,NSC,,HZ,117.1,OTHH 142300Z 20004KT 9000 NSC 34/28 Q0999 NOSIG,14,8,2023,23,0
OTHH,2023-08-15 00:00:00,51.6084,25.2746,-3.72,93.2,82.4,70.99,210.0,4.0,0.0,29.5,4.97,NSC,,HZ,117.1,OTHH 150000Z 21004KT 8000 NSC 34/28 Q0999 NOSIG,15,8,2023,0,0
OTHH,2023-08-15 01:00:00,51.6084,25.2746,-3.72,91.4,82.4,75.08,,2.0,0.0,29.5,4.97,NSC,,HZ,114.36,OTHH 150100Z VRB02KT 8000 NSC 33/28 Q0999 NOSIG,15,8,2023,1,0
OTHH,2023-08-15 02:00:00,51.6084,25.2746,-3.72,91.4,80.6,70.81,70.0,3.0,0.0,29.53,3.73,NSC,,HZ,110.88,OTHH 150200Z 07003KT 040V190 6000 NSC 33/27 Q1000 NOSIG,15,8,2023,2,0
OTHH,2023-08-15 03:00:00,51.6084,25.2746,-3.72,93.2,84.2,75.24,50.0,4.0,0.0,29.56,3.73,NSC,,HZ,121.14,OTHH 150300Z 05004KT 330V110 6000 NSC 34/29 Q1001 NOSIG,15,8,2023,3,0
OTHH,2023-08-15 04:00:00,51.6084,25.2746,-3.72,95.0,82.4,67.14,30.0,4.0,0.0,29.56,4.35,NSC,,HZ,119.73,OTHH 150400Z 03004KT 360V070 7000 NSC 35/28 Q1001 NOSIG,15,8,2023,4,0
OTHH,2023-08-15 05:00:00,51.6084,25.2746,-3.72,95.0,82.4,67.14,50.0,3.0,0.0,29.56,4.97,NSC,,HZ,119.73,OTHH 150500Z 05003KT 020V090 8000 NSC 35/28 Q1001 NOSIG,15,8,2023,5,0
OTHH,2023-08-15 06:00:00,51.6084,25.2746,-3.72,98.6,82.4,60.14,110.0,4.0,0.0,29.56,4.97,NSC,,HZ,124.75,OTHH 150600Z 11004KT 8000 NSC 37/28 Q1001 NOSIG,15,8,2023,6,0
OTHH,2023-08-15 07:00:00,51.6084,25.2746,-3.72,98.6,82.4,60.14,110.0,8.0,0.0,29.56,4.35,NSC,,HZ,124.75,OTHH 150700Z 11008KT 080V140 7000 NSC 37/28 Q1001 NOSIG,15,8,2023,7,0
OTHH,2023-08-15 08:00:00,51.6084,25.2746,-3.72,100.4,78.8,50.63,100.0,8.0,0.0,29.56,4.97,NSC,,HZ,120.13,OTHH 150800Z 10008KT 8000 NSC 38/26 Q1001 NOSIG,15,8,2023,8,0
OTHH,2023-08-15 09:00:00,51.6084,25.2746,-3.72,102.2,78.8,47.97,100.0,7.0,0.0,29.56,4.97,NSC,,HZ,122.55,OTHH 150900Z 10007KT 050V150 8000 NSC 39/26 Q1001 NOSIG,15,8,2023,9,0
OTHH,2023-08-15 10:00:00,51.6084,25.2746,-3.72,102.2,78.8,47.97,110.0,9.0,0.0,29.53,4.97,NSC,,HZ,122.55,OTHH 151000Z 11009KT 8000 NSC 39/26 Q1000 NOSIG,15,8,2023,10,0
OTHH,2023-08-15 12:00:00,51.6084,25.2746,-3.72,102.2,78.8,47.97,80.0,7.0,0.0,29.5,4.97,NSC,,HZ,122.55,OTHH 151200Z 08007KT 050V110 8000 NSC 39/26 Q0999 NOSIG,15,8,2023,12,0
OTHH,2023-08-15 13:00:00,51.6084,25.2746,-3.72,100.4,80.6,53.71,60.0,7.0,0.0,29.5,4.97,NSC,,HZ,123.47,OTHH 151300Z 06007KT 030V100 8000 NSC 38/27 Q0999 NOSIG,15,8,2023,13,0
OTHH,2023-08-15 14:00:00,51.6084,25.2746,-3.72,98.6,82.4,60.14,60.0,8.0,0.0,29.5,4.35,NSC,,HZ,124.75,OTHH 151400Z 06008KT 7000 NSC 37/28 Q0999 NOSIG,15,8,2023,14,0
OTHH,2023-08-15 15:00:00,51.6084,25.2746,-3.72,96.8,82.4,63.53,80.0,7.0,0.0,29.5,3.73,NSC,,HZ,122.27,OTHH 151500Z 08007KT 6000 NSC 36/28 Q0999 NOSIG,15,8,2023,15,0
OTHH,2023-08-15 16:00:00,51.6084,25.2746,-3.72,96.8,80.6,59.92,80.0,7.0,0.0,29.5,4.35,NSC,,HZ,118.57,OTHH 151600Z 08007KT 7000 NSC 36/27 Q0999 NOSIG,15,8,2023,16,0
OTHH,2023-08-15 17:00:00,51.6084,25.2746,-3.72,96.8,80.6,59.92,90.0,6.0,0.0,29.53,4.35,NSC,,HZ,118.57,OTHH 151700Z 09006KT 060V120 7000 NSC 36/27 Q1000 NOSIG,15,8,2023,17,0
OTHH,2023-08-15 18:00:00,51.6084,25.2746,-3.72,96.8,82.4,63.53,90.0,6.0,0.0,29.53,3.73,NSC,,HZ,122.27,OTHH 151800Z 09006KT 060V120 6000 NSC 36/28 Q1000 TEMPO 5000,15,8,2023,18,0
OTHH,2023-08-15 19:00:00,51.6084,25.2746,-3.72,95.0,82.4,67.14,80.0,8.0,0.0,29.53,3.11,NSC,,HZ,119.73,OTHH 151900Z 08008KT 5000 HZ NSC 35/28 Q1000 NOSIG,15,8,2023,19,0
OTHH,2023-08-15 20:00:00,51.6084,25.2746,-3.72,95.0,84.2,71.16,80.0,10.0,0.0,29.53,3.11,NSC,,HZ,123.83,OTHH 152000Z 08010KT 5000 HZ NSC 35/29 Q1000 NOSIG,15,8,2023,20,0
OTHH,2023-08-15 21:00:00,51.6084,25.2746,-3.72,95.0,84.2,71.16,70.0,9.0,0.0,29.5,4.35,NSC,,HZ,123.83,OTHH 152100Z 07009KT 7000 NSC 35/29 Q0999 NOSIG,15,8,2023,21,0
OTHH,2023-08-15 22:00:00,51.6084,25.2746,-3.72,95.0,84.2,71.16,70.0,10.0,0.0,29.5,4.35,NSC,,HZ,123.83,OTHH 152200Z 07010KT 7000 NSC 35/29 Q0999 NOSIG,15,8,2023,22,0
OTHH,2023-08-15 23:00:00,51.6084,25.2746,-3.72,95.0,80.6,63.32,100.0,7.0,0.0,29.5,5.59,NSC,,HZ,116.07,OTHH 152300Z 10007KT 9000 NSC 35/27 Q0999 NOSIG,15,8,2023,23,0
OTHH,2023-08-16 00:00:00,51.6084,25.2746,-3.72,95.0,80.6,63.32,110.0,6.0,0.0,29.5,5.59,NSC,,HZ,116.07,OTHH 160000Z 11006KT 070V130 9000 NSC 35/27 Q0999 NOSIG,16,8,2023,0,0
OTHH,2023-08-16 01:00:00,51.6084,25.2746,-3.72,95.0,82.4,67.14,90.0,6.0,0.0,29.5,4.97,NSC,,HZ,119.73,OTHH 160100Z 09006KT 060V120 8000 NSC 35/28 Q0999 NOSIG,16,8,2023,1,0
OTHH,2023-08-16 02:00:00,51.6084,25.2746,-3.72,95.0,84.2,71.16,50.0,4.0,0.0,29.53,3.73,NSC,,HZ,123.83,OTHH 160200Z 05004KT 360V080 6000 NSC 35/29 Q1000 NOSIG,16,8,2023,2,0
OTHH,2023-08-16 03:00:00,51.6084,25.2746,-3.72,95.0,84.2,71.16,60.0,6.0,0.0,29.53,3.73,NSC,,HZ,123.83,OTHH 160300Z 06006KT 6000 NSC 35/29 Q1000 NOSIG,16,8,2023,3,0
OTHH,2023-08-16 04:00:00,51.6084,25.2746,-3.72,95.0,84.2,71.16,40.0,7.0,0.0,29.56,3.11,NSC,,HZ,123.83,OTHH 160400Z 04007KT 5000 HZ NSC 35/29 Q1001 NOSIG,16,8,2023,4,0
OTHH,2023-08-16 05:00:00,51.6084,25.2746,-3.72,95.0,84.2,71.16,70.0,8.0,0.0,29.56,3.11,NSC,,HZ,123.83,OTHH 160500Z 07008KT 5000 HZ NSC 35/29 Q1001 NOSIG,16,8,2023,5,0
OTHH,2023-08-16 06:00:00,51.6084,25.2746,-3.72,96.8,84.2,67.34,70.0,8.0,0.0,29.56,3.11,NSC,,HZ,126.41,OTHH 160600Z 07008KT 5000 HZ NSC 36/29 Q1001 NOSIG,16,8,2023,6,0
OTHH,2023-08-16 07:00:00,51.6084,25.2746,-3.72,98.6,84.2,63.74,80.0,10.0,0.0,29.56,3.11,NSC,,HZ,128.92,OTHH 160700Z 08010KT 5000 HZ NSC 37/29 Q1001 NOSIG,16,8,2023,7,0
OTHH,2023-08-16 08:00:00,51.6084,25.2746,-3.72,100.4,84.2,60.36,80.0,10.0,0.0,29.56,3.11,NSC,,HZ,131.38,OTHH 160800Z 08010KT 5000 HZ NSC 38/29 Q1001 NOSIG,16,8,2023,8,0
OTHH,2023-08-16 09:00:00,51.6084,25.2746,-3.72,100.4,86.0,63.95,80.0,9.0,0.0,29.56,3.11,NSC,,HZ,136.05,OTHH 160900Z 08009KT 5000 HZ NSC 38/30 Q1001 NOSIG,16,8,2023,9,0
OTHH,2023-08-16 10:00:00,51.6084,25.2746,-3.72,102.2,82.4,53.95,100.0,10.0,0.0,29.53,4.97,NSC,,HZ,129.64,OTHH 161000Z 10010KT 8000 NSC 39/28 Q1000 NOSIG,16,8,2023,10,0
OTHH,2023-08-16 11:00:00,51.6084,25.2746,-3.72,102.2,82.4,53.95,90.0,9.0,0.0,29.5,4.97,NSC,,HZ,129.64,OTHH 161100Z 09009KT 8000 NSC 39/28 Q0999 NOSIG,16,8,2023,11,0
OTHH,2023-08-16 12:00:00,51.6084,25.2746,-3.72,102.2,78.8,47.97,60.0,10.0,0.0,29.5,4.97,NSC,,HZ,122.55,OTHH 161200Z 06010KT 8000 NSC 39/26 Q0999 NOSIG,16,8,2023,12,0
OTHH,2023-08-16 13:00:00,51.6084,25.2746,-3.72,100.4,82.4,56.95,70.0,13.0,0.0,29.5,5.59,NSC,,HZ,127.21,OTHH 161300Z 07013KT 9000 NSC 38/28 Q0999 NOSIG,16,8,2023,13,0
OTHH,2023-08-16 14:00:00,51.6084,25.2746,-3.72,100.4,82.4,56.95,80.0,12.0,0.0,29.5,5.59,NSC,,HZ,127.21,OTHH 161400Z 08012KT 9000 NSC 38/28 Q0999 NOSIG,16,8,2023,14,0
OTHH,2023-08-16 15:00:00,51.6084,25.2746,-3.72,98.6,82.4,60.14,100.0,14.0,0.0,29.5,5.59,NSC,,HZ,124.75,OTHH 161500Z 10014KT 9000 NSC 37/28 Q0999 NOSIG,16,8,2023,15,0
OTHH,2023-08-16 17:00:00,51.6084,25.2746,-3.72,98.6,80.6,56.72,100.0,15.0,0.0,29.53,5.59,NSC,,HZ,121.03,OTHH 161700Z 10015KT 9000 NSC 37/27 Q1000 NOSIG,16,8,2023,17,0
OTHH,2023-08-16 23:00:00,51.6084,25.2746,-3.72,100.4,78.8,50.63,130.0,16.0,0.0,29.53,5.59,NSC,,HZ,120.13,OTHH 162300Z 13016KT 9000 NSC 38/26 Q1000 NOSIG,16,8,2023,23,0
OTHH,2023-08-17 00:00:00,51.6084,25.2746,-3.72,100.4,78.8,50.63,140.0,14.0,0.0,29.53,4.97,NSC,,HZ,120.13,OTHH 170000Z 14014KT 8000 NSC 38/26 Q1000 NOSIG,17,8,2023,0,0
OTHH,2023-08-17 01:00:00,51.6084,25.2746,-3.72,98.6,78.8,53.47,150.0,11.0,0.0,29.53,4.35,NSC,,HZ,117.71,OTHH 170100Z 15011KT 7000 NSC 37/26 Q1000 NOSIG,17,8,2023,1,0
OTHH,2023-08-17 02:00:00,51.6084,25.2746,-3.72,98.6,78.8,53.47,170.0,12.0,0.0,29.53,4.97,NSC,,HZ,117.71,OTHH 170200Z 17012KT 8000 NSC 37/26 Q1000 NOSIG,17,8,2023,2,0
OTHH,2023-08-17 03:00:00,51.6084,25.2746,-3.72,98.6,77.0,50.38,180.0,10.0,0.0,29.56,4.97,NSC,,HZ,114.75,OTHH 170300Z 18010KT 8000 NSC 37/25 Q1001 NOSIG,17,8,2023,3,0
OTHH,2023-08-17 04:00:00,51.6084,25.2746,-3.72,100.4,71.6,39.81,170.0,10.0,0.0,29.59,5.59,NSC,,HZ,110.0,OTHH 170400Z 17010KT 9000 NSC 38/22 Q1002 NOSIG,17,8,2023,4,0
OTHH,2023-08-17 12:00:00,51.6084,25.2746,-3.72,100.4,77.0,47.71,110.0,13.0,0.0,29.59,3.11,NSC,,HZ,117.15,OTHH 171200Z 11013KT 5000 HZ NSC 38/25 Q1002 NOSIG,17,8,2023,12,0
OTHH,2023-08-17 13:00:00,51.6084,25.2746,-3.72,98.6,77.0,50.38,110.0,12.0,0.0,29.59,1.86,NSC,,HZ,114.75,OTHH 171300Z 11012KT 3000 HZ NSC 37/25 Q1002 TEMPO 2000,17,8,2023,13,0
OTHH,2023-08-17 14:00:00,51.6084,25.2746,-3.72,98.6,78.8,53.47,100.0,11.0,0.0,29.59,1.55,NSC,,HZ,117.71,OTHH 171400Z 10011KT 2500 HZ NSC 37/26 Q1002 TEMPO 2000,17,8,2023,14,0
OTHH,2023-08-17 15:00:00,51.6084,25.2746,-3.72,96.8,80.6,59.92,100.0,10.0,0.0,29.59,1.55,NSC,,HZ,118.57,OTHH 171500Z 10010KT 2500 HZ NSC 36/27 Q1002 NOSIG,17,8,2023,15,0
OTHH,2023-08-17 16:00:00,51.6084,25.2746,-3.72,96.8,80.6,59.92,110.0,11.0,0.0,29.59,2.17,NSC,,HZ,118.57,OTHH 171600Z 11011KT 3500 HZ NSC 36/27 Q1002 NOSIG,17,8,2023,16,0
OTHH,2023-08-17 17:00:00,51.6084,25.2746,-3.72,96.8,78.8,56.48,120.0,10.0,0.0,29.62,2.49,NSC,,HZ,115.28,OTHH 171700Z 12010KT 4000 HZ NSC 36/26 Q1003 NOSIG,17,8,2023,17,0
OTHH,2023-08-17 18:00:00,51.6084,25.2746,-3.72,96.8,77.0,53.22,130.0,10.0,0.0,29.62,3.11,NSC,,HZ,112.35,OTHH 171800Z 13010KT 5000 HZ NSC 36/25 Q1003 NOSIG,17,8,2023,18,0
OTHH,2023-08-17 19:00:00,51.6084,25.2746,-3.72,96.8,78.8,56.48,130.0,11.0,0.0,29.62,3.11,NSC,,HZ,115.28,OTHH 171900Z 13011KT 5000 HZ NSC 36/26 Q1003 NOSIG,17,8,2023,19,0
OTHH,2023-08-17 20:00:00,51.6084,25.2746,-3.72,96.8,80.6,59.92,130.0,10.0,0.0,29.62,3.73,NSC,,HZ,118.57,OTHH 172000Z 13010KT 6000 HZ NSC 36/27 Q1003 NOSIG,17,8,2023,20,0
OTHH,2023-08-17 21:00:00,51.6084,25.2746,-3.72,96.8,78.8,56.48,130.0,10.0,0.0,29.59,5.59,NSC,,HZ,115.28,OTHH 172100Z 13010KT 9000 NSC 36/26 Q1002 NOSIG,17,8,2023,21,0
OTHH,2023-08-17 22:00:00,51.6084,25.2746,-3.72,96.8,78.8,56.48,130.0,9.0,0.0,29.59,5.59,NSC,,HZ,115.28,OTHH 172200Z 13009KT 9000 NSC 36/26 Q1002 NOSIG,17,8,2023,22,0
OTHH,2023-08-18 02:00:00,51.6084,25.2746,-3.72,96.8,80.6,59.92,130.0,13.0,0.0,29.59,4.97,NSC,,HZ,118.57,OTHH 180200Z 13013KT 8000 NSC 36/27 Q1002 NOSIG,18,8,2023,2,0
OTHH,2023-08-18 03:00:00,51.6084,25.2746,-3.72,95.0,80.6,63.32,140.0,12.0,0.0,29.62,4.35,NSC,,HZ,116.07,OTHH 180300Z 14012KT 7000 NSC 35/27 Q1003 NOSIG,18,8,2023,3,0
OTHH,2023-08-18 04:00:00,51.6084,25.2746,-3.72,96.8,78.8,56.48,140.0,12.0,0.0,29.65,4.35,NSC,,HZ,115.28,OTHH 180400Z 14012KT 7000 NSC 36/26 Q1004 NOSIG,18,8,2023,4,0
OTHH,2023-08-18 05:00:00,51.6084,25.2746,-3.72,96.8,80.6,59.92,140.0,13.0,0.0,29.65,4.35,NSC,,HZ,118.57,OTHH 180500Z 14013KT 7000 NSC 36/27 Q1004 NOSIG,18,8,2023,5,0
OTHH,2023-08-18 06:00:00,51.6084,25.2746,-3.72,98.6,78.8,53.47,140.0,12.0,0.0,29.65,4.35,NSC,,HZ,117.71,OTHH 180600Z 14012KT 7000 NSC 37/26 Q1004 NOSIG,18,8,2023,6,0
OTHH,2023-08-18 07:00:00,51.6084,25.2746,-3.72,100.4,71.6,39.81,160.0,13.0,0.0,29.65,4.97,NSC,,HZ,110.0,OTHH 180700Z 16013KT 8000 NSC 38/22 Q1004 NOSIG,18,8,2023,7,0
OTHH,2023-08-18 08:00:00,51.6084,25.2746,-3.72,100.4,73.4,42.3,140.0,13.0,0.0,29.65,5.59,NSC,,HZ,112.12,OTHH 180800Z 14013KT 9000 NSC 38/23 Q1004 NOSIG,18,8,2023,8,0
OTHH,2023-08-19 06:00:00,51.6084,25.2746,-3.72,98.6,78.8,53.47,200.0,10.0,0.0,29.62,4.97,NSC,,HZ,117.71,OTHH 190600Z 20010KT 170V230 8000 NSC 37/26 Q1003 NOSIG,19,8,2023,6,0
OTHH,2023-08-19 07:00:00,51.6084,25.2746,-3.72,102.2,75.2,42.57,170.0,7.0,0.0,29.62,4.97,NSC,,HZ,116.86,OTHH 190700Z 17007KT 110V230 8000 NSC 39/24 Q1003 NOSIG,19,8,2023,7,0
OTHH,2023-08-19 08:00:00,51.6084,25.2746,-3.72,104.0,77.0,42.83,140.0,12.0,0.0,29.62,4.97,NSC,,HZ,121.94,OTHH 190800Z 14012KT 8000 NSC 40/25 Q1003 NOSIG,19,8,2023,8,0
OTHH,2023-08-19 13:00:00,51.6084,25.2746,-3.72,98.6,78.8,53.47,90.0,9.0,0.0,29.56,5.59,NSC,,HZ,117.71,OTHH 191300Z 09009KT 9000 NSC 37/26 Q1001 NOSIG,19,8,2023,13,0
OTHH,2023-08-19 14:00:00,51.6084,25.2746,-3.72,98.6,78.8,53.47,90.0,8.0,0.0,29.56,4.97,NSC,,HZ,117.71,OTHH 191400Z 09008KT 8000 NSC 37/26 Q1001 NOSIG,19,8,2023,14,0
OTHH,2023-08-19 15:00:00,51.6084,25.2746,-3.72,96.8,77.0,53.22,70.0,6.0,0.0,29.56,4.97,NSC,,HZ,112.35,OTHH 191500Z 07006KT 8000 NSC 36/25 Q1001 NOSIG,19,8,2023,15,0
OTHH,2023-08-19 16:00:00,51.6084,25.2746,-3.72,96.8,78.8,56.48,60.0,6.0,0.0,29.56,5.59,NSC,,HZ,115.28,OTHH 191600Z 06006KT 9000 NSC 36/26 Q1001 NOSIG,19,8,2023,16,0
OTHH,2023-08-19 17:00:00,51.6084,25.2746,-3.72,96.8,80.6,59.92,60.0,6.0,0.0,29.59,5.59,NSC,,HZ,118.57,OTHH 191700Z 06006KT 9000 NSC 36/27 Q1002 NOSIG,19,8,2023,17,0
OTHH,2023-08-19 18:00:00,51.6084,25.2746,-3.72,95.0,80.6,63.32,100.0,5.0,0.0,29.59,4.97,NSC,,HZ,116.07,OTHH 191800Z 10005KT 8000 NSC 35/27 Q1002 NOSIG,19,8,2023,18,0
OTHH,2023-08-19 19:00:00,51.6084,25.2746,-3.72,95.0,80.6,63.32,130.0,6.0,0.0,29.59,4.97,NSC,,HZ,116.07,OTHH 191900Z 13006KT 8000 NSC 35/27 Q1002 NOSIG,19,8,2023,19,0
OTHH,2023-08-19 20:00:00,51.6084,25.2746,-3.72,95.0,80.6,63.32,150.0,6.0,0.0,29.59,4.97,NSC,,HZ,116.07,OTHH 192000Z 15006KT 8000 NSC 35/27 Q1002 NOSIG,19,8,2023,20,0
OTHH,2023-08-19 22:00:00,51.6084,25.2746,-3.72,95.0,80.6,63.32,140.0,6.0,0.0,29.56,4.97,NSC,,HZ,116.07,OTHH 192200Z AUTO 14006KT 8000 NSC 35/27 Q1001 NOSIG,19,8,2023,22,0
OTHH,2023-08-19 23:00:00,51.6084,25.2746,-3.72,93.2,78.8,63.11,150.0,7.0,0.0,29.56,4.97,NSC,,HZ,110.34,OTHH 192300Z AUTO 15007KT 8000 NSC 34/26 Q1001 NOSIG,19,8,2023,23,0
OTHH,2023-08-20 00:00:00,51.6084,25.2746,-3.72,93.2,78.8,63.11,180.0,8.0,0.0,29.56,4.97,NSC,,HZ,110.34,OTHH 200000Z AUTO 18008KT 150V230 8000 NSC 34/26 Q1001 NOSIG,20,8,2023,0,0
OTHH,2023-08-20 01:00:00,51.6084,25.2746,-3.72,93.2,78.8,63.11,190.0,6.0,0.0,29.56,5.59,NSC,,HZ,110.34,OTHH 200100Z AUTO 19006KT 140V230 9000 NSC 34/26 Q1001 NOSIG,20,8,2023,1,0
OTHH,2023-08-20 02:00:00,51.6084,25.2746,-3.72,91.4,78.8,66.75,240.0,3.0,0.0,29.56,4.97,NSC,,HZ,107.79,OTHH 200200Z 24003KT 8000 NSC 33/26 Q1001 NOSIG,20,8,2023,2,0
OTHH,2023-08-20 03:00:00,51.6084,25.2746,-3.72,93.2,78.8,63.11,200.0,3.0,0.0,29.59,4.35,NSC,,HZ,110.34,OTHH 200300Z 20003KT 160V240 7000 NSC 34/26 Q1002 NOSIG,20,8,2023,3,0
OTHH,2023-08-20 04:00:00,51.6084,25.2746,-3.72,95.0,77.0,56.25,140.0,6.0,0.0,29.62,5.59,NSC,,HZ,109.94,OTHH 200400Z 14006KT 9000 NSC 35/25 Q1003 NOSIG,20,8,2023,4,0
OTHH,2023-08-20 08:00:00,51.6084,25.2746,-3.72,98.6,75.2,47.45,110.0,7.0,0.0,29.62,5.59,NSC,,HZ,112.12,OTHH 200800Z 11007KT 9000 NSC 37/24 Q1003 NOSIG,20,8,2023,8,0
OTHH,2023-08-20 11:00:00,51.6084,25.2746,-3.72,100.4,78.8,50.63,90.0,7.0,0.0,29.56,5.59,NSC,,HZ,120.13,OTHH 201100Z 09007KT 9000 NSC 38/26 Q1001 NOSIG,20,8,2023,11,0
OTHH,2023-08-20 12:00:00,51.6084,25.2746,-3.72,98.6,78.8,53.47,80.0,9.0,0.0,29.56,4.97,NSC,,HZ,117.71,OTHH 201200Z 08009KT 8000 NSC 37/26 Q1001 NOSIG,20,8,2023,12,0
OTHH,2023-08-20 13:00:00,51.6084,25.2746,-3.72,98.6,78.8,53.47,80.0,9.0,0.0,29.56,4.97,NSC,,HZ,117.71,OTHH 201300Z 08009KT 8000 NSC 37/26 Q1001 NOSIG,20,8,2023,13,0
OTHH,2023-08-20 14:00:00,51.6084,25.2746,-3.72,96.8,80.6,59.92,80.0,9.0,0.0,29.53,4.35,NSC,,HZ,118.57,OTHH 201400Z 08009KT 7000 NSC 36/27 Q1000 NOSIG,20,8,2023,14,0
OTHH,2023-08-20 15:00:00,51.6084,25.2746,-3.72,96.8,80.6,59.92,90.0,10.0,0.0,29.56,3.73,NSC,,HZ,118.57,OTHH 201500Z 09010KT 6000 NSC 36/27 Q1001 TEMPO 5000,20,8,2023,15,0
OTHH,2023-08-20 16:00:00,51.6084,25.2746,-3.72,95.0,82.4,67.14,80.0,10.0,0.0,29.56,4.35,NSC,,HZ,119.73,OTHH 201600Z 08010KT 7000 NSC 35/28 Q1001 NOSIG,20,8,2023,16,0
OTHH,2023-08-20 17:00:00,51.6084,25.2746,-3.72,95.0,82.4,67.14,80.0,13.0,0.0,29.59,3.73,NSC,,HZ,119.73,OTHH 201700Z 08013KT 6000 NSC 35/28 Q1002 NOSIG,20,8,2023,17,0
OTHH,2023-08-20 18:00:00,51.6084,25.2746,-3.72,95.0,82.4,67.14,70.0,13.0,0.0,29.62,3.11,NSC,,HZ,119.73,OTHH 201800Z 07013KT 5000 HZ NSC 35/28 Q1003 TEMPO 4000,20,8,2023,18,0
OTHH,2023-08-20 19:00:00,51.6084,25.2746,-3.72,93.2,82.4,70.99,80.0,10.0,0.0,29.59,2.17,NSC,,BR,117.1,OTHH 201900Z 08010KT 3500 BR NSC 34/28 Q1002 TEMPO 3000,20,8,2023,19,0
OTHH,2023-08-20 20:00:00,51.6084,25.2746,-3.72,93.2,80.6,66.95,70.0,8.0,0.0,29.59,1.86,NSC,,HZ,113.52,OTHH 202000Z 07008KT 3000 HZ NSC 34/27 Q1002 NOSIG,20,8,2023,20,0
OTHH,2023-08-20 21:00:00,51.6084,25.2746,-3.72,93.2,78.8,63.11,110.0,7.0,0.0,29.56,2.17,NSC,,HZ,110.34,OTHH 202100Z 11007KT 3500 HZ NSC 34/26 Q1001 NOSIG,20,8,2023,21,0
OTHH,2023-08-20 22:00:00,51.6084,25.2746,-3.72,93.2,80.6,66.95,100.0,4.0,0.0,29.56,3.11,NSC,,HZ,113.52,OTHH 202200Z 10004KT 060V130 5000 HZ NSC 34/27 Q1001 NOSIG,20,8,2023,22,0
OTHH,2023-08-20 23:00:00,51.6084,25.2746,-3.72,93.2,80.6,66.95,70.0,4.0,0.0,29.53,3.11,NSC,,HZ,113.52,OTHH 202300Z 07004KT 040V100 5000 HZ NSC 34/27 Q1000 NOSIG,20,8,2023,23,0
OTHH,2023-08-21 00:00:00,51.6084,25.2746,-3.72,93.2,82.4,70.99,110.0,5.0,0.0,29.56,3.11,NSC,,HZ,117.1,OTHH 210000Z 11005KT 5000 HZ NSC 34/28 Q1001 NOSIG,21,8,2023,0,0
OTHH,2023-08-21 01:00:00,51.6084,25.2746,-3.72,93.2,82.4,70.99,130.0,6.0,0.0,29.56,3.73,NSC,,HZ,117.1,OTHH 210100Z 13006KT 6000 NSC 34/28 Q1001 NOSIG,21,8,2023,1,0
OTHH,2023-08-21 02:00:00,51.6084,25.2746,-3.72,93.2,82.4,70.99,140.0,7.0,0.0,29.59,4.35,NSC,,HZ,117.1,OTHH 210200Z 14007KT 7000 NSC 34/28 Q1002 NOSIG,21,8,2023,2,0
OTHH,2023-08-21 03:00:00,51.6084,25.2746,-3.72,91.4,80.6,70.81,160.0,6.0,0.0,29.59,4.35,NSC,,HZ,110.88,OTHH 210300Z 16006KT 150V250 7000 NSC 33/27 Q1002 NOSIG,21,8,2023,3,0
OTHH,2023-08-21 04:00:00,51.6084,25.2746,-3.72,95.0,82.4,67.14,,2.0,0.0,29.62,4.97,NSC,,HZ,119.73,OTHH 210400Z VRB02KT 8000 NSC 35/28 Q1003 NOSIG,21,8,2023,4,0
OTHH,2023-08-21 05:00:00,51.6084,25.2746,-3.72,96.8,80.6,59.92,170.0,9.0,0.0,29.62,4.97,NSC,,HZ,118.57,OTHH 210500Z 17009KT 8000 NSC 36/27 Q1003 NOSIG,21,8,2023,5,0
OTHH,2023-08-21 09:00:00,51.6084,25.2746,-3.72,100.4,78.8,50.63,120.0,10.0,0.0,29.62,5.59,NSC,,HZ,120.13,OTHH 210900Z 12010KT 9000 NSC 38/26 Q1003 NOSIG,21,8,2023,9,0
OTHH,2023-08-21 13:00:00,51.6084,25.2746,-3.72,100.4,80.6,53.71,110.0,9.0,0.0,29.56,6.21,FEW,4000.0,HZ,123.47,OTHH 211300Z 11009KT 9999 FEW040 38/27 Q1001 NOSIG,21,8,2023,13,0
OTHH,2023-08-21 20:00:00,51.6084,25.2746,-3.72,95.0,78.8,59.69,90.0,3.0,0.0,29.59,4.97,NSC,,HZ,112.83,OTHH 212000Z 09003KT 8000 NSC 35/26 Q1002 NOSIG,21,8,2023,20,0
OTHH,2023-08-21 21:00:00,51.6084,25.2746,-3.72,91.4,78.8,66.75,,2.0,0.0,29.56,5.59,NSC,,HZ,107.79,OTHH 212100Z VRB02KT 9000 NSC 33/26 Q1001 NOSIG,21,8,2023,21,0
OTHH,2023-08-21 22:00:00,51.6084,25.2746,-3.72,89.6,77.0,66.55,,2.0,0.0,29.56,5.59,NSC,,HZ,102.54,OTHH 212200Z VRB02KT 9000 NSC 32/25 Q1001 NOSIG,21,8,2023,22,0
OTHH,2023-08-21 23:00:00,51.6084,25.2746,-3.72,87.8,77.0,70.45,,1.0,0.0,29.56,5.59,NSC,,HZ,99.92,OTHH 212300Z VRB01KT 9000 NSC 31/25 Q1001 NOSIG,21,8,2023,23,0
OTHH,2023-08-22 00:00:00,51.6084,25.2746,-3.72,89.6,78.8,70.63,350.0,3.0,0.0,29.56,5.59,NSC,,HZ,105.15,OTHH 220000Z 35003KT 310V010 9000 NSC 32/26 Q1001 NOSIG,22,8,2023,0,0
OTHH,2023-08-22 01:00:00,51.6084,25.2746,-3.72,87.8,78.8,74.77,,1.0,0.0,29.59,5.59,NSC,,HZ,102.37,OTHH 220100Z VRB01KT 9000 NSC 31/26 Q1002 NOSIG,22,8,2023,1,0
OTHH,2023-08-22 02:00:00,51.6084,25.2746,-3.72,91.4,78.8,66.75,70.0,3.0,0.0,29.59,4.35,NSC,,HZ,107.79,OTHH 220200Z 07003KT 7000 NSC 33/26 Q1002 NOSIG,22,8,2023,2,0
OTHH,2023-08-22 03:00:00,51.6084,25.2746,-3.72,87.8,77.0,70.45,40.0,4.0,0.0,29.62,4.35,NSC,,HZ,99.92,OTHH 220300Z 04004KT 7000 NSC 31/25 Q1003 NOSIG,22,8,2023,3,0
OTHH,2023-08-22 04:00:00,51.6084,25.2746,-3.72,95.0,78.8,59.69,40.0,3.0,0.0,29.62,4.35,NSC,,HZ,112.83,OTHH 220400Z 04003KT 7000 NSC 35/26 Q1003 NOSIG,22,8,2023,4,0
OTHH,2023-08-22 05:00:00,51.6084,25.2746,-3.72,98.6,77.0,50.38,110.0,3.0,0.0,29.62,4.97,NSC,,HZ,114.75,OTHH 220500Z 11003KT 070V140 8000 NSC 37/25 Q1003 NOSIG,22,8,2023,5,0
OTHH,2023-08-22 07:00:00,51.6084,25.2746,-3.72,104.0,73.4,37.98,90.0,4.0,0.0,29.62,4.97,NSC,,HZ,116.81,OTHH 220700Z 09004KT 060V120 8000 NSC 40/23 Q1003 NOSIG,22,8,2023,7,0
OTHH,2023-08-22 08:00:00,51.6084,25.2746,-3.72,104.0,73.4,37.98,110.0,7.0,0.0,29.62,4.97,NSC,,HZ,116.81,OTHH 220800Z 11007KT 8000 NSC 40/23 Q1003 NOSIG,22,8,2023,8,0
OTHH,2023-08-22 09:00:00,51.6084,25.2746,-3.72,104.0,73.4,37.98,100.0,8.0,0.0,29.62,5.59,NSC,,HZ,116.81,OTHH 220900Z 10008KT 9000 NSC 40/23 Q1003 NOSIG,22,8,2023,9,0
OTHH,2023-08-22 11:00:00,51.6084,25.2746,-3.72,102.2,75.2,42.57,80.0,9.0,0.0,29.59,5.59,NSC,,HZ,116.86,OTHH 221100Z 08009KT 9000 NSC 39/24 Q1002 NOSIG,22,8,2023,11,0
OTHH,2023-08-22 12:00:00,51.6084,25.2746,-3.72,100.4,77.0,47.71,40.0,10.0,0.0,29.59,3.73,NSC,,HZ,117.15,OTHH 221200Z 04010KT 010V070 6000 NSC 38/25 Q1002 NOSIG,22,8,2023,12,0
OTHH,2023-08-22 13:00:00,51.6084,25.2746,-3.72,98.6,82.4,60.14,60.0,13.0,0.0,29.59,3.73,NSC,,HZ,124.75,OTHH 221300Z 06013KT 6000 NSC 37/28 Q1002 NOSIG,22,8,2023,13,0
OTHH,2023-08-22 14:00:00,51.6084,25.2746,-3.72,96.8,82.4,63.53,40.0,11.0,0.0,29.59,3.11,NSC,,HZ,122.27,OTHH 221400Z 04011KT 5000 HZ NSC 36/28 Q1002 NOSIG,22,8,2023,14,0
OTHH,2023-08-22 15:00:00,51.6084,25.2746,-3.72,96.8,82.4,63.53,40.0,10.0,0.0,29.59,3.11,NSC,,HZ,122.27,OTHH 221500Z 04010KT 5000 HZ NSC 36/28 Q1002 NOSIG,22,8,2023,15,0
OTHH,2023-08-22 16:00:00,51.6084,25.2746,-3.72,96.8,80.6,59.92,40.0,7.0,0.0,29.62,4.35,NSC,,HZ,118.57,OTHH 221600Z 04007KT 7000 NSC 36/27 Q1003 NOSIG,22,8,2023,16,0
OTHH,2023-08-22 17:00:00,51.6084,25.2746,-3.72,96.8,80.6,59.92,10.0,7.0,0.0,29.62,4.97,NSC,,HZ,118.57,OTHH 221700Z 01007KT 8000 NSC 36/27 Q1003 NOSIG,22,8,2023,17,0
OTHH,2023-08-22 18:00:00,51.6084,25.2746,-3.72,95.0,80.6,63.32,340.0,5.0,0.0,29.62,4.97,NSC,,HZ,116.07,OTHH 221800Z 34005KT 8000 NSC 35/27 Q1003 NOSIG,22,8,2023,18,0
OTHH,2023-08-22 19:00:00,51.6084,25.2746,-3.72,93.2,80.6,66.95,340.0,3.0,0.0,29.59,4.97,NSC,,HZ,113.52,OTHH 221900Z 34003KT 8000 NSC 34/27 Q1002 NOSIG,22,8,2023,19,0
OTHH,2023-08-22 20:00:00,51.6084,25.2746,-3.72,91.4,80.6,70.81,,2.0,0.0,29.59,5.59,NSC,,HZ,110.88,OTHH 222000Z VRB02KT 9000 NSC 33/27 Q1002 NOSIG,22,8,2023,20,0
OTHH,2023-08-23 03:00:00,51.6084,25.2746,-3.72,91.4,73.4,55.77,300.0,7.0,0.0,29.59,5.59,NSC,,HZ,100.52,OTHH 230300Z 30007KT 9000 NSC 33/23 Q1002 NOSIG,23,8,2023,3,0
OTHH,2023-08-23 04:00:00,51.6084,25.2746,-3.72,95.0,75.2,52.98,310.0,6.0,0.0,29.59,4.97,NSC,,HZ,107.39,OTHH 230400Z 31006KT 8000 NSC 35/24 Q1002 NOSIG,23,8,2023,4,0
OTHH,2023-08-23 05:00:00,51.6084,25.2746,-3.72,96.8,78.8,56.48,320.0,6.0,0.0,29.62,4.97,NSC,,HZ,115.28,OTHH 230500Z 32006KT 8000 NSC 36/26 Q1003 NOSIG,23,8,2023,5,0
OTHH,2023-08-23 06:00:00,51.6084,25.2746,-3.72,100.4,75.2,44.94,310.0,8.0,0.0,29.62,4.97,NSC,,HZ,114.49,OTHH 230600Z 31008KT 280V340 8000 NSC 38/24 Q1003 NOSIG,23,8,2023,6,0
OTHH,2023-08-23 12:00:00,51.6084,25.2746,-3.72,104.0,78.8,45.46,40.0,10.0,0.0,29.5,4.97,NSC,,HZ,124.96,OTHH 231200Z 04010KT 8000 NSC 40/26 Q0999 NOSIG,23,8,2023,12,0
OTHH,2023-08-23 13:00:00,51.6084,25.2746,-3.72,104.0,78.8,45.46,30.0,9.0,0.0,29.5,4.97,NSC,,HZ,124.96,OTHH 231300Z 03009KT 8000 NSC 40/26 Q0999 NOSIG,23,8,2023,13,0
OTHH,2023-08-23 14:00:00,51.6084,25.2746,-3.72,102.2,82.4,53.95,20.0,10.0,0.0,29.5,4.97,NSC,,HZ,129.64,OTHH 231400Z 02010KT 8000 NSC 39/28 Q0999 NOSIG,23,8,2023,14,0
OTHH,2023-08-23 15:00:00,51.6084,25.2746,-3.72,102.2,78.8,47.97,360.0,7.0,0.0,29.53,4.97,NSC,,HZ,122.55,OTHH 231500Z 36007KT 8000 NSC 39/26 Q1000 NOSIG,23,8,2023,15,0
OTHH,2023-08-23 16:00:00,51.6084,25.2746,-3.72,102.2,75.2,42.57,350.0,6.0,0.0,29.53,5.59,NSC,,HZ,116.86,OTHH 231600Z 35006KT 9000 NSC 39/24 Q1000 NOSIG,23,8,2023,16,0
OTHH,2023-08-24 03:00:00,51.6084,25.2746,-3.72,95.0,68.0,41.5,270.0,10.0,0.0,29.5,4.97,NSC,,HZ,99.82,OTHH 240300Z 27010KT 260V320 8000 NSC 35/20 Q0999 NOSIG,24,8,2023,3,0
OTHH,2023-08-24 05:00:00,51.6084,25.2746,-3.72,102.2,68.0,33.35,270.0,12.0,0.0,29.5,5.59,NSC,,HZ,108.7,OTHH 240500Z 27012KT 250V310 9000 NSC 39/20 Q0999 NOSIG,24,8,2023,5,0
OTHH,2023-08-24 10:00:00,51.6084,25.2746,-3.72,104.0,78.8,45.46,20.0,10.0,0.0,29.47,5.59,NSC,,HZ,124.96,OTHH 241000Z 02010KT 9000 NSC 40/26 Q0998 NOSIG,24,8,2023,10,0
OTHH,2023-08-24 11:00:00,51.6084,25.2746,-3.72,104.0,78.8,45.46,20.0,14.0,0.0,29.44,4.97,NSC,,HZ,124.96,OTHH 241100Z 02014KT 8000 NSC 40/26 Q0997 NOSIG,24,8,2023,11,0
OTHH,2023-08-24 12:00:00,51.6084,25.2746,-3.72,102.2,80.6,50.88,20.0,15.0,0.0,29.41,4.97,NSC,,HZ,125.9,OTHH 241200Z 02015KT 8000 NSC 39/27 Q0996 NOSIG,24,8,2023,12,0
OTHH,2023-08-24 13:00:00,51.6084,25.2746,-3.72,102.2,84.2,57.18,30.0,16.0,0.0,29.41,3.73,NSC,,HZ,133.81,OTHH 241300Z 03016KT 6000 NSC 39/29 Q0996 NOSIG,24,8,2023,13,0
OTHH,2023-08-24 14:00:00,51.6084,25.2746,-3.72,98.6,86.0,67.53,20.0,13.0,0.0,29.41,3.73,NSC,,HZ,133.59,OTHH 241400Z 02013KT 6000 NSC 37/30 Q0996 NOSIG,24,8,2023,14,0
OTHH,2023-08-24 15:00:00,51.6084,25.2746,-3.72,96.8,87.8,75.55,30.0,11.0,0.0,29.44,3.11,NSC,,HZ,136.26,OTHH 241500Z 03011KT 5000 HZ NSC 36/31 Q0997 NOSIG,24,8,2023,15,0
OTHH,2023-08-24 16:00:00,51.6084,25.2746,-3.72,96.8,87.8,75.55,30.0,8.0,0.0,29.44,3.11,NSC,,HZ,136.26,OTHH 241600Z 03008KT 5000 HZ NSC 36/31 Q0997 NOSIG,24,8,2023,16,0
OTHH,2023-08-24 17:00:00,51.6084,25.2746,-3.72,95.0,87.8,79.84,20.0,5.0,0.0,29.44,3.11,NSC,,HZ,133.59,OTHH 241700Z 02005KT 5000 HZ NSC 35/31 Q0997 NOSIG,24,8,2023,17,0
OTHH,2023-08-24 18:00:00,51.6084,25.2746,-3.72,95.0,87.8,79.84,360.0,3.0,0.0,29.47,3.11,NSC,,HZ,133.59,OTHH 241800Z 36003KT 5000 HZ NSC 35/31 Q0998 TEMPO 4000,24,8,2023,18,0
OTHH,2023-08-24 19:00:00,51.6084,25.2746,-3.72,95.0,87.8,79.84,10.0,6.0,0.0,29.47,2.49,NSC,,HZ,133.59,OTHH 241900Z 01006KT 4000 HZ NSC 35/31 Q0998 TEMPO 3500,24,8,2023,19,0
OTHH,2023-08-24 20:00:00,51.6084,25.2746,-3.72,93.2,87.8,84.41,20.0,6.0,0.0,29.44,2.49,SCT,800.0,HZ,130.74,OTHH 242000Z 02006KT 4000 HZ SCT008 34/31 Q0997 NOSIG,24,8,2023,20,0
OTHH,2023-08-24 21:00:00,51.6084,25.2746,-3.72,93.2,87.8,84.41,60.0,5.0,0.0,29.44,2.24,FEW,800.0,HZ,130.74,OTHH 242100Z 06005KT 3600 HZ FEW008 34/31 Q0997 TEMPO 3000,24,8,2023,21,0
OTHH,2023-08-24 22:00:00,51.6084,25.2746,-3.72,93.2,87.8,84.41,,2.0,0.0,29.41,2.36,SCT,600.0,HZ,130.74,OTHH 242200Z VRB02KT 3800 HZ SCT006 34/31 Q0996 NOSIG,24,8,2023,22,0
OTHH,2023-08-24 23:00:00,51.6084,25.2746,-3.72,91.4,87.8,89.28,,2.0,0.0,29.41,2.36,FEW,600.0,HZ,127.63,OTHH 242300Z VRB02KT 3800 HZ FEW006 33/31 Q0996 NOSIG,24,8,2023,23,0
OTHH,2023-08-25 00:00:00,51.6084,25.2746,-3.72,91.4,86.0,84.31,,5.0,0.0,29.41,2.3,FEW,600.0,HZ,122.69,OTHH 250000Z VRB05KT 3700 HZ FEW006 33/30 Q0996 NOSIG,25,8,2023,0,0
OTHH,2023-08-25 01:00:00,51.6084,25.2746,-3.72,93.2,86.0,79.71,290.0,5.0,0.0,29.41,2.67,NSC,,HZ,125.66,OTHH 250100Z 29005KT 240V330 4300 HZ NSC 34/30 Q0996 NOSIG,25,8,2023,1,0
OTHH,2023-08-25 02:00:00,51.6084,25.2746,-3.72,91.4,84.2,79.58,270.0,6.0,0.0,29.44,2.3,NSC,,HZ,118.28,OTHH 250200Z 27006KT 210V320 3700 HZ NSC 33/29 Q0997 NOSIG,25,8,2023,2,0
OTHH,2023-08-25 03:00:00,51.6084,25.2746,-3.72,91.4,84.2,79.58,290.0,8.0,0.0,29.47,1.55,NSC,,HZ,118.28,OTHH 250300Z 29008KT 2500 HZ NSC 33/29 Q0998 NOSIG,25,8,2023,3,0
OTHH,2023-08-25 04:00:00,51.6084,25.2746,-3.72,95.0,82.4,67.14,,2.0,0.0,29.47,3.11,NSC,,HZ,119.73,OTHH 250400Z VRB02KT 5000 HZ NSC 35/28 Q0998 NOSIG,25,8,2023,4,0
OTHH,2023-08-25 05:00:00,51.6084,25.2746,-3.72,96.8,82.4,63.53,170.0,4.0,0.0,29.47,3.11,NSC,,HZ,122.27,OTHH 250500Z 17004KT 130V240 5000 HZ NSC 36/28 Q0998 NOSIG,25,8,2023,5,0
OTHH,2023-08-25 06:00:00,51.6084,25.2746,-3.72,100.4,78.8,50.63,,4.0,0.0,29.47,4.35,NSC,,HZ,120.13,OTHH 250600Z VRB04KT 7000 NSC 38/26 Q0998 NOSIG,25,8,2023,6,0
OTHH,2023-08-25 07:00:00,51.6084,25.2746,-3.72,105.8,60.8,23.29,90.0,3.0,0.0,29.47,5.59,NSC,,HZ,107.75,OTHH 250700Z 09003KT 9000 NSC 41/16 Q0998 NOSIG,25,8,2023,7,0
OTHH,2023-08-25 08:00:00,51.6084,25.2746,-3.72,105.8,69.8,31.87,60.0,7.0,0.0,29.47,5.59,NSC,,HZ,114.98,OTHH 250800Z 06007KT 9000 NSC 41/21 Q0998 NOSIG,25,8,2023,8,0
OTHH,2023-08-25 14:00:00,51.6084,25.2746,-3.72,100.4,78.8,50.63,50.0,6.0,0.0,29.41,4.97,NSC,,HZ,120.13,OTHH 251400Z 05006KT 010V080 8000 NSC 38/26 Q0996 NOSIG,25,8,2023,14,0
OTHH,2023-08-25 15:00:00,51.6084,25.2746,-3.72,98.6,80.6,56.72,50.0,5.0,0.0,29.41,4.97,NSC,,HZ,121.03,OTHH 251500Z 05005KT 010V080 8000 NSC 37/27 Q0996 NOSIG,25,8,2023,15,0
OTHH,2023-08-25 16:00:00,51.6084,25.2746,-3.72,98.6,82.4,60.14,70.0,5.0,0.0,29.44,5.59,NSC,,HZ,124.75,OTHH 251600Z 07005KT 9000 NSC 37/28 Q0997 NOSIG,25,8,2023,16,0
OTHH,2023-08-25 17:00:00,51.6084,25.2746,-3.72,96.8,80.6,59.92,20.0,4.0,0.0,29.44,5.59,NSC,,HZ,118.57,OTHH 251700Z 02004KT 9000 NSC 36/27 Q0997 NOSIG,25,8,2023,17,0
OTHH,2023-08-25 20:00:00,51.6084,25.2746,-3.72,93.2,82.4,70.99,360.0,3.0,0.0,29.44,5.59,NSC,,HZ,117.1,OTHH 252000Z 36003KT 9000 NSC 34/28 Q0997 NOSIG,25,8,2023,20,0
OTHH,2023-08-25 21:00:00,51.6084,25.2746,-3.72,95.0,82.4,67.14,,2.0,0.0,29.41,5.59,NSC,,HZ,119.73,OTHH 252100Z VRB02KT 9000 NSC 35/28 Q0996 NOSIG,25,8,2023,21,0
OTHH,2023-08-25 22:00:00,51.6084,25.2746,-3.72,93.2,78.8,63.11,270.0,3.0,0.0,29.41,5.59,NSC,,HZ,110.34,OTHH 252200Z 27003KT 210V340 9000 NSC 34/26 Q0996 NOSIG,25,8,2023,22,0
OTHH,2023-08-26 12:00:00,51.6084,25.2746,-3.72,100.4,82.4,56.95,50.0,8.0,0.0,29.44,5.59,NSC,,HZ,127.21,OTHH 261200Z 05008KT 9000 NSC 38/28 Q0997 NOSIG,26,8,2023,12,0
OTHH,2023-08-27 02:00:00,51.6084,25.2746,-3.72,89.6,82.4,79.45,330.0,5.0,0.0,29.5,5.59,NSC,,HZ,111.44,OTHH 270200Z 33005KT 9000 NSC 32/28 Q0999 NOSIG,27,8,2023,2,0
OTHH,2023-08-27 03:00:00,51.6084,25.2746,-3.72,89.6,82.4,79.45,320.0,11.0,0.0,29.5,4.97,NSC,,HZ,111.44,OTHH 270300Z 32011KT 8000 NSC 32/28 Q0999 NOSIG,27,8,2023,3,0
OTHH,2023-08-27 06:00:00,51.6084,25.2746,-3.72,95.0,82.4,67.14,,4.0,0.0,29.56,6.21,FEW,3000.0,HZ,119.73,OTHH 270600Z VRB04KT 9999 FEW030 35/28 Q1001 NOSIG,27,8,2023,6,0
OTHH,2023-08-29 12:00:00,51.6084,25.2746,-3.72,100.4,80.6,53.71,100.0,14.0,0.0,29.47,5.59,NSC,,HZ,123.47,OTHH 291200Z 10014KT 9000 NSC 38/27 Q0998 NOSIG,29,8,2023,12,0
OTHH,2023-08-29 13:00:00,51.6084,25.2746,-3.72,98.6,82.4,60.14,80.0,10.0,0.0,29.47,5.59,NSC,,HZ,124.75,OTHH 291300Z 08010KT 9000 NSC 37/28 Q0998 NOSIG,29,8,2023,13,0
OTHH,2023-08-29 14:00:00,51.6084,25.2746,-3.72,98.6,80.6,56.72,70.0,11.0,0.0,29.47,5.59,NSC,,HZ,121.03,OTHH 291400Z 07011KT 9000 NSC 37/27 Q0998 NOSIG,29,8,2023,14,0
OTHH,2023-08-29 15:00:00,51.6084,25.2746,-3.72,96.8,80.6,59.92,80.0,11.0,0.0,29.47,5.59,NSC,,HZ,118.57,OTHH 291500Z 08011KT 9000 NSC 36/27 Q0998 NOSIG,29,8,2023,15,0
OTHH,2023-08-29 16:00:00,51.6084,25.2746,-3.72,96.8,80.6,59.92,60.0,11.0,0.0,29.5,5.59,NSC,,HZ,118.57,OTHH 291600Z 06011KT 9000 NSC 36/27 Q0999 NOSIG,29,8,2023,16,0
OTHH,2023-08-30 06:00:00,51.6084,25.2746,-3.72,98.6,82.4,60.14,120.0,10.0,0.0,29.62,5.59,NSC,,HZ,124.75,OTHH 300600Z 12010KT 9000 NSC 37/28 Q1003 NOSIG,30,8,2023,6,0
OTHH,2023-08-30 12:00:00,51.6084,25.2746,-3.72,98.6,80.6,56.72,50.0,10.0,0.0,29.56,4.97,NSC,,HZ,121.03,OTHH 301200Z 05010KT 8000 NSC 37/27 Q1001 NOSIG,30,8,2023,12,0
OTHH,2023-08-30 13:00:00,51.6084,25.2746,-3.72,98.6,80.6,56.72,50.0,12.0,0.0,29.56,4.35,NSC,,HZ,121.03,OTHH 301300Z 05012KT 7000 NSC 37/27 Q1001 NOSIG,30,8,2023,13,0
OTHH,2023-08-30 14:00:00,51.6084,25.2746,-3.72,96.8,82.4,63.53,50.0,11.0,0.0,29.59,3.73,NSC,,HZ,122.27,OTHH 301400Z 05011KT 6000 NSC 36/28 Q1002 NOSIG,30,8,2023,14,0
OTHH,2023-08-30 15:00:00,51.6084,25.2746,-3.72,96.8,82.4,63.53,50.0,11.0,0.0,29.59,3.73,NSC,,HZ,122.27,OTHH 301500Z 05011KT 6000 NSC 36/28 Q1002 NOSIG,30,8,2023,15,0
OTHH,2023-08-30 16:00:00,51.6084,25.2746,-3.72,95.0,80.6,63.32,40.0,11.0,0.0,29.59,4.97,NSC,,HZ,116.07,OTHH 301600Z 04011KT 8000 NSC 35/27 Q1002 NOSIG,30,8,2023,16,0
OTHH,2023-08-30 17:00:00,51.6084,25.2746,-3.72,95.0,82.4,67.14,40.0,11.0,0.0,29.62,4.97,NSC,,HZ,119.73,OTHH 301700Z 04011KT 8000 NSC 35/28 Q1003 NOSIG,30,8,2023,17,0
OTHH,2023-08-30 18:00:00,51.6084,25.2746,-3.72,95.0,82.4,67.14,30.0,11.0,0.0,29.62,5.59,NSC,,HZ,119.73,OTHH 301800Z 03011KT 9000 NSC 35/28 Q1003 NOSIG,30,8,2023,18,0
OTHH,2023-08-30 19:00:00,51.6084,25.2746,-3.72,93.2,82.4,70.99,20.0,9.0,0.0,29.62,5.59,NSC,,HZ,117.1,OTHH 301900Z 02009KT 9000 NSC 34/28 Q1003 NOSIG,30,8,2023,19,0
OTHH,2023-08-31 02:00:00,51.6084,25.2746,-3.72,93.2,82.4,70.99,20.0,10.0,0.0,29.62,5.59,NSC,,HZ,117.1,OTHH 310200Z 02010KT 9000 NSC 34/28 Q1003 NOSIG,31,8,2023,2,0
OTHH,2023-08-31 03:00:00,51.6084,25.2746,-3.72,93.2,80.6,66.95,10.0,9.0,0.0,29.65,5.59,NSC,,HZ,113.52,OTHH 310300Z 01009KT 9000 NSC 34/27 Q1004 NOSIG,31,8,2023,3,0
OTHH,2023-08-31 04:00:00,51.6084,25.2746,-3.72,93.2,80.6,66.95,20.0,7.0,0.0,29.65,5.59,NSC,,HZ,113.52,OTHH 310400Z 02007KT 9000 NSC 34/27 Q1004 NOSIG,31,8,2023,4,0
OTHH,2023-09-03 02:00:00,51.6084,25.2746,-3.72,89.6,77.0,66.55,270.0,4.0,0.0,29.59,6.21,SCT,3000.0,HZ,102.54,OTHH 030200Z 27004KT 230V320 9999 SCT030 32/25 Q1002 NOSIG,3,9,2023,2,0
OTHH,2023-09-03 03:00:00,51.6084,25.2746,-3.72,91.4,77.0,62.9,350.0,2.0,0.0,29.62,5.59,SCT,3000.0,HZ,105.06,OTHH 030300Z 35002KT 9000 SCT030 33/25 Q1003 NOSIG,3,9,2023,3,0
OTHH,2023-09-03 04:00:00,51.6084,25.2746,-3.72,91.4,78.8,66.75,330.0,5.0,0.0,29.62,6.21,FEW,3500.0,HZ,107.79,OTHH 030400Z 33005KT 9999 FEW035 33/26 Q1003 NOSIG,3,9,2023,4,0
OTHH,2023-09-03 05:00:00,51.6084,25.2746,-3.72,93.2,78.8,63.11,360.0,7.0,0.0,29.65,6.21,FEW,3500.0,HZ,110.34,OTHH 030500Z 36007KT 9999 FEW035 34/26 Q1004 NOSIG,3,9,2023,5,0
OTHH,2023-09-03 06:00:00,51.6084,25.2746,-3.72,93.2,78.8,63.11,10.0,7.0,0.0,29.65,6.21,FEW,3500.0,HZ,110.34,OTHH 030600Z 01007KT 9999 FEW035 34/26 Q1004 NOSIG,3,9,2023,6,0
OTHH,2023-09-03 07:00:00,51.6084,25.2746,-3.72,93.2,78.8,63.11,40.0,8.0,0.0,29.65,6.21,FEW,4000.0,HZ,110.34,OTHH 030700Z 04008KT 9999 FEW040 34/26 Q1004 NOSIG,3,9,2023,7,0
OTHH,2023-09-03 08:00:00,51.6084,25.2746,-3.72,95.0,77.0,56.25,40.0,7.0,0.0,29.62,6.21,FEW,4000.0,HZ,109.94,OTHH 030800Z 04007KT 9999 FEW040 35/25 Q1003 NOSIG,3,9,2023,8,0
OTHH,2023-09-03 09:00:00,51.6084,25.2746,-3.72,95.0,77.0,56.25,60.0,7.0,0.0,29.62,5.59,FEW,4000.0,HZ,109.94,OTHH 030900Z 06007KT 9000 FEW040 35/25 Q1003 NOSIG,3,9,2023,9,0
OTHH,2023-09-03 10:00:00,51.6084,25.2746,-3.72,96.8,77.0,53.22,60.0,8.0,0.0,29.59,5.59,NSC,,HZ,112.35,OTHH 031000Z 06008KT 9000 NSC 36/25 Q1002 NOSIG,3,9,2023,10,0
OTHH,2023-09-03 11:00:00,51.6084,25.2746,-3.72,96.8,75.2,50.13,70.0,8.0,0.0,29.59,5.59,NSC,,HZ,109.75,OTHH 031100Z 07008KT 9000 NSC 36/24 Q1002 NOSIG,3,9,2023,11,0
OTHH,2023-09-03 12:00:00,51.6084,25.2746,-3.72,96.8,75.2,50.13,80.0,8.0,0.0,29.56,4.97,NSC,,HZ,109.75,OTHH 031200Z 08008KT 8000 NSC 36/24 Q1001 NOSIG,3,9,2023,12,0
OTHH,2023-09-03 13:00:00,51.6084,25.2746,-3.72,96.8,77.0,53.22,80.0,7.0,0.0,29.56,4.97,NSC,,HZ,112.35,OTHH 031300Z 08007KT 8000 NSC 36/25 Q1001 NOSIG,3,9,2023,13,0
OTHH,2023-09-03 14:00:00,51.6084,25.2746,-3.72,95.0,75.2,52.98,90.0,7.0,0.0,29.56,4.97,NSC,,HZ,107.39,OTHH 031400Z 09007KT 8000 NSC 35/24 Q1001 NOSIG,3,9,2023,14,0
OTHH,2023-09-03 15:00:00,51.6084,25.2746,-3.72,95.0,75.2,52.98,70.0,7.0,0.0,29.56,4.97,NSC,,HZ,107.39,OTHH 031500Z 07007KT 8000 /// NSC 35/24 Q1001 NOSIG,3,9,2023,15,0
OTHH,2023-09-03 16:00:00,51.6084,25.2746,-3.72,93.2,78.8,63.11,70.0,6.0,0.0,29.59,4.97,NSC,,HZ,110.34,OTHH 031600Z 07006KT 8000 NSC 34/26 Q1002 NOSIG,3,9,2023,16,0
OTHH,2023-09-03 17:00:00,51.6084,25.2746,-3.72,93.2,78.8,63.11,60.0,6.0,0.0,29.59,4.97,NSC,,HZ,110.34,OTHH 031700Z AUTO 06006KT 8000 NSC 34/26 Q1002 NOSIG,3,9,2023,17,0
OTHH,2023-09-03 18:00:00,51.6084,25.2746,-3.72,93.2,80.6,66.95,70.0,6.0,0.0,29.59,5.59,NSC,,HZ,113.52,OTHH 031800Z 07006KT 9000 NSC 34/27 Q1002 NOSIG,3,9,2023,18,0
OTHH,2023-09-03 19:00:00,51.6084,25.2746,-3.72,93.2,80.6,66.95,80.0,6.0,0.0,29.59,5.59,NSC,,HZ,113.52,OTHH 031900Z 08006KT 9000 NSC 34/27 Q1002 NOSIG,3,9,2023,19,0
OTHH,2023-09-03 20:00:00,51.6084,25.2746,-3.72,91.4,80.6,70.81,90.0,4.0,0.0,29.56,5.59,NSC,,HZ,110.88,OTHH 032000Z AUTO 09004KT 9000 NSC 33/27 Q1001 NOSIG,3,9,2023,20,0
OTHH,2023-09-03 21:00:00,51.6084,25.2746,-3.72,91.4,82.4,75.08,100.0,3.0,0.0,29.56,5.59,NSC,,HZ,114.36,OTHH 032100Z AUTO 10003KT 9000 NSC 33/28 Q1001 NOSIG,3,9,2023,21,0
OTHH,2023-09-03 22:00:00,51.6084,25.2746,-3.72,91.4,80.6,70.81,110.0,3.0,0.0,29.56,5.59,NSC,,HZ,110.88,OTHH 032200Z AUTO 11003KT 9000 NSC 33/27 Q1001 NOSIG,3,9,2023,22,0
OTHH,2023-09-03 23:00:00,51.6084,25.2746,-3.72,91.4,80.6,70.81,120.0,3.0,0.0,29.56,5.59,NSC,,HZ,110.88,OTHH 032300Z 12003KT 9000 NSC 33/27 Q1001 NOSIG,3,9,2023,23,0
OTHH,2023-09-04 00:00:00,51.6084,25.2746,-3.72,91.4,80.6,70.81,100.0,3.0,0.0,29.56,5.59,NSC,,HZ,110.88,OTHH 040000Z 10003KT 9000 NSC 33/27 Q1001 NOSIG,4,9,2023,0,0
OTHH,2023-09-04 01:00:00,51.6084,25.2746,-3.72,91.4,82.4,75.08,80.0,6.0,0.0,29.56,5.59,NSC,,HZ,114.36,OTHH 040100Z 08006KT 9000 NSC 33/28 Q1001 NOSIG,4,9,2023,1,0
OTHH,2023-09-04 02:00:00,51.6084,25.2746,-3.72,91.4,82.4,75.08,80.0,5.0,0.0,29.59,5.59,NSC,,HZ,114.36,OTHH 040200Z AUTO 08005KT 9000 NSC 33/28 Q1002 NOSIG,4,9,2023,2,0
OTHH,2023-09-04 03:00:00,51.6084,25.2746,-3.72,91.4,82.4,75.08,90.0,3.0,0.0,29.59,4.97,NSC,,HZ,114.36,OTHH 040300Z 09003KT 8000 NSC 33/28 Q1002 NOSIG,4,9,2023,3,0
OTHH,2023-09-04 04:00:00,51.6084,25.2746,-3.72,93.2,80.6,66.95,80.0,3.0,0.0,29.62,4.97,NSC,,HZ,113.52,OTHH 040400Z 08003KT 8000 NSC 34/27 Q1003 NOSIG,4,9,2023,4,0
OTHH,2023-09-04 05:00:00,51.6084,25.2746,-3.72,95.0,80.6,63.32,100.0,4.0,0.0,29.62,4.97,NSC,,HZ,116.07,OTHH 040500Z 10004KT 8000 NSC 35/27 Q1003 NOSIG,4,9,2023,5,0
OTHH,2023-09-04 06:00:00,51.6084,25.2746,-3.72,96.8,80.6,59.92,90.0,4.0,0.0,29.65,5.59,FEW,3500.0,HZ,118.57,OTHH 040600Z 09004KT 9000 FEW035 36/27 Q1004 NOSIG,4,9,2023,6,0
OTHH,2023-09-04 07:00:00,51.6084,25.2746,-3.72,96.8,80.6,59.92,120.0,4.0,0.0,29.65,5.59,NSC,,HZ,118.57,OTHH 040700Z 12004KT 9000 NSC 36/27 Q1004 NOSIG,4,9,2023,7,0
OTHH,2023-09-04 08:00:00,51.6084,25.2746,-3.72,96.8,80.6,59.92,70.0,8.0,0.0,29.62,5.59,NSC,,HZ,118.57,OTHH 040800Z 07008KT 040V120 9000 NSC 36/27 Q1003 NOSIG,4,9,2023,8,0
OTHH,2023-09-04 09:00:00,51.6084,25.2746,-3.72,95.0,80.6,63.32,70.0,8.0,0.0,29.62,4.97,NSC,,HZ,116.07,OTHH 040900Z 07008G19KT 040V100 8000 NSC 35/27 Q1003 NOSIG,4,9,2023,9,0
OTHH,2023-09-04 10:00:00,51.6084,25.2746,-3.72,96.8,80.6,59.92,60.0,7.0,0.0,29.59,4.35,NSC,,HZ,118.57,OTHH 041000Z 06007KT 030V110 7000 NSC 36/27 Q1002 NOSIG,4,9,2023,10,0
OTHH,2023-09-04 11:00:00,51.6084,25.2746,-3.72,98.6,77.0,50.38,80.0,10.0,0.0,29.59,4.97,NSC,,HZ,114.75,OTHH 041100Z 08010KT 8000 NSC 37/25 Q1002 NOSIG,4,9,2023,11,0
OTHH,2023-09-04 12:00:00,51.6084,25.2746,-3.72,96.8,80.6,59.92,70.0,10.0,0.0,29.56,4.35,NSC,,HZ,118.57,OTHH 041200Z 07010KT 7000 NSC 36/27 Q1001 NOSIG,4,9,2023,12,0
OTHH,2023-09-04 13:00:00,51.6084,25.2746,-3.72,95.0,80.6,63.32,50.0,10.0,0.0,29.56,4.35,NSC,,HZ,116.07,OTHH 041300Z 05010KT 7000 NSC 35/27 Q1001 NOSIG,4,9,2023,13,0
OTHH,2023-09-04 14:00:00,51.6084,25.2746,-3.72,95.0,80.6,63.32,40.0,10.0,0.0,29.56,3.73,NSC,,HZ,116.07,OTHH 041400Z 04010KT 6000 NSC 35/27 Q1001 NOSIG,4,9,2023,14,0
OTHH,2023-09-04 15:00:00,51.6084,25.2746,-3.72,95.0,80.6,63.32,30.0,9.0,0.0,29.56,4.35,NSC,,HZ,116.07,OTHH 041500Z 03009KT 350V050 7000 NSC 35/27 Q1001 NOSIG,4,9,2023,15,0
OTHH,2023-09-04 18:00:00,51.6084,25.2746,-3.72,93.2,80.6,66.95,30.0,5.0,0.0,29.59,5.59,NSC,,HZ,113.52,OTHH 041800Z 03005KT 360V100 9000 NSC 34/27 Q1002 NOSIG,4,9,2023,18,0
OTHH,2023-09-05 00:00:00,51.6084,25.2746,-3.72,91.4,80.6,70.81,,1.0,0.0,29.59,5.59,NSC,,HZ,110.88,OTHH 050000Z VRB01KT 9000 NSC 33/27 Q1002 NOSIG,5,9,2023,0,0
OTHH,2023-09-05 01:00:00,51.6084,25.2746,-3.72,89.6,80.6,74.93,200.0,3.0,0.0,29.59,5.59,NSC,,HZ,108.11,OTHH 050100Z 20003KT 9000 NSC 32/27 Q1002 NOSIG,5,9,2023,1,0
OTHH,2023-09-05 02:00:00,51.6084,25.2746,-3.72,89.6,80.6,74.93,200.0,4.0,0.0,29.62,5.59,NSC,,HZ,108.11,OTHH 050200Z AUTO 20004KT 9000 NSC 32/27 Q1003 NOSIG,5,9,2023,2,0
OTHH,2023-09-05 03:00:00,51.6084,25.2746,-3.72,91.4,80.6,70.81,210.0,5.0,0.0,29.62,4.97,NSC,,HZ,110.88,OTHH 050300Z 21005KT 8000 NSC 33/27 Q1003 NOSIG,5,9,2023,3,0
OTHH,2023-09-05 04:00:00,51.6084,25.2746,-3.72,91.4,80.6,70.81,220.0,6.0,0.0,29.62,4.97,NSC,,HZ,110.88,OTHH 050400Z 22006KT 8000 NSC 33/27 Q1003 NOSIG,5,9,2023,4,0
OTHH,2023-09-05 13:00:00,51.6084,25.2746,-3.72,98.6,80.6,56.72,40.0,10.0,0.0,29.56,5.59,NSC,,HZ,121.03,OTHH 051300Z 04010KT 020V080 9000 NSC 37/27 Q1001 NOSIG,5,9,2023,13,0
OTHH,2023-09-05 14:00:00,51.6084,25.2746,-3.72,96.8,82.4,63.53,40.0,11.0,0.0,29.56,5.59,NSC,,HZ,122.27,OTHH 051400Z 04011KT 9000 NSC 36/28 Q1001 NOSIG,5,9,2023,14,0
OTHH,2023-09-05 15:00:00,51.6084,25.2746,-3.72,96.8,82.4,63.53,30.0,12.0,0.0,29.56,4.35,NSC,,HZ,122.27,OTHH 051500Z 03012KT 7000 NSC 36/28 Q1001 NOSIG,5,9,2023,15,0
OTHH,2023-09-05 16:00:00,51.6084,25.2746,-3.72,95.0,84.2,71.16,30.0,14.0,0.0,29.56,4.35,NSC,,HZ,123.83,OTHH 051600Z 03014KT 7000 NSC 35/29 Q1001 NOSIG,5,9,2023,16,0
OTHH,2023-09-05 17:00:00,51.6084,25.2746,-3.72,95.0,82.4,67.14,20.0,7.0,0.0,29.59,4.97,NSC,,HZ,119.73,OTHH 051700Z 02007KT 8000 NSC 35/28 Q1002 NOSIG,5,9,2023,17,0
OTHH,2023-09-05 18:00:00,51.6084,25.2746,-3.72,93.2,84.2,75.24,30.0,8.0,0.0,29.59,4.97,NSC,,HZ,121.14,OTHH 051800Z 03008KT 8000 NSC 34/29 Q1002 NOSIG,5,9,2023,18,0
OTHH,2023-09-05 19:00:00,51.6084,25.2746,-3.72,93.2,84.2,75.24,30.0,8.0,0.0,29.59,4.35,NSC,,HZ,121.14,OTHH 051900Z 03008KT 7000 NSC 34/29 Q1002 NOSIG,5,9,2023,19,0
OTHH,2023-09-05 20:00:00,51.6084,25.2746,-3.72,93.2,84.2,75.24,40.0,7.0,0.0,29.59,4.97,NSC,,HZ,121.14,OTHH 052000Z 04007KT 8000 NSC 34/29 Q1002 NOSIG,5,9,2023,20,0
OTHH,2023-09-05 21:00:00,51.6084,25.2746,-3.72,93.2,84.2,75.24,60.0,5.0,0.0,29.59,4.35,NSC,,HZ,121.14,OTHH 052100Z 06005KT 030V090 7000 NSC 34/29 Q1002 NOSIG,5,9,2023,21,0
OTHH,2023-09-05 22:00:00,51.6084,25.2746,-3.72,91.4,84.2,79.58,70.0,4.0,0.0,29.59,4.35,NSC,,HZ,118.28,OTHH 052200Z 07004KT 7000 NSC 33/29 Q1002 NOSIG,5,9,2023,22,0
OTHH,2023-09-05 23:00:00,51.6084,25.2746,-3.72,91.4,84.2,79.58,70.0,3.0,0.0,29.59,3.73,FEW,1200.0,HZ,118.28,OTHH 052300Z 07003KT 6000 FEW012 33/29 Q1002 TEMPO 5000,5,9,2023,23,0
OTHH,2023-09-06 00:00:00,51.6084,25.2746,-3.72,91.4,84.2,79.58,40.0,3.0,0.0,29.59,3.73,NSC,,HZ,118.28,OTHH 060000Z 04003KT 330V120 6000 NSC 33/29 Q1002 TEMPO 5000,6,9,2023,0,0
OTHH,2023-09-06 01:00:00,51.6084,25.2746,-3.72,89.6,84.2,84.2,,1.0,0.0,29.59,3.11,NSC,,HZ,115.19,OTHH 060100Z VRB01KT 5000 HZ NSC 32/29 Q1002 NOSIG,6,9,2023,1,0
OTHH,2023-09-06 02:00:00,51.6084,25.2746,-3.72,89.6,84.2,84.2,220.0,2.0,0.0,29.59,3.11,NSC,,HZ,115.19,OTHH 060200Z 22002KT 5000 HZ NSC 32/29 Q1002 TEMPO 4000,6,9,2023,2,0
OTHH,2023-09-06 03:00:00,51.6084,25.2746,-3.72,91.4,84.2,79.58,210.0,4.0,0.0,29.62,2.3,NSC,,HZ,118.28,OTHH 060300Z 21004KT 3700 HZ NSC 33/29 Q1003 TEMPO 3000,6,9,2023,3,0
OTHH,2023-09-06 04:00:00,51.6084,25.2746,-3.72,93.2,84.2,75.24,180.0,5.0,0.0,29.62,2.8,NSC,,HZ,121.14,OTHH 060400Z 18005KT 150V210 4500 HZ NSC 34/29 Q1003 NOSIG,6,9,2023,4,0
OTHH,2023-09-06 05:00:00,51.6084,25.2746,-3.72,93.2,84.2,75.24,170.0,5.0,0.0,29.65,2.92,FEW,1600.0,HZ,121.14,OTHH 060500Z 17005KT 130V260 4700 HZ FEW016 34/29 Q1004 NOSIG,6,9,2023,5,0
OTHH,2023-09-06 06:00:00,51.6084,25.2746,-3.72,95.0,84.2,71.16,170.0,5.0,0.0,29.65,3.11,FEW,1800.0,HZ,123.83,OTHH 060600Z 17005KT 130V220 5000 HZ FEW018 35/29 Q1004 NOSIG,6,9,2023,6,0
OTHH,2023-09-06 07:00:00,51.6084,25.2746,-3.72,96.8,84.2,67.34,120.0,9.0,0.0,29.65,3.73,NSC,,HZ,126.41,OTHH 060700Z 12009KT 6000 NSC 36/29 Q1004 NOSIG,6,9,2023,7,0
OTHH,2023-09-06 08:00:00,51.6084,25.2746,-3.72,98.6,84.2,63.74,120.0,9.0,0.0,29.62,3.73,NSC,,HZ,128.92,OTHH 060800Z 12009KT 6000 NSC 37/29 Q1003 NOSIG,6,9,2023,8,0
OTHH,2023-09-06 09:00:00,51.6084,25.2746,-3.72,100.4,84.2,60.36,100.0,8.0,0.0,29.59,3.11,NSC,,HZ,131.38,OTHH 060900Z 10008KT 5000 HZ NSC 38/29 Q1002 NOSIG,6,9,2023,9,0
OTHH,2023-09-06 10:00:00,51.6084,25.2746,-3.72,100.4,86.0,63.95,110.0,9.0,0.0,29.59,3.04,NSC,,HZ,136.05,OTHH 061000Z 11009KT 4900 HZ NSC 38/30 Q1002 NOSIG,6,9,2023,10,0
OTHH,2023-09-06 11:00:00,51.6084,25.2746,-3.72,98.6,84.2,63.74,90.0,7.0,0.0,29.56,3.11,NSC,,HZ,128.92,OTHH 061100Z 09007KT 5000 HZ NSC 37/29 Q1001 NOSIG,6,9,2023,11,0
OTHH,2023-09-06 12:00:00,51.6084,25.2746,-3.72,98.6,84.2,63.74,70.0,11.0,0.0,29.56,3.11,NSC,,HZ,128.92,OTHH 061200Z 07011KT 5000 HZ NSC 37/29 Q1001 NOSIG,6,9,2023,12,0
OTHH,2023-09-06 13:00:00,51.6084,25.2746,-3.72,96.8,86.0,71.34,90.0,12.0,0.0,29.56,3.11,NSC,,HZ,131.06,OTHH 061300Z 09012KT 5000 HZ NSC 36/30 Q1001 NOSIG,6,9,2023,13,0
OTHH,2023-09-06 14:00:00,51.6084,25.2746,-3.72,96.8,84.2,67.34,100.0,11.0,0.0,29.56,3.11,NSC,,HZ,126.41,OTHH 061400Z 10011KT 5000 HZ NSC 36/29 Q1001 NOSIG,6,9,2023,14,0
OTHH,2023-09-06 15:00:00,51.6084,25.2746,-3.72,95.0,84.2,71.16,100.0,10.0,0.0,29.56,2.49,NSC,,HZ,123.83,OTHH 061500Z 10010KT 4000 HZ NSC 35/29 Q1001 NOSIG,6,9,2023,15,0
OTHH,2023-09-06 16:00:00,51.6084,25.2746,-3.72,95.0,86.0,75.39,80.0,11.0,0.0,29.59,3.11,NSC,,HZ,128.43,OTHH 061600Z 08011KT 5000 HZ NSC 35/30 Q1002 NOSIG,6,9,2023,16,0
OTHH,2023-09-06 17:00:00,51.6084,25.2746,-3.72,95.0,84.2,71.16,90.0,9.0,0.0,29.59,3.11,NSC,,HZ,123.83,OTHH 061700Z 09009KT 5000 HZ NSC 35/29 Q1002 NOSIG,6,9,2023,17,0
OTHH,2023-09-06 18:00:00,51.6084,25.2746,-3.72,93.2,86.0,79.71,100.0,9.0,0.0,29.59,2.49,NSC,,HZ,125.66,OTHH 061800Z 10009KT 4000 HZ NSC 34/30 Q1002 TEMPO 3000,6,9,2023,18,0
OTHH,2023-09-06 19:00:00,51.6084,25.2746,-3.72,93.2,86.0,79.71,90.0,7.0,0.0,29.59,2.17,NSC,,HZ,125.66,OTHH 061900Z 09007KT 3500 HZ NSC 34/30 Q1002 NOSIG,6,9,2023,19,0
OTHH,2023-09-06 20:00:00,51.6084,25.2746,-3.72,93.2,86.0,79.71,100.0,5.0,0.0,29.59,2.49,NSC,,HZ,125.66,OTHH 062000Z 10005KT 4000 HZ NSC 34/30 Q1002 NOSIG,6,9,2023,20,0
OTHH,2023-09-06 21:00:00,51.6084,25.2746,-3.72,93.2,86.0,79.71,130.0,3.0,0.0,29.56,2.49,NSC,,HZ,125.66,OTHH 062100Z 13003KT 080V190 4000 HZ NSC 34/30 Q1001 NOSIG,6,9,2023,21,0
OTHH,2023-09-06 22:00:00,51.6084,25.2746,-3.72,93.2,86.0,79.71,150.0,5.0,0.0,29.56,2.36,NSC,,HZ,125.66,OTHH 062200Z 15005KT 3800 HZ NSC 34/30 Q1001 NOSIG,6,9,2023,22,0
OTHH,2023-09-06 23:00:00,51.6084,25.2746,-3.72,91.4,86.0,84.31,150.0,6.0,0.0,29.56,2.3,NSC,,HZ,122.69,OTHH 062300Z 15006KT 3700 HZ NSC 33/30 Q1001 NOSIG,6,9,2023,23,0
OTHH,2023-09-07 00:00:00,51.6084,25.2746,-3.72,91.4,84.2,79.58,140.0,7.0,0.0,29.56,2.49,NSC,,HZ,118.28,OTHH 070000Z 14007KT 4000 HZ NSC 33/29 Q1001 NOSIG,7,9,2023,0,0
OTHH,2023-09-07 01:00:00,51.6084,25.2746,-3.72,91.4,84.2,79.58,200.0,5.0,0.0,29.56,2.3,NSC,,HZ,118.28,OTHH 070100Z 20005KT 160V230 3700 HZ NSC 33/29 Q1001 NOSIG,7,9,2023,1,0
OTHH,2023-09-07 02:00:00,51.6084,25.2746,-3.72,91.4,86.0,84.31,200.0,3.0,0.0,29.59,2.17,NSC,,HZ,122.69,OTHH 070200Z 20003KT 160V250 3500 HZ NSC 33/30 Q1002 TEMPO 3000,7,9,2023,2,0
OTHH,2023-09-07 03:00:00,51.6084,25.2746,-3.72,91.4,86.0,84.31,150.0,4.0,0.0,29.62,1.12,NSC,,HZ,122.69,OTHH 070300Z 15004KT 130V220 1800 HZ NSC 33/30 Q1003 NOSIG,7,9,2023,3,0
OTHH,2023-09-07 04:00:00,51.6084,25.2746,-3.72,93.2,86.0,79.71,260.0,3.0,0.0,29.62,0.93,FEW,1000.0,BR,125.66,OTHH 070400Z 26003KT 220V280 1500 BR FEW010 34/30 Q1003 NOSIG,7,9,2023,4,0
OTHH,2023-09-07 05:00:00,51.6084,25.2746,-3.72,95.0,87.8,79.84,,1.0,0.0,29.65,0.99,FEW,1500.0,BR,133.59,OTHH 070500Z VRB01KT 1600 BR FEW015 35/31 Q1004 NOSIG,7,9,2023,5,0
OTHH,2023-09-07 06:00:00,51.6084,25.2746,-3.72,96.8,84.2,67.34,140.0,6.0,0.0,29.65,1.55,FEW,1500.0,HZ,126.41,OTHH 070600Z 14006KT 100V190 2500 HZ FEW015 SCT020 36/29 Q1004 NOSIG,7,9,2023,6,0
OTHH,2023-09-07 07:00:00,51.6084,25.2746,-3.72,100.4,77.0,47.71,120.0,7.0,0.0,29.65,2.8,NSC,,HZ,117.15,OTHH 070700Z 12007KT 4500 HZ NSC 38/25 Q1004 NOSIG,7,9,2023,7,0
OTHH,2023-09-07 08:00:00,51.6084,25.2746,-3.72,102.2,77.0,45.2,120.0,9.0,0.0,29.62,3.73,NSC,,HZ,119.55,OTHH 070800Z 12009KT 6000 NSC 39/25 Q1003 NOSIG,7,9,2023,8,0
OTHH,2023-09-07 09:00:00,51.6084,25.2746,-3.72,105.8,75.2,38.25,110.0,9.0,0.0,29.62,4.35,NSC,,HZ,121.61,OTHH 070900Z 11009KT 7000 NSC 41/24 Q1003 NOSIG,7,9,2023,9,0
OTHH,2023-09-07 10:00:00,51.6084,25.2746,-3.72,105.8,77.0,40.61,90.0,9.0,0.0,29.59,4.35,NSC,,HZ,124.33,OTHH 071000Z 09009KT 7000 NSC 41/25 Q1002 NOSIG,7,9,2023,10,0
OTHH,2023-09-07 11:00:00,51.6084,25.2746,-3.72,102.2,77.0,45.2,90.0,10.0,0.0,29.56,5.59,NSC,,HZ,119.55,OTHH 071100Z 09010KT 9000 NSC 39/25 Q1001 NOSIG,7,9,2023,11,0
OTHH,2023-09-07 12:00:00,51.6084,25.2746,-3.72,102.2,78.8,47.97,100.0,13.0,0.0,29.56,4.35,NSC,,HZ,122.55,OTHH 071200Z 10013KT 7000 NSC 39/26 Q1001 NOSIG,7,9,2023,12,0
OTHH,2023-09-07 13:00:00,51.6084,25.2746,-3.72,100.4,82.4,56.95,90.0,12.0,0.0,29.56,4.35,NSC,,HZ,127.21,OTHH 071300Z 09012KT 7000 NSC 38/28 Q1001 NOSIG,7,9,2023,13,0
OTHH,2023-09-07 14:00:00,51.6084,25.2746,-3.72,98.6,82.4,60.14,90.0,13.0,0.0,29.56,4.35,NSC,,HZ,124.75,OTHH 071400Z 09013KT 7000 NSC 37/28 Q1001 NOSIG,7,9,2023,14,0
OTHH,2023-09-07 15:00:00,51.6084,25.2746,-3.72,96.8,84.2,67.34,90.0,13.0,0.0,29.56,4.35,NSC,,HZ,126.41,OTHH 071500Z 09013KT 7000 NSC 36/29 Q1001 NOSIG,7,9,2023,15,0
OTHH,2023-09-07 16:00:00,51.6084,25.2746,-3.72,96.8,84.2,67.34,90.0,13.0,0.0,29.56,4.35,NSC,,HZ,126.41,OTHH 071600Z 09013KT 7000 NSC 36/29 Q1001 NOSIG,7,9,2023,16,0
OTHH,2023-09-07 17:00:00,51.6084,25.2746,-3.72,95.0,86.0,75.39,90.0,14.0,0.0,29.59,3.73,NSC,,HZ,128.43,OTHH 071700Z 09014KT 6000 NSC 35/30 Q1002 NOSIG,7,9,2023,17,0
OTHH,2023-09-07 18:00:00,51.6084,25.2746,-3.72,95.0,86.0,75.39,90.0,14.0,0.0,29.59,3.04,NSC,,HZ,128.43,OTHH 071800Z 09014KT 4900 HZ NSC 35/30 Q1002 TEMPO 4000,7,9,2023,18,0
OTHH,2023-09-07 19:00:00,51.6084,25.2746,-3.72,95.0,86.0,75.39,100.0,10.0,0.0,29.59,3.11,NSC,,HZ,128.43,OTHH 071900Z 10010KT 5000 HZ NSC 35/30 Q1002 TEMPO 4000,7,9,2023,19,0
OTHH,2023-09-07 20:00:00,51.6084,25.2746,-3.72,95.0,86.0,75.39,110.0,9.0,0.0,29.56,4.35,NSC,,HZ,128.43,OTHH 072000Z 11009KT 7000 NSC 35/30 Q1001 NOSIG,7,9,2023,20,0
OTHH,2023-09-07 21:00:00,51.6084,25.2746,-3.72,95.0,86.0,75.39,160.0,7.0,0.0,29.56,5.59,NSC,,HZ,128.43,OTHH 072100Z 16007KT 9000 NSC 35/30 Q1001 NOSIG,7,9,2023,21,0
OTHH,2023-09-07 22:00:00,51.6084,25.2746,-3.72,93.2,84.2,75.24,170.0,5.0,0.0,29.56,5.59,NSC,,HZ,121.14,OTHH 072200Z AUTO 17005KT 9000 NSC 34/29 Q1001 NOSIG,7,9,2023,22,0
OTHH,2023-09-07 23:00:00,51.6084,25.2746,-3.72,93.2,84.2,75.24,160.0,5.0,0.0,29.56,5.59,NSC,,HZ,121.14,OTHH 072300Z AUTO 16005KT 9000 NSC 34/29 Q1001 NOSIG,7,9,2023,23,0
OTHH,2023-09-08 00:00:00,51.6084,25.2746,-3.72,91.4,84.2,79.58,170.0,9.0,0.0,29.56,4.35,NSC,,HZ,118.28,OTHH 080000Z 17009KT 150V210 7000 NSC 33/29 Q1001 NOSIG,8,9,2023,0,0
OTHH,2023-09-08 01:00:00,51.6084,25.2746,-3.72,93.2,86.0,79.71,150.0,10.0,0.0,29.59,4.35,NSC,,HZ,125.66,OTHH 080100Z AUTO 15010KT 7000 NSC 34/30 Q1002 NOSIG,8,9,2023,1,0
OTHH,2023-09-08 02:00:00,51.6084,25.2746,-3.72,93.2,84.2,75.24,160.0,10.0,0.0,29.59,4.97,NSC,,HZ,121.14,OTHH 080200Z 16010KT 8000 NSC 34/29 Q1002 NOSIG,8,9,2023,2,0
OTHH,2023-09-08 03:00:00,51.6084,25.2746,-3.72,93.2,84.2,75.24,190.0,6.0,0.0,29.62,4.35,NSC,,HZ,121.14,OTHH 080300Z 19006KT 7000 NSC 34/29 Q1003 NOSIG,8,9,2023,3,0
OTHH,2023-09-11 16:00:00,51.6084,25.2746,-3.72,95.0,82.4,67.14,60.0,5.0,0.0,29.53,4.97,NSC,,HZ,119.73,OTHH 111600Z 06005KT 8000 NSC 35/28 Q1000 NOSIG,11,9,2023,16,0
OTHH,2023-09-11 17:00:00,51.6084,25.2746,-3.72,93.2,84.2,75.24,70.0,6.0,0.0,29.53,4.35,NSC,,HZ,121.14,OTHH 111700Z 07006KT 7000 NSC 34/29 Q1000 NOSIG,11,9,2023,17,0
OTHH,2023-09-11 18:00:00,51.6084,25.2746,-3.72,93.2,84.2,75.24,80.0,7.0,0.0,29.56,4.35,NSC,,HZ,121.14,OTHH 111800Z 08007KT 040V140 7000 NSC 34/29 Q1001 NOSIG,11,9,2023,18,0
OTHH,2023-09-12 01:00:00,51.6084,25.2746,-3.72,91.4,84.2,79.58,30.0,6.0,0.0,29.56,4.97,NSC,,HZ,118.28,OTHH 120100Z 03006KT 350V050 8000 NSC 33/29 Q1001 NOSIG,12,9,2023,1,0
OTHH,2023-09-12 02:00:00,51.6084,25.2746,-3.72,93.2,78.8,63.11,60.0,6.0,0.0,29.56,5.59,NSC,,HZ,110.34,OTHH 120200Z 06006KT 360V090 9000 NSC 34/26 Q1001 NOSIG,12,9,2023,2,0
OTHH,2023-09-12 03:00:00,51.6084,25.2746,-3.72,93.2,80.6,66.95,120.0,5.0,0.0,29.56,4.35,NSC,,HZ,113.52,OTHH 120300Z 12005KT 060V140 7000 NSC 34/27 Q1001 NOSIG,12,9,2023,3,0
OTHH,2023-09-12 04:00:00,51.6084,25.2746,-3.72,93.2,78.8,63.11,130.0,7.0,0.0,29.59,5.59,NSC,,HZ,110.34,OTHH 120400Z 13007KT 9000 NSC 34/26 Q1002 NOSIG,12,9,2023,4,0
OTHH,2023-09-12 06:00:00,51.6084,25.2746,-3.72,96.8,82.4,63.53,110.0,8.0,0.0,29.65,5.59,FEW,2500.0,HZ,122.27,OTHH 120600Z 11008KT 9000 FEW025 36/28 Q1004 NOSIG,12,9,2023,6,0
OTHH,2023-09-12 07:00:00,51.6084,25.2746,-3.72,96.8,82.4,63.53,120.0,7.0,0.0,29.65,5.59,FEW,2500.0,HZ,122.27,OTHH 120700Z 12007KT 9000 FEW025 36/28 Q1004 NOSIG,12,9,2023,7,0
OTHH,2023-09-12 08:00:00,51.6084,25.2746,-3.72,98.6,80.6,56.72,120.0,9.0,0.0,29.62,4.35,FEW,3000.0,HZ,121.03,OTHH 120800Z 12009KT 7000 FEW030 37/27 Q1003 NOSIG,12,9,2023,8,0
OTHH,2023-09-12 09:00:00,51.6084,25.2746,-3.72,98.6,82.4,60.14,120.0,9.0,0.0,29.62,4.35,NSC,,HZ,124.75,OTHH 120900Z 12009KT 7000 NSC 37/28 Q1003 NOSIG,12,9,2023,9,0
OTHH,2023-09-12 10:00:00,51.6084,25.2746,-3.72,100.4,82.4,56.95,80.0,6.0,0.0,29.59,4.97,NSC,,HZ,127.21,OTHH 121000Z 08006KT 8000 NSC 38/28 Q1002 NOSIG,12,9,2023,10,0
OTHH,2023-09-12 11:00:00,51.6084,25.2746,-3.72,98.6,82.4,60.14,80.0,8.0,0.0,29.56,4.35,NSC,,HZ,124.75,OTHH 121100Z 08008KT 7000 NSC 37/28 Q1001 NOSIG,12,9,2023,11,0
OTHH,2023-09-12 12:00:00,51.6084,25.2746,-3.72,100.4,82.4,56.95,70.0,9.0,0.0,29.56,4.35,NSC,,HZ,127.21,OTHH 121200Z 07009KT 7000 NSC 38/28 Q1001 NOSIG,12,9,2023,12,0
OTHH,2023-09-12 13:00:00,51.6084,25.2746,-3.72,98.6,82.4,60.14,70.0,8.0,0.0,29.56,4.35,NSC,,HZ,124.75,OTHH 121300Z 07008KT 7000 NSC 37/28 Q1001 NOSIG,12,9,2023,13,0
OTHH,2023-09-12 14:00:00,51.6084,25.2746,-3.72,98.6,80.6,56.72,100.0,6.0,0.0,29.56,4.97,NSC,,HZ,121.03,OTHH 121400Z 10006KT 8000 NSC 37/27 Q1001 NOSIG,12,9,2023,14,0
OTHH,2023-09-12 15:00:00,51.6084,25.2746,-3.72,96.8,82.4,63.53,30.0,9.0,0.0,29.56,4.35,NSC,,HZ,122.27,OTHH 121500Z 03009KT 7000 NSC 36/28 Q1001 NOSIG,12,9,2023,15,0
OTHH,2023-09-12 16:00:00,51.6084,25.2746,-3.72,95.0,82.4,67.14,20.0,10.0,0.0,29.59,4.97,NSC,,HZ,119.73,OTHH 121600Z 02010KT 8000 NSC 35/28 Q1002 NOSIG,12,9,2023,16,0
OTHH,2023-09-12 17:00:00,51.6084,25.2746,-3.72,95.0,84.2,71.16,30.0,7.0,0.0,29.59,3.73,NSC,,HZ,123.83,OTHH 121700Z 03007KT 6000 NSC 35/29 Q1002 TEMPO 5000,12,9,2023,17,0
OTHH,2023-09-12 18:00:00,51.6084,25.2746,-3.72,93.2,84.2,75.24,60.0,5.0,0.0,29.59,3.11,NSC,,HZ,121.14,OTHH 121800Z 06005KT 5000 HZ NSC 34/29 Q1002 NOSIG,12,9,2023,18,0
OTHH,2023-09-12 19:00:00,51.6084,25.2746,-3.72,93.2,84.2,75.24,100.0,4.0,0.0,29.59,3.73,NSC,,HZ,121.14,OTHH 121900Z 10004KT 6000 NSC 34/29 Q1002 NOSIG,12,9,2023,19,0
OTHH,2023-09-12 20:00:00,51.6084,25.2746,-3.72,93.2,82.4,70.99,80.0,4.0,0.0,29.59,4.35,NSC,,HZ,117.1,OTHH 122000Z 08004KT 050V120 7000 NSC 34/28 Q1002 NOSIG,12,9,2023,20,0
OTHH,2023-09-12 21:00:00,51.6084,25.2746,-3.72,93.2,84.2,75.24,,2.0,0.0,29.56,4.35,NSC,,HZ,121.14,OTHH 122100Z VRB02KT 7000 NSC 34/29 Q1001 NOSIG,12,9,2023,21,0
OTHH,2023-09-12 22:00:00,51.6084,25.2746,-3.72,91.4,82.4,75.08,280.0,4.0,0.0,29.53,4.35,NSC,,HZ,114.36,OTHH 122200Z 28004KT 7000 NSC 33/28 Q1000 NOSIG,12,9,2023,22,0
OTHH,2023-09-13 00:00:00,51.6084,25.2746,-3.72,93.2,84.2,75.24,180.0,5.0,0.0,29.56,4.35,FEW,1500.0,HZ,121.14,OTHH 130000Z 18005KT 080V210 7000 FEW015 SCT150 34/29 Q1001 NOSIG,13,9,2023,0,0
OTHH,2023-09-13 01:00:00,51.6084,25.2746,-3.72,91.4,82.4,75.08,210.0,4.0,0.0,29.56,3.73,NSC,,HZ,114.36,OTHH 130100Z 21004KT 6000 NSC 33/28 Q1001 NOSIG,13,9,2023,1,0
OTHH,2023-09-13 02:00:00,51.6084,25.2746,-3.72,91.4,82.4,75.08,200.0,3.0,0.0,29.59,3.73,NSC,,HZ,114.36,OTHH 130200Z 20003KT 170V240 6000 NSC 33/28 Q1002 NOSIG,13,9,2023,2,0
OTHH,2023-09-13 03:00:00,51.6084,25.2746,-3.72,91.4,82.4,75.08,230.0,5.0,0.0,29.59,2.8,NSC,,HZ,114.36,OTHH 130300Z 23005KT 4500 HZ NSC 33/28 Q1002 TEMPO 4000,13,9,2023,3,0
OTHH,2023-09-13 04:00:00,51.6084,25.2746,-3.72,93.2,78.8,63.11,230.0,7.0,0.0,29.59,3.73,NSC,,HZ,110.34,OTHH 130400Z 23007KT 6000 NSC 34/26 Q1002 NOSIG,13,9,2023,4,0
OTHH,2023-09-13 05:00:00,51.6084,25.2746,-3.72,96.8,77.0,53.22,240.0,6.0,0.0,29.59,4.35,NSC,,HZ,112.35,OTHH 130500Z 24006KT 7000 NSC 36/25 Q1002 NOSIG,13,9,2023,5,0
OTHH,2023-09-13 06:00:00,51.6084,25.2746,-3.72,100.4,73.4,42.3,240.0,5.0,0.0,29.59,4.97,NSC,,HZ,112.12,OTHH 130600Z 24005KT 210V290 8000 NSC 38/23 Q1002 NOSIG,13,9,2023,6,0
OTHH,2023-09-13 07:00:00,51.6084,25.2746,-3.72,100.4,77.0,47.71,330.0,3.0,0.0,29.59,4.97,NSC,,HZ,117.15,OTHH 130700Z 33003KT 260V050 8000 NSC 38/25 Q1002 NOSIG,13,9,2023,7,0
OTHH,2023-09-13 08:00:00,51.6084,25.2746,-3.72,100.4,77.0,47.71,50.0,8.0,0.0,29.59,4.35,NSC,,HZ,117.15,OTHH 130800Z 05008KT 7000 NSC 38/25 Q1002 NOSIG,13,9,2023,8,0
OTHH,2023-09-13 09:00:00,51.6084,25.2746,-3.72,102.2,80.6,50.88,120.0,10.0,0.0,29.56,4.35,NSC,,HZ,125.9,OTHH 130900Z 12010KT 7000 NSC 39/27 Q1001 NOSIG,13,9,2023,9,0
OTHH,2023-09-13 10:00:00,51.6084,25.2746,-3.72,102.2,80.6,50.88,110.0,7.0,0.0,29.53,4.35,NSC,,HZ,125.9,OTHH 131000Z 11007KT 7000 NSC 39/27 Q1000 NOSIG,13,9,2023,10,0
OTHH,2023-09-13 11:00:00,51.6084,25.2746,-3.72,102.2,80.6,50.88,100.0,7.0,0.0,29.5,4.35,NSC,,HZ,125.9,OTHH 131100Z 10007KT 7000 NSC 39/27 Q0999 NOSIG,13,9,2023,11,0
OTHH,2023-09-13 12:00:00,51.6084,25.2746,-3.72,100.4,78.8,50.63,100.0,8.0,0.0,29.5,4.35,NSC,,HZ,120.13,OTHH 131200Z 10008KT 7000 NSC 38/26 Q0999 NOSIG,13,9,2023,12,0
OTHH,2023-09-13 13:00:00,51.6084,25.2746,-3.72,98.6,80.6,56.72,60.0,7.0,0.0,29.5,4.35,NSC,,HZ,121.03,OTHH 131300Z 06007KT 7000 NSC 37/27 Q0999 NOSIG,13,9,2023,13,0
OTHH,2023-09-13 14:00:00,51.6084,25.2746,-3.72,96.8,78.8,56.48,50.0,7.0,0.0,29.53,4.35,NSC,,HZ,115.28,OTHH 131400Z 05007KT 7000 NSC 36/26 Q1000 NOSIG,13,9,2023,14,0
OTHH,2023-09-13 15:00:00,51.6084,25.2746,-3.72,95.0,82.4,67.14,30.0,8.0,0.0,29.53,3.73,NSC,,HZ,119.73,OTHH 131500Z 03008KT 6000 NSC 35/28 Q1000 NOSIG,13,9,2023,15,0
OTHH,2023-09-13 16:00:00,51.6084,25.2746,-3.72,95.0,84.2,71.16,30.0,7.0,0.0,29.53,3.73,NSC,,HZ,123.83,OTHH 131600Z 03007KT 6000 NSC 35/29 Q1000 NOSIG,13,9,2023,16,0
OTHH,2023-09-13 17:00:00,51.6084,25.2746,-3.72,95.0,82.4,67.14,20.0,6.0,0.0,29.56,4.97,NSC,,HZ,119.73,OTHH 131700Z 02006KT 8000 NSC 35/28 Q1001 NOSIG,13,9,2023,17,0
OTHH,2023-09-13 18:00:00,51.6084,25.2746,-3.72,93.2,84.2,75.24,20.0,6.0,0.0,29.56,5.59,NSC,,HZ,121.14,OTHH 131800Z 02006KT 9000 NSC 34/29 Q1001 NOSIG,13,9,2023,18,0
OTHH,2023-09-13 20:00:00,51.6084,25.2746,-3.72,93.2,84.2,75.24,340.0,9.0,0.0,29.56,4.97,NSC,,HZ,121.14,OTHH 132000Z 34009KT 8000 NSC 34/29 Q1001 NOSIG,13,9,2023,20,0
OTHH,2023-09-13 21:00:00,51.6084,25.2746,-3.72,91.4,84.2,79.58,340.0,7.0,0.0,29.53,5.59,NSC,,HZ,118.28,OTHH 132100Z 34007KT 9000 NSC 33/29 Q1000 NOSIG,13,9,2023,21,0
OTHH,2023-09-13 22:00:00,51.6084,25.2746,-3.72,91.4,84.2,79.58,340.0,3.0,0.0,29.53,5.59,NSC,,HZ,118.28,OTHH 132200Z 34003KT 310V020 9000 NSC 33/29 Q1000 NOSIG,13,9,2023,22,0
OTHH,2023-09-13 23:00:00,51.6084,25.2746,-3.72,89.6,84.2,84.2,360.0,3.0,0.0,29.53,4.97,NSC,,HZ,115.19,OTHH 132300Z 36003KT 330V040 8000 NSC 32/29 Q1000 NOSIG,13,9,2023,23,0
OTHH,2023-09-14 00:00:00,51.6084,25.2746,-3.72,89.6,82.4,79.45,,2.0,0.0,29.53,4.97,NSC,,HZ,111.44,OTHH 140000Z VRB02KT 8000 NSC 32/28 Q1000 NOSIG,14,9,2023,0,0
OTHH,2023-09-14 01:00:00,51.6084,25.2746,-3.72,89.6,80.6,74.93,230.0,6.0,0.0,29.53,4.35,NSC,,HZ,108.11,OTHH 140100Z 23006KT 7000 NSC 32/27 Q1000 NOSIG,14,9,2023,1,0
OTHH,2023-09-14 02:00:00,51.6084,25.2746,-3.72,89.6,78.8,70.63,240.0,9.0,0.0,29.53,4.35,NSC,,HZ,105.15,OTHH 140200Z 24009KT 210V300 7000 NSC 32/26 Q1000 NOSIG,14,9,2023,2,0
OTHH,2023-09-14 03:00:00,51.6084,25.2746,-3.72,89.6,78.8,70.63,240.0,7.0,0.0,29.56,4.97,NSC,,HZ,105.15,OTHH 140300Z 24007G17KT 210V290 8000 NSC 32/26 Q1001 NOSIG,14,9,2023,3,0
OTHH,2023-09-14 04:00:00,51.6084,25.2746,-3.72,93.2,77.0,59.47,280.0,10.0,0.0,29.56,4.35,NSC,,HZ,107.52,OTHH 140400Z 28010KT 250V310 7000 NSC 34/25 Q1001 NOSIG,14,9,2023,4,0
OTHH,2023-09-14 05:00:00,51.6084,25.2746,-3.72,96.8,73.4,47.19,260.0,5.0,0.0,29.59,5.59,NSC,,HZ,107.45,OTHH 140500Z 26005KT 190V340 9000 NSC 36/23 Q1002 NOSIG,14,9,2023,5,0
OTHH,2023-09-14 06:00:00,51.6084,25.2746,-3.72,100.4,69.8,37.44,110.0,3.0,0.0,29.59,5.59,NSC,,HZ,108.13,OTHH 140600Z 11003KT 070V140 9000 NSC 38/21 Q1002 NOSIG,14,9,2023,6,0
OTHH,2023-09-14 11:00:00,51.6084,25.2746,-3.72,100.4,80.6,53.71,60.0,8.0,0.0,29.53,5.59,NSC,,HZ,123.47,OTHH 141100Z 06008KT 9000 NSC 38/27 Q1000 NOSIG,14,9,2023,11,0
OTHH,2023-09-15 08:00:00,51.6084,25.2746,-3.72,102.2,77.0,45.2,360.0,18.0,0.0,29.62,5.59,NSC,,HZ,119.55,OTHH 150800Z 36018KT 9000 NSC 39/25 Q1003 NOSIG,15,9,2023,8,0
OTHH,2023-09-15 10:00:00,51.6084,25.2746,-3.72,104.0,73.4,37.98,360.0,15.0,0.0,29.59,5.59,NSC,,HZ,116.81,OTHH 151000Z 36015KT 9000 NSC 40/23 Q1002 NOSIG,15,9,2023,10,0
OTHH,2023-09-23 03:00:00,51.6084,25.2746,-3.72,84.2,73.4,70.08,80.0,4.0,0.0,29.68,6.21,FEW,3600.0,HZ,90.94,OTHH 230300Z 08004KT 9999 FEW036 29/23 Q1005 NOSIG,23,9,2023,3,0
OTHH,2023-09-23 13:00:00,51.6084,25.2746,-3.72,96.8,78.8,56.48,40.0,4.0,0.0,29.65,5.59,NSC,,HZ,115.28,OTHH 231300Z 04004KT 9000 NSC 36/26 Q1004 NOSIG,23,9,2023,13,0
OTHH,2023-09-23 14:00:00,51.6084,25.2746,-3.72,95.0,80.6,63.32,40.0,4.0,0.0,29.65,4.97,NSC,,HZ,116.07,OTHH 231400Z 04004KT 010V070 8000 NSC 35/27 Q1004 NOSIG,23,9,2023,14,0
OTHH,2023-09-23 15:00:00,51.6084,25.2746,-3.72,93.2,84.2,75.24,30.0,6.0,0.0,29.65,4.97,NSC,,HZ,121.14,OTHH 231500Z 03006KT 8000 NSC 34/29 Q1004 NOSIG,23,9,2023,15,0
OTHH,2023-09-23 16:00:00,51.6084,25.2746,-3.72,93.2,84.2,75.24,20.0,8.0,0.0,29.65,5.59,NSC,,HZ,121.14,OTHH 231600Z 02008KT 9000 NSC 34/29 Q1004 NOSIG,23,9,2023,16,0
OTHH,2023-09-23 17:00:00,51.6084,25.2746,-3.72,91.4,84.2,79.58,20.0,8.0,0.0,29.68,5.59,NSC,,HZ,118.28,OTHH 231700Z 02008KT 9000 NSC 33/29 Q1005 NOSIG,23,9,2023,17,0
OTHH,2023-09-23 23:00:00,51.6084,25.2746,-3.72,89.6,84.2,84.2,360.0,8.0,0.0,29.65,6.21,FEW,1000.0,HZ,115.19,OTHH 232300Z 36008KT 9999 FEW010 32/29 Q1004 NOSIG,23,9,2023,23,0
OTHH,2023-09-24 02:00:00,51.6084,25.2746,-3.72,89.6,84.2,84.2,120.0,6.0,0.0,29.68,5.59,FEW,1000.0,HZ,115.19,OTHH 240200Z 12006KT 9000 FEW010 32/29 Q1005 NOSIG,24,9,2023,2,0
OTHH,2023-09-24 03:00:00,51.6084,25.2746,-3.72,89.6,82.4,79.45,100.0,3.0,0.0,29.68,4.97,NSC,,HZ,111.44,OTHH 240300Z 10003KT 8000 NSC 32/28 Q1005 NOSIG,24,9,2023,3,0
OTHH,2023-09-24 04:00:00,51.6084,25.2746,-3.72,91.4,84.2,79.58,130.0,7.0,0.0,29.71,6.21,FEW,1300.0,HZ,118.28,OTHH 240400Z 13007KT 9999 FEW013 33/29 Q1006 NOSIG,24,9,2023,4,0
OTHH,2023-09-24 13:00:00,51.6084,25.2746,-3.72,95.0,80.6,63.32,40.0,11.0,0.0,29.65,5.59,NSC,,HZ,116.07,OTHH 241300Z 04011KT 9000 NSC 35/27 Q1004 NOSIG,24,9,2023,13,0
OTHH,2023-09-24 14:00:00,51.6084,25.2746,-3.72,95.0,80.6,63.32,40.0,9.0,0.0,29.65,5.59,NSC,,HZ,116.07,OTHH 241400Z 04009KT 9000 NSC 35/27 Q1004 NOSIG,24,9,2023,14,0
OTHH,2023-09-24 15:00:00,51.6084,25.2746,-3.72,93.2,80.6,66.95,30.0,7.0,0.0,29.68,5.59,NSC,,HZ,113.52,OTHH 241500Z 03007KT 9000 NSC 34/27 Q1005 NOSIG,24,9,2023,15,0
OTHH,2023-09-25 03:00:00,51.6084,25.2746,-3.72,84.2,75.2,74.44,220.0,4.0,0.0,29.68,5.59,NSC,,HZ,92.45,OTHH 250300Z 22004KT 170V260 9000 NSC 29/24 Q1005 NOSIG,25,9,2023,3,0
OTHH,2023-09-26 03:00:00,51.6084,25.2746,-3.72,87.8,80.6,79.31,50.0,7.0,0.0,29.65,5.59,NSC,,HZ,105.14,OTHH 260300Z 05007KT 9000 NSC 31/27 Q1004 NOSIG,26,9,2023,3,0
OTHH,2023-09-28 04:00:00,51.6084,25.2746,-3.72,89.6,84.2,84.2,340.0,7.0,0.0,29.8,6.21,FEW,3000.0,HZ,115.19,OTHH 280400Z 34007KT 9999 FEW030 32/29 Q1009 NOSIG,28,9,2023,4,0
OTHH,2023-09-28 05:00:00,51.6084,25.2746,-3.72,91.4,86.0,84.31,20.0,4.0,0.0,29.83,6.21,FEW,3000.0,HZ,122.69,OTHH 280500Z 02004KT 350V050 9999 FEW030 33/30 Q1010 NOSIG,28,9,2023,5,0
OTHH,2023-09-28 10:00:00,51.6084,25.2746,-3.72,98.6,77.0,50.38,80.0,7.0,0.0,29.77,6.21,FEW,3000.0,HZ,114.75,OTHH 281000Z 08007KT 040V110 9999 FEW030 37/25 Q1008 NOSIG,28,9,2023,10,0
OTHH,2023-09-30 03:00:00,51.6084,25.2746,-3.72,84.2,71.6,65.95,250.0,4.0,0.0,29.77,4.97,NSC,,HZ,89.6,OTHH 300300Z 25004KT 230V310 8000 NSC 29/22 Q1008 NOSIG,30,9,2023,3,0
OTHH,2023-10-01 03:00:00,51.6084,25.2746,-3.72,84.2,78.8,83.88,280.0,6.0,0.0,29.8,5.59,NSC,,HZ,96.1,OTHH 010300Z 28006KT 240V310 9000 NSC 29/26 Q1009 NOSIG,1,10,2023,3,0
